{"version": 0.6, "generator": "Overpass API 0.7.62.1 084b4234", "osm3s": {"timestamp_osm_base": "2024-05-13T22:52:15Z", "copyright": "The data included in this document is from www.openstreetmap.org. The data is made available under ODbL."}, "elements": [{"type": "node", "id": 6788132894, "lat": 55.3457866, "lon": 86.1280188, "tags": {"amenity": "toilets", "opening_hours": "Mo-Su 08:00-21:00", "operator": "3 \u044d\u0442\u0430\u0436, \u0441\u043f\u0440\u0430\u0432\u0430 \u043e\u0442 \u0444\u0443\u0434\u043a\u043e\u0440\u0442\u0430. \u0420\u044f\u0434\u043e\u043c \u043c\u0430\u0433\u0430\u0437\u0438\u043d \u043e\u0434\u0435\u0436\u0434\u044b \u041b\u0430\u043a\u0431\u0438"}}, {"type": "node", "id": 6788135395, "lat": 55.3457767, "lon": 86.1275077, "tags": {"amenity": "toilets", "opening_hours": "Mo-Su 08:00-21:00", "operator": "3 \u044d\u0442\u0430\u0436, \u0441\u043b\u0435\u0432\u0430 \u043e\u0442 \u0444\u0443\u0434\u043a\u043e\u0440\u0442\u0430. \u0421\u043f\u0440\u0430\u0432\u0430 \u043e\u0442 juice jeans \u0438 sun line"}}, {"type": "node", "id": 6788174185, "lat": 55.3458002, "lon": 86.1278702, "tags": {"amenity": "toilets", "opening_hours": "Mo-Su 08:00-21:00", "operator": "-1 \u044d\u0442\u0430\u0436, \u0441\u043f\u0440\u0430\u0432\u0430 \u043e\u0442 \u0410\u043a\u0432\u0430\u0440\u0435\u043b\u044c, \u0441\u043b\u0435\u0432\u0430 \u043e\u0442 Sportfood"}}, {"type": "node", "id": 6788182685, "lat": 55.3458193, "lon": 86.1275163, "tags": {"amenity": "toilets", "opening_hours": "Mo-Su 08:00-21:00", "operator": "2 \u044d\u0442\u0430\u0436, \u0432 \u0443\u0433\u043b\u0443. \u0423 \u043c\u0430\u0433\u0430\u0437\u0438\u043d\u0430 \"\u0442\u0432\u043e\u044f \u0441\u0443\u043c\u043a\u0430\""}}]}