{"version": 0.6, "generator": "Overpass API 0.7.62.1 084b4234", "osm3s": {"timestamp_osm_base": "2024-05-18T01:23:41Z", "copyright": "The data included in this document is from www.openstreetmap.org. The data is made available under ODbL."}, "elements": [{"type": "node", "id": 1140888332, "lat": 48.5127426, "lon": 44.5381062}, {"type": "node", "id": 1140888354, "lat": 48.5133277, "lon": 44.5350578}, {"type": "node", "id": 1140888365, "lat": 48.513028, "lon": 44.5369979}, {"type": "node", "id": 1140888368, "lat": 48.5146081, "lon": 44.5355122}, {"type": "node", "id": 1140888376, "lat": 48.5126322, "lon": 44.538058}, {"type": "node", "id": 1140888392, "lat": 48.5128576, "lon": 44.5368828}, {"type": "node", "id": 1140888416, "lat": 48.5130601, "lon": 44.5368326}, {"type": "node", "id": 1140888424, "lat": 48.514576, "lon": 44.5356775}, {"type": "node", "id": 1140888431, "lat": 48.5142484, "lon": 44.5373583}, {"type": "node", "id": 1140888441, "lat": 48.5133877, "lon": 44.5351518}, {"type": "node", "id": 1140888446, "lat": 48.512968, "lon": 44.536931}, {"type": "node", "id": 1140888490, "lat": 48.5131023, "lon": 44.536233}, {"type": "node", "id": 1140888497, "lat": 48.5142163, "lon": 44.5375237}, {"type": "node", "id": 1140888510, "lat": 48.5134198, "lon": 44.5349864}, {"type": "node", "id": 1140888541, "lat": 48.5129919, "lon": 44.5361848}, {"type": "node", "id": 1140888551, "lat": 48.5132173, "lon": 44.5350095}, {"type": "node", "id": 1147293336, "lat": 48.5118525, "lon": 44.5355309}, {"type": "node", "id": 1147293840, "lat": 48.5118189, "lon": 44.5357097}, {"type": "node", "id": 1147293918, "lat": 48.5126183, "lon": 44.5360521}, {"type": "node", "id": 1147294540, "lat": 48.5126519, "lon": 44.5358733}, {"type": "node", "id": 1159647492, "lat": 48.5128681, "lon": 44.5348921}, {"type": "node", "id": 1159647619, "lat": 48.5128294, "lon": 44.5348733}, {"type": "node", "id": 1159647693, "lat": 48.512748, "lon": 44.5346403}, {"type": "node", "id": 1159647722, "lat": 48.5128228, "lon": 44.5345443}, {"type": "node", "id": 1159647778, "lat": 48.5128151, "lon": 44.5345805}, {"type": "node", "id": 1159647854, "lat": 48.5129156, "lon": 44.5348891}, {"type": "node", "id": 1159647935, "lat": 48.5127018, "lon": 44.5347792}, {"type": "node", "id": 1159648121, "lat": 48.512928, "lon": 44.5347549}, {"type": "node", "id": 1159648210, "lat": 48.5127592, "lon": 44.5348766}, {"type": "node", "id": 1159648464, "lat": 48.5129297, "lon": 44.5346465}, {"type": "node", "id": 1159648647, "lat": 48.5127182, "lon": 44.5346259}, {"type": "node", "id": 1159649001, "lat": 48.5127845, "lon": 44.5345257}, {"type": "node", "id": 1159649401, "lat": 48.512949, "lon": 44.5346559}, {"type": "node", "id": 1159649670, "lat": 48.5128819, "lon": 44.5345564}, {"type": "node", "id": 1164615476, "lat": 48.5127079, "lon": 44.5348517}, {"type": "node", "id": 1164615479, "lat": 48.5127322, "lon": 44.5347146}, {"type": "node", "id": 1164615490, "lat": 48.5127364, "lon": 44.5345404}, {"type": "node", "id": 1164615495, "lat": 48.5129426, "lon": 44.534762}, {"type": "node", "id": 1164615500, "lat": 48.5127695, "lon": 44.5348286}, {"type": "node", "id": 1164615532, "lat": 48.512871, "lon": 44.5346076}, {"type": "node", "id": 1164615538, "lat": 48.5129272, "lon": 44.5348342}, {"type": "node", "id": 1164615543, "lat": 48.5129426, "lon": 44.5345858}, {"type": "node", "id": 1164615549, "lat": 48.5128731, "lon": 44.5348685}, {"type": "node", "id": 1164615567, "lat": 48.5127214, "lon": 44.5347887}, {"type": "node", "id": 1164615581, "lat": 48.5127772, "lon": 44.5345601}, {"type": "node", "id": 1164615595, "lat": 48.5127171, "lon": 44.5347072}, {"type": "node", "id": 1164615615, "lat": 48.5128324, "lon": 44.5348591}, {"type": "node", "id": 1167876089, "lat": 48.5170729, "lon": 44.5367413}, {"type": "node", "id": 1167876171, "lat": 48.5158802, "lon": 44.536247}, {"type": "node", "id": 1167876217, "lat": 48.5157338, "lon": 44.536099}, {"type": "node", "id": 1167876495, "lat": 48.5159118, "lon": 44.536073}, {"type": "node", "id": 1167876566, "lat": 48.5153911, "lon": 44.5379198}, {"type": "node", "id": 1167876881, "lat": 48.5155057, "lon": 44.5379689}, {"type": "node", "id": 1167877032, "lat": 48.5171045, "lon": 44.5365672}, {"type": "node", "id": 1167877039, "lat": 48.5157938, "lon": 44.5361247}, {"type": "node", "id": 1167877186, "lat": 48.5158484, "lon": 44.5361482}, {"type": "node", "id": 1191588798, "lat": 48.5130944, "lon": 44.5316628}, {"type": "node", "id": 1191588812, "lat": 48.5125953, "lon": 44.5311377}, {"type": "node", "id": 1191588864, "lat": 48.5125276, "lon": 44.5312842}, {"type": "node", "id": 1191588938, "lat": 48.5130268, "lon": 44.5318093}, {"type": "node", "id": 1191605103, "lat": 48.5126022, "lon": 44.5329655}, {"type": "node", "id": 1191605105, "lat": 48.5129016, "lon": 44.5330958}, {"type": "node", "id": 1191605108, "lat": 48.5128706, "lon": 44.5332581}, {"type": "node", "id": 1191605115, "lat": 48.5125712, "lon": 44.5331278}, {"type": "node", "id": 1192527657, "lat": 48.5123133, "lon": 44.5320962}, {"type": "node", "id": 1192527671, "lat": 48.5122144, "lon": 44.5326075}, {"type": "node", "id": 1192527673, "lat": 48.512461, "lon": 44.5321613}, {"type": "node", "id": 1192527675, "lat": 48.5123621, "lon": 44.5326726}, {"type": "node", "id": 1192860651, "lat": 48.5130227, "lon": 44.5329234}, {"type": "node", "id": 1192860740, "lat": 48.5131778, "lon": 44.5320959}, {"type": "node", "id": 1192861001, "lat": 48.5130557, "lon": 44.5320438}, {"type": "node", "id": 1192861075, "lat": 48.5129005, "lon": 44.5328712}, {"type": "node", "id": 4041476947, "lat": 48.5124144, "lon": 44.5324024}, {"type": "node", "id": 5382484020, "lat": 48.5132439, "lon": 44.5341789}, {"type": "node", "id": 5382486121, "lat": 48.5138445, "lon": 44.5344417}, {"type": "node", "id": 5382486122, "lat": 48.5138895, "lon": 44.5342076}, {"type": "node", "id": 5382486123, "lat": 48.5132889, "lon": 44.5339447}, {"type": "way", "id": 98614476, "nodes": [1140888368, 1140888424, 1140888441, 1140888510, 1140888368], "tags": {"addr:city": "\u0412\u043e\u043b\u0433\u043e\u0433\u0440\u0430\u0434", "addr:country": "RU", "addr:district": "\u041a\u0440\u0430\u0441\u043d\u043e\u0430\u0440\u043c\u0435\u0439\u0441\u043a\u0438\u0439 \u0440\u0430\u0439\u043e\u043d", "addr:housenumber": "47", "addr:postcode": "400026", "addr:region": "\u0412\u043e\u043b\u0433\u043e\u0433\u0440\u0430\u0434\u0441\u043a\u0430\u044f \u043e\u0431\u043b\u0430\u0441\u0442\u044c", "addr:street": "\u041f\u0440\u043e\u043b\u0435\u0442\u0430\u0440\u0441\u043a\u0430\u044f \u0443\u043b\u0438\u0446\u0430", "building": "apartments", "building:levels": "9"}}, {"type": "way", "id": 98614481, "nodes": [1140888392, 1140888446, 1140888332, 1140888376, 1140888392], "tags": {"addr:city": "\u0412\u043e\u043b\u0433\u043e\u0433\u0440\u0430\u0434", "addr:country": "RU", "addr:district": "\u041a\u0440\u0430\u0441\u043d\u043e\u0430\u0440\u043c\u0435\u0439\u0441\u043a\u0438\u0439 \u0440\u0430\u0439\u043e\u043d", "addr:housenumber": "60", "addr:postcode": "400026", "addr:region": "\u0412\u043e\u043b\u0433\u043e\u0433\u0440\u0430\u0434\u0441\u043a\u0430\u044f \u043e\u0431\u043b\u0430\u0441\u0442\u044c", "addr:street": "\u043f\u0440\u043e\u0441\u043f\u0435\u043a\u0442 \u0413\u0435\u0440\u043e\u0435\u0432 \u0421\u0442\u0430\u043b\u0438\u043d\u0433\u0440\u0430\u0434\u0430", "building": "apartments", "building:levels": "9"}}, {"type": "way", "id": 98614483, "nodes": [1140888551, 1140888354, 1140888490, 1140888541, 1140888551], "tags": {"addr:city": "\u0412\u043e\u043b\u0433\u043e\u0433\u0440\u0430\u0434", "addr:country": "RU", "addr:district": "\u041a\u0440\u0430\u0441\u043d\u043e\u0430\u0440\u043c\u0435\u0439\u0441\u043a\u0438\u0439 \u0440\u0430\u0439\u043e\u043d", "addr:housenumber": "49", "addr:postcode": "400026", "addr:region": "\u0412\u043e\u043b\u0433\u043e\u0433\u0440\u0430\u0434\u0441\u043a\u0430\u044f \u043e\u0431\u043b\u0430\u0441\u0442\u044c", "addr:street": "\u041f\u0440\u043e\u043b\u0435\u0442\u0430\u0440\u0441\u043a\u0430\u044f \u0443\u043b\u0438\u0446\u0430", "building": "apartments", "building:levels": "9"}}, {"type": "way", "id": 98614485, "nodes": [1140888431, 1140888497, 1140888365, 1140888416, 1140888431], "tags": {"addr:city": "\u0412\u043e\u043b\u0433\u043e\u0433\u0440\u0430\u0434", "addr:country": "RU", "addr:district": "\u041a\u0440\u0430\u0441\u043d\u043e\u0430\u0440\u043c\u0435\u0439\u0441\u043a\u0438\u0439 \u0440\u0430\u0439\u043e\u043d", "addr:housenumber": "62", "addr:postcode": "400026", "addr:region": "\u0412\u043e\u043b\u0433\u043e\u0433\u0440\u0430\u0434\u0441\u043a\u0430\u044f \u043e\u0431\u043b\u0430\u0441\u0442\u044c", "addr:street": "\u043f\u0440\u043e\u0441\u043f\u0435\u043a\u0442 \u0413\u0435\u0440\u043e\u0435\u0432 \u0421\u0442\u0430\u043b\u0438\u043d\u0433\u0440\u0430\u0434\u0430", "building": "apartments", "building:levels": "9"}}, {"type": "way", "id": 99184230, "nodes": [1147294540, 1147293918, 1147293840, 1147293336, 1147294540], "tags": {"addr:city": "\u0412\u043e\u043b\u0433\u043e\u0433\u0440\u0430\u0434", "addr:country": "RU", "addr:district": "\u041a\u0440\u0430\u0441\u043d\u043e\u0430\u0440\u043c\u0435\u0439\u0441\u043a\u0438\u0439 \u0440\u0430\u0439\u043e\u043d", "addr:housenumber": "51\u0410", "addr:postcode": "400026", "addr:region": "\u0412\u043e\u043b\u0433\u043e\u0433\u0440\u0430\u0434\u0441\u043a\u0430\u044f \u043e\u0431\u043b\u0430\u0441\u0442\u044c", "addr:street": "\u041f\u0440\u043e\u043b\u0435\u0442\u0430\u0440\u0441\u043a\u0430\u044f \u0443\u043b\u0438\u0446\u0430", "building": "apartments", "building:levels": "9"}}, {"type": "way", "id": 100310541, "nodes": [1164615490, 1164615581, 1159649001, 1159647722, 1159647778, 1164615532, 1159649670, 1164615543, 1159648464, 1159649401, 1159648121, 1164615495, 1164615538, 1159647854, 1164615549, 1159647492, 1159647619, 1164615615, 1164615500, 1159648210, 1164615476, 1164615567, 1159647935, 1164615595, 1164615479, 1159647693, 1159648647, 1164615490], "tags": {"addr:city": "\u0412\u043e\u043b\u0433\u043e\u0433\u0440\u0430\u0434", "addr:country": "RU", "addr:housenumber": "51\u0411", "addr:postcode": "400112", "addr:street": "\u041f\u0440\u043e\u043b\u0435\u0442\u0430\u0440\u0441\u043a\u0430\u044f \u0443\u043b\u0438\u0446\u0430", "building": "apartments", "building:levels": "16", "fire_operator": "RU-VGG-1-6", "fire_rank": "1bis", "name": "\u0412\u044b\u0441\u043e\u0442\u043d\u044b\u0439 \u0436\u0438\u043b\u043e\u0439 \u0434\u043e\u043c"}}, {"type": "way", "id": 101160611, "nodes": [1167876566, 1167876217, 1167877039, 1167877186, 1167876881, 1167876566], "tags": {"addr:housenumber": "49", "addr:postcode": "400112", "addr:street": "\u043f\u0440\u043e\u0441\u043f\u0435\u043a\u0442 \u0413\u0435\u0440\u043e\u0435\u0432 \u0421\u0442\u0430\u043b\u0438\u043d\u0433\u0440\u0430\u0434\u0430", "building": "apartments", "building:levels": "9"}}, {"type": "way", "id": 101160633, "nodes": [1167877032, 1167876089, 1167876171, 1167876495, 1167877032], "tags": {"addr:housenumber": "45", "addr:postcode": "400112", "addr:street": "\u041f\u0440\u043e\u043b\u0435\u0442\u0430\u0440\u0441\u043a\u0430\u044f \u0443\u043b\u0438\u0446\u0430", "building": "apartments", "building:levels": "9"}}, {"type": "way", "id": 103202227, "nodes": [1191588812, 1191588864, 1191588938, 1191588798, 1191588812], "tags": {"addr:city": "\u0412\u043e\u043b\u0433\u043e\u0433\u0440\u0430\u0434", "addr:housenumber": "68\u0410", "addr:street": "\u0443\u043b\u0438\u0446\u0430 \u0414\u043e\u0446\u0435\u043d\u043a\u043e", "building": "apartments", "building:levels": "5", "fire_operator": "RU-VGG-1-6", "fire_rank": "1 bis", "name": "\u0414\u0435\u0442\u0441\u043a\u0438\u0439 \u0441\u0430\u0434 179"}}, {"type": "way", "id": 103203414, "nodes": [1191605105, 1191605108, 1191605115, 1191605103, 1191605105], "tags": {"addr:city": "\u0412\u043e\u043b\u0433\u043e\u0433\u0440\u0430\u0434", "addr:housenumber": "2", "addr:street": "\u041e\u0431\u0432\u043e\u0434\u043d\u044b\u0439 \u043f\u0435\u0440\u0435\u0443\u043b\u043e\u043a", "building": "apartments", "building:levels": "2"}}, {"type": "way", "id": 103269311, "nodes": [1192527673, 1192527657, 1192527671, 1192527675, 4041476947, 1192527673], "tags": {"addr:city": "\u0412\u043e\u043b\u0433\u043e\u0433\u0440\u0430\u0434", "addr:housenumber": "33\u0410", "addr:street": "\u0443\u043b\u0438\u0446\u0430 \u0414\u043e\u0446\u0435\u043d\u043a\u043e", "building": "apartments", "building:levels": "2", "fire_rank": "1bis", "name": "\u041f\u043e\u043b\u0438\u043a\u043b\u0438\u043d\u0438\u043a\u0430 \u2116 26", "operator": "RU-VGG-1-6"}}, {"type": "way", "id": 103301970, "nodes": [1192860740, 1192861001, 1192861075, 1192860651, 1192860740], "tags": {"addr:city": "\u0412\u043e\u043b\u0433\u043e\u0433\u0440\u0430\u0434", "addr:housenumber": "87\u0410", "addr:street": "\u041f\u0435\u0442\u0440\u043e\u043f\u0430\u0432\u043b\u043e\u0432\u0441\u043a\u0430\u044f \u0443\u043b\u0438\u0446\u0430", "building": "apartments", "building:levels": "4"}}, {"type": "way", "id": 558190979, "nodes": [5382486123, 5382486122, 5382486121, 5382484020, 5382486123], "tags": {"addr:city": "\u0412\u043e\u043b\u0433\u043e\u0433\u0440\u0430\u0434", "addr:housenumber": "49\u0410", "addr:street": "\u041f\u0440\u043e\u043b\u0435\u0442\u0430\u0440\u0441\u043a\u0430\u044f \u0443\u043b\u0438\u0446\u0430", "building": "apartments", "building:levels": "22"}}]}