{"version": 0.6, "generator": "Overpass API 0.7.62.1 084b4234", "osm3s": {"timestamp_osm_base": "2024-05-14T07:12:06Z", "copyright": "The data included in this document is from www.openstreetmap.org. The data is made available under ODbL."}, "elements": [{"type": "node", "id": 986420609, "lat": 55.8052281, "lon": 49.1841249, "tags": {"bench": "yes", "bin": "yes", "bus": "yes", "highway": "bus_stop", "lit": "yes", "name": "\u041f\u0438\u043e\u043d\u0435\u0440\u0441\u043a\u0430\u044f \u0443\u043b\u0438\u0446\u0430", "name:en": "Pionerskaya street", "name:ru": "\u041f\u0438\u043e\u043d\u0435\u0440\u0441\u043a\u0430\u044f \u0443\u043b\u0438\u0446\u0430", "name:tt": "\u041f\u0438\u043e\u043d\u0435\u0440 \u0443\u0440\u0430\u043c\u044b", "public_transport": "platform", "shelter": "yes", "tactile_paving": "no", "trolleybus": "yes"}}, {"type": "node", "id": 986420655, "lat": 55.8062506, "lon": 49.1841963, "tags": {"bench": "yes", "bin": "yes", "bus": "yes", "highway": "bus_stop", "lit": "yes", "name": "\u041f\u0438\u043e\u043d\u0435\u0440\u0441\u043a\u0430\u044f \u0443\u043b\u0438\u0446\u0430", "name:en": "Pionerskaya street", "name:ru": "\u041f\u0438\u043e\u043d\u0435\u0440\u0441\u043a\u0430\u044f \u0443\u043b\u0438\u0446\u0430", "name:tt": "\u041f\u0438\u043e\u043d\u0435\u0440 \u0443\u0440\u0430\u043c\u044b", "public_transport": "platform", "shelter": "yes", "tactile_paving": "yes", "trolleybus": "yes"}}, {"type": "node", "id": 1108813704, "lat": 55.8061101, "lon": 49.1839088}, {"type": "node", "id": 1108813740, "lat": 55.8050497, "lon": 49.1845933}, {"type": "node", "id": 4778474657, "lat": 55.80573, "lon": 49.1840999}, {"type": "node", "id": 4778474658, "lat": 55.8055548, "lon": 49.1843246}, {"type": "way", "id": 485079399, "nodes": [4778474657, 1108813704], "tags": {"highway": "platform", "name": "\u041f\u0438\u043e\u043d\u0435\u0440\u0441\u043a\u0430\u044f \u0443\u043b\u0438\u0446\u0430", "name:en": "Pionerskaya street", "name:etymology:wikidata": "Q581754", "name:ru": "\u041f\u0438\u043e\u043d\u0435\u0440\u0441\u043a\u0430\u044f \u0443\u043b\u0438\u0446\u0430", "name:tt": "\u041f\u0438\u043e\u043d\u0435\u0440 \u0443\u0440\u0430\u043c\u044b", "public_transport": "platform", "railway": "platform", "shelter": "yes"}}, {"type": "way", "id": 485079400, "nodes": [1108813740, 4778474658], "tags": {"bench": "yes", "bin": "yes", "highway": "platform", "lit": "yes", "name": "\u041f\u0438\u043e\u043d\u0435\u0440\u0441\u043a\u0430\u044f \u0443\u043b\u0438\u0446\u0430", "name:en": "Pionerskaya street", "name:etymology:wikidata": "Q581754", "name:ru": "\u041f\u0438\u043e\u043d\u0435\u0440\u0441\u043a\u0430\u044f \u0443\u043b\u0438\u0446\u0430", "name:tt": "\u041f\u0438\u043e\u043d\u0435\u0440 \u0443\u0440\u0430\u043c\u044b", "public_transport": "platform", "railway": "platform", "shelter": "yes", "tactile_paving": "no"}}]}