{"version": 0.6, "generator": "Overpass API 0.7.62.1 084b4234", "osm3s": {"timestamp_osm_base": "2024-05-16T18:31:57Z", "copyright": "The data included in this document is from www.openstreetmap.org. The data is made available under ODbL."}, "elements": [{"type": "node", "id": 822182180, "lat": 55.8270939, "lon": 49.0998942, "tags": {"name": "\u041c\u0430\u0433\u0430\u0437\u0438\u043d \u00ab\u041e\u043a\u0435\u0430\u043d\u00bb", "name:en": "Shop \u00abOcean\u00bb", "name:ru": "\u041c\u0430\u0433\u0430\u0437\u0438\u043d \u00ab\u041e\u043a\u0435\u0430\u043d\u00bb", "name:tt": "\u00ab\u041e\u043a\u0435\u0430\u043d\u00bb \u043a\u0438\u0431\u0435\u0442\u0435", "public_transport": "stop_position", "railway": "tram_stop", "tram": "yes"}}, {"type": "node", "id": 822182215, "lat": 55.8271461, "lon": 49.1467264}, {"type": "node", "id": 1180712029, "lat": 55.8271029, "lon": 49.1218147, "tags": {"name": "\u0443\u043b\u0438\u0446\u0430 \u041c\u0443\u0441\u0438\u043d\u0430", "name:ru": "\u0443\u043b\u0438\u0446\u0430 \u041c\u0443\u0441\u0438\u043d\u0430", "name:tt": "\u041c\u0443\u0441\u0438\u043d \u0443\u0440\u0430\u043c\u044b", "public_transport": "stop_position", "railway": "tram_stop", "tram": "yes"}}, {"type": "node", "id": 1180712247, "lat": 55.8271142, "lon": 49.1208654, "tags": {"railway": "tram_level_crossing"}}, {"type": "node", "id": 1314479000, "lat": 55.8271463, "lon": 49.145765}, {"type": "node", "id": 1561292038, "lat": 55.8271091, "lon": 49.1101631, "tags": {"name": "\u041f\u0430\u0440\u043a \u041f\u043e\u0431\u0435\u0434\u044b", "name:en": "Victory (Pobedy) park", "name:ru": "\u041f\u0430\u0440\u043a \u041f\u043e\u0431\u0435\u0434\u044b", "name:tt": "\u0496\u0438\u04a3\u04af \u043f\u0430\u0440\u043a\u044b", "name:tt-lat": "Ci\u00f1\u00fc park\u0131", "public_transport": "stop_position", "railway": "tram_stop", "tram": "yes"}}, {"type": "node", "id": 1561292039, "lat": 55.827122, "lon": 49.1349097, "tags": {"name": "\u043f\u0440\u043e\u0441\u043f\u0435\u043a\u0442 \u0424\u0430\u0442\u044b\u0445\u0430 \u0410\u043c\u0438\u0440\u0445\u0430\u043d\u0430", "name:ru": "\u043f\u0440\u043e\u0441\u043f\u0435\u043a\u0442 \u0424\u0430\u0442\u044b\u0445\u0430 \u0410\u043c\u0438\u0440\u0445\u0430\u043d\u0430", "name:tt": "\u0424\u0430\u0442\u044b\u0439\u0445 \u04d8\u043c\u0438\u0440\u0445\u0430\u043d \u043f\u0440\u043e\u0441\u043f\u0435\u043a\u0442\u044b", "public_transport": "stop_position", "railway": "tram_stop", "tram": "yes"}}, {"type": "node", "id": 1583903220, "lat": 55.8271516, "lon": 49.1473927, "tags": {"railway": "tram_level_crossing"}}, {"type": "node", "id": 1671859103, "lat": 55.8271109, "lon": 49.1052283, "tags": {"railway": "tram_crossing"}}, {"type": "node", "id": 1931215348, "lat": 55.8270905, "lon": 49.0978086, "tags": {"railway": "switch"}}, {"type": "node", "id": 1931215351, "lat": 55.8270765, "lon": 49.101002, "tags": {"railway": "tram_level_crossing"}}, {"type": "node", "id": 1931215367, "lat": 55.8270833, "lon": 49.1052268, "tags": {"railway": "tram_crossing"}}, {"type": "node", "id": 1931215416, "lat": 55.8270823, "lon": 49.1208688, "tags": {"railway": "tram_level_crossing"}}, {"type": "node", "id": 1931215421, "lat": 55.8271197, "lon": 49.097808, "tags": {"railway": "switch"}}, {"type": "node", "id": 1931215426, "lat": 55.8270961, "lon": 49.1349106, "tags": {"name": "\u043f\u0440\u043e\u0441\u043f\u0435\u043a\u0442 \u0424\u0430\u0442\u044b\u0445\u0430 \u0410\u043c\u0438\u0440\u0445\u0430\u043d\u0430", "name:ru": "\u043f\u0440\u043e\u0441\u043f\u0435\u043a\u0442 \u0424\u0430\u0442\u044b\u0445\u0430 \u0410\u043c\u0438\u0440\u0445\u0430\u043d\u0430", "name:tt": "\u0424\u0430\u0442\u044b\u0439\u0445 \u04d8\u043c\u0438\u0440\u0445\u0430\u043d \u043f\u0440\u043e\u0441\u043f\u0435\u043a\u0442\u044b", "public_transport": "stop_position", "railway": "tram_stop", "tram": "yes"}}, {"type": "node", "id": 1931215433, "lat": 55.8271204, "lon": 49.1467248}, {"type": "node", "id": 1931215439, "lat": 55.8271236, "lon": 49.1473913, "tags": {"railway": "tram_level_crossing"}}, {"type": "node", "id": 1931215442, "lat": 55.8271063, "lon": 49.1009654, "tags": {"railway": "tram_level_crossing"}}, {"type": "node", "id": 1948112061, "lat": 55.8270651, "lon": 49.1002064, "tags": {"name": "\u041c\u0430\u0433\u0430\u0437\u0438\u043d \u00ab\u041e\u043a\u0435\u0430\u043d\u00bb", "name:en": "Shop \u00abOcean\u00bb", "name:ru": "\u041c\u0430\u0433\u0430\u0437\u0438\u043d \u00ab\u041e\u043a\u0435\u0430\u043d\u00bb", "name:tt": "\u00ab\u041e\u043a\u0435\u0430\u043d\u00bb \u043a\u0438\u0431\u0435\u0442\u0435", "public_transport": "stop_position", "railway": "tram_stop", "tram": "yes"}}, {"type": "node", "id": 1949618976, "lat": 55.8270761, "lon": 49.1218216, "tags": {"name": "\u0443\u043b\u0438\u0446\u0430 \u041c\u0443\u0441\u0438\u043d\u0430", "name:ru": "\u0443\u043b\u0438\u0446\u0430 \u041c\u0443\u0441\u0438\u043d\u0430", "name:tt": "\u041c\u0443\u0441\u0438\u043d \u0443\u0440\u0430\u043c\u044b", "public_transport": "stop_position", "railway": "tram_stop", "tram": "yes"}}, {"type": "node", "id": 1984979812, "lat": 55.8270864, "lon": 49.110157, "tags": {"name": "\u041f\u0430\u0440\u043a \u041f\u043e\u0431\u0435\u0434\u044b", "name:en": "Victory (Pobedy) park", "name:ru": "\u041f\u0430\u0440\u043a \u041f\u043e\u0431\u0435\u0434\u044b", "name:tt": "\u0496\u0438\u04a3\u04af \u043f\u0430\u0440\u043a\u044b", "name:tt-lat": "Ci\u00f1\u00fc park\u0131", "public_transport": "stop_position", "railway": "tram_stop", "tram": "yes"}}, {"type": "node", "id": 2335548120, "lat": 55.8270667, "lon": 49.1002746}, {"type": "node", "id": 2813863671, "lat": 55.8270882, "lon": 49.1105195, "tags": {"railway": "tram_crossing"}}, {"type": "node", "id": 9050272452, "lat": 55.8271138, "lon": 49.1047554, "tags": {"railway": "tram_crossing"}}, {"type": "node", "id": 9050272453, "lat": 55.8270857, "lon": 49.1047557, "tags": {"railway": "tram_crossing"}}, {"type": "node", "id": 9144656993, "lat": 55.8271106, "lon": 49.1105259, "tags": {"railway": "tram_crossing"}}, {"type": "node", "id": 9734280008, "lat": 55.8270976, "lon": 49.1002755}, {"type": "node", "id": 9933323844, "lat": 55.8271122, "lon": 49.1210252, "tags": {"railway": "tram_level_crossing"}}, {"type": "node", "id": 9933323845, "lat": 55.8270822, "lon": 49.1210254, "tags": {"railway": "tram_level_crossing"}}, {"type": "node", "id": 10017653227, "lat": 55.8270858, "lon": 49.1049335, "tags": {"railway": "tram_level_crossing"}}, {"type": "node", "id": 10017653228, "lat": 55.8271137, "lon": 49.1049347, "tags": {"railway": "tram_level_crossing"}}, {"type": "node", "id": 10017653229, "lat": 55.8270851, "lon": 49.1050311, "tags": {"railway": "tram_level_crossing"}}, {"type": "node", "id": 10017653230, "lat": 55.827113, "lon": 49.1050322, "tags": {"railway": "tram_level_crossing"}}, {"type": "node", "id": 11742004967, "lat": 55.8271181, "lon": 49.145771}, {"type": "way", "id": 126484592, "nodes": [1583903220, 822182215, 1314479000, 1561292039, 1180712029, 9933323844, 1180712247, 9144656993, 1561292038, 1671859103, 10017653230, 10017653228, 9050272452, 1931215442, 9734280008, 822182180, 1931215421], "tags": {"electrified": "contact_line", "frequency": "0", "gauge": "1524", "oneway": "yes", "railway": "tram", "usage": "main", "voltage": "600"}}, {"type": "way", "id": 182766533, "nodes": [1931215348, 1948112061, 2335548120, 1931215351, 9050272453, 10017653227, 10017653229, 1931215367, 1984979812, 2813863671, 1931215416, 9933323845, 1949618976, 1931215426, 11742004967, 1931215433, 1931215439], "tags": {"electrified": "contact_line", "frequency": "0", "gauge": "1524", "oneway": "yes", "railway": "tram", "usage": "main", "voltage": "600"}}]}