{"version": 0.6, "generator": "Overpass API 0.7.62.1 084b4234", "osm3s": {"timestamp_osm_base": "2024-05-16T13:53:30Z", "copyright": "The data included in this document is from www.openstreetmap.org. The data is made available under ODbL."}, "elements": [{"type": "node", "id": 6536736939, "lat": 52.26569, "lon": 104.227022, "tags": {"amenity": "fast_food", "contact:email": "hotline@coffee-like.com", "contact:phone": "+7 341 2908292;+7 800 3334130", "contact:website": "https://coffee-like.com/", "cuisine": "coffee_shop", "name": "Coffee Like", "opening_hours": "Mo-Su 10:00-22:00", "operator": "\u041a\u043e\u0444\u0435 \u041b\u0430\u0439\u043a \u0418\u0440\u043a\u0443\u0442\u0441"}}, {"type": "node", "id": 7505868610, "lat": 52.265673, "lon": 104.2270167, "tags": {"amenity": "fast_food", "contact:email": "FeedBack@burgerking.ru", "contact:phone": "+7 495 5445000", "contact:vk": "https://vk.com/burgerking", "contact:website": "https://burgerkingrus.ru/", "cuisine": "burger", "name": "\u0411\u0443\u0440\u0433\u0435\u0440 \u041a\u0438\u043d\u0433", "opening_hours": "10:00-22:00", "operator": "\u0411\u0423\u0420\u0413\u0415\u0420 \u0420\u0423\u0421"}}, {"type": "node", "id": 7832285775, "lat": 52.2657609, "lon": 104.2278314, "tags": {"amenity": "fast_food", "brand": "Cinnabon", "brand:wikidata": "Q1092539", "brand:wikipedia": "en:Cinnabon", "contact:email": "102109@cinnabon.me", "contact:facebook": "https://www.facebook.com/cinnabon.russia", "contact:instagram": "https://instagram.com/cinnabon_russia", "contact:phone": "+7 395 2486897;+7 914 0045174", "contact:vk": "https://vk.com/cinnabon_rus", "contact:website": "https://cinnabonrussia.com/", "cuisine": "dessert", "diet:vegetarian": "no", "name": "Cinnabon", "opening_hours": "Mo-Su 10:00-22:00", "operator": "\u041a\u0438\u0412\u0438", "takeaway": "yes"}}, {"type": "node", "id": 11459483346, "lat": 52.265501, "lon": 104.225569, "tags": {"amenity": "fast_food", "contact:phone": "+7 800 3508418", "contact:website": "https://cofix.global", "cuisine": "coffee_shop", "name": "Cofix", "opening_hours": "Mo-Su 10:00-22:00"}}]}