{"version": 0.6, "generator": "Overpass API 0.7.62.1 084b4234", "osm3s": {"timestamp_osm_base": "2024-05-17T01:01:18Z", "copyright": "The data included in this document is from www.openstreetmap.org. The data is made available under ODbL."}, "elements": [{"type": "node", "id": 4201639492, "lat": 57.6260752, "lon": 39.8890305, "tags": {"amenity": "cafe", "name": "Sweet Pepper"}}, {"type": "node", "id": 4201639792, "lat": 57.6258451, "lon": 39.888964, "tags": {"amenity": "cafe", "name": "\u0414\u043e\u043c \u0430\u043a\u0442\u0435\u0440\u0430"}}, {"type": "node", "id": 6110777386, "lat": 57.6262832, "lon": 39.8902662, "tags": {"amenity": "cafe", "name": "\u0410\u043c\u0431\u0430\u0440"}}, {"type": "node", "id": 6330211537, "lat": 57.6266115, "lon": 39.8889128, "tags": {"amenity": "cafe", "name": "\u041a\u0430\u0444\u0435 \u0432\u0438\u0440\u0442\u0443\u0430\u043b\u044c\u043d\u043e\u0439 \u0440\u0435\u0430\u043b\u044c\u043d\u043e\u0441\u0442\u0438 360\u00b0"}}, {"type": "node", "id": 9812980817, "lat": 57.6261202, "lon": 39.889224, "tags": {"amenity": "cafe", "name": "\u0416\u0430\u0440\u0438\u043c \u0432 \u043a\u0430\u0439\u0444"}}, {"type": "node", "id": 9813734817, "lat": 57.6266886, "lon": 39.8888738, "tags": {"amenity": "cafe", "name": "\u0410\u0440\u0430\u0431\u0443\u0441\u0442\u0430"}}, {"type": "node", "id": 10178419617, "lat": 57.6259174, "lon": 39.8894387, "tags": {"addr:housenumber": "5/23", "amenity": "cafe", "name": "\u041c\u0430\u043c\u0443\u043a\u0430", "name:en": "Mamuka"}}]}