{"version": 0.6, "generator": "Overpass API 0.7.62.1 084b4234", "osm3s": {"timestamp_osm_base": "2024-05-14T04:02:44Z", "copyright": "The data included in this document is from www.openstreetmap.org. The data is made available under ODbL."}, "elements": [{"type": "node", "id": 4347535797, "lat": 57.9987433, "lon": 56.1541616, "tags": {"amenity": "fast_food", "name": "\u041a\u0435\u0431\u0430\u0431"}}, {"type": "node", "id": 11155848037, "lat": 57.9992195, "lon": 56.1549855, "tags": {"amenity": "fast_food", "contact:email": "info@alendvic.ru", "contact:phone": "+7 342 2065222;+7 342 2075382", "contact:website": "http://sfc-chicken.ru", "name": "Southern Fried Chicken", "opening_hours": "Mo-Su 10:00-21:00"}}, {"type": "node", "id": 11183952589, "lat": 57.9989669, "lon": 56.1558056, "tags": {"amenity": "fast_food", "contact:phone": "+7 342 2075382", "cuisine": "dumpling", "name": "\u041f\u0435\u043b\u044c\u043c\u0435\u0448\u043a\u0438 \u0434\u0430 \u0432\u0430\u0440\u0435\u043d\u0438\u043a\u0438", "opening_hours": "Mo-Su 10:00-21:00"}}]}