{"version": 0.6, "generator": "Overpass API 0.7.62.1 084b4234", "osm3s": {"timestamp_osm_base": "2024-05-18T01:15:22Z", "copyright": "The data included in this document is from www.openstreetmap.org. The data is made available under ODbL."}, "elements": [{"type": "node", "id": 610449463, "lat": 56.0081422, "lon": 37.8461961}, {"type": "node", "id": 610449465, "lat": 56.0080761, "lon": 37.8464428}, {"type": "node", "id": 610449466, "lat": 56.0091139, "lon": 37.847333}, {"type": "node", "id": 610449467, "lat": 56.00918, "lon": 37.8470863}, {"type": "node", "id": 610449536, "lat": 56.0096006, "lon": 37.8487569}, {"type": "node", "id": 610449537, "lat": 56.0095511, "lon": 37.8489596}, {"type": "node", "id": 610449538, "lat": 56.0090047, "lon": 37.8485331}, {"type": "node", "id": 610449539, "lat": 56.0090541, "lon": 37.8483304}, {"type": "node", "id": 610449568, "lat": 56.0085488, "lon": 37.8510749}, {"type": "node", "id": 610449570, "lat": 56.0084998, "lon": 37.8512714}, {"type": "node", "id": 610449572, "lat": 56.0089548, "lon": 37.8516344}, {"type": "node", "id": 610449574, "lat": 56.0090038, "lon": 37.8514379, "tags": {"name": "\u041e\u041e\u041e \"\u041a\u0430\u0440\u0435\u0442\u0430-\u0441\u0435\u0440\u0432\u0438\u0441\"", "opening_hours": "Mo-Fr 10:00-19:00; Sa 11:00-17:00", "shop": "travel_agency"}}, {"type": "node", "id": 610449576, "lat": 56.0086668, "lon": 37.8506625}, {"type": "node", "id": 610449577, "lat": 56.0087152, "lon": 37.8504672}, {"type": "node", "id": 610449580, "lat": 56.0091549, "lon": 37.8508153}, {"type": "node", "id": 610449581, "lat": 56.0091066, "lon": 37.8510106}, {"type": "node", "id": 610449582, "lat": 56.0091464, "lon": 37.8492521}, {"type": "node", "id": 610449583, "lat": 56.0089521, "lon": 37.8501054}, {"type": "node", "id": 610449584, "lat": 56.0091193, "lon": 37.8502266}, {"type": "node", "id": 610449585, "lat": 56.0093133, "lon": 37.8493742}, {"type": "node", "id": 610449599, "lat": 56.0099348, "lon": 37.8471751}, {"type": "node", "id": 610449601, "lat": 56.0097256, "lon": 37.8479832}, {"type": "node", "id": 610449602, "lat": 56.0098437, "lon": 37.848081}, {"type": "node", "id": 610449603, "lat": 56.0100529, "lon": 37.8472729}, {"type": "node", "id": 610449612, "lat": 56.0097599, "lon": 37.8481464}, {"type": "node", "id": 610449613, "lat": 56.0097118, "lon": 37.8483555}, {"type": "node", "id": 610449614, "lat": 56.0091359, "lon": 37.8479319}, {"type": "node", "id": 610449616, "lat": 56.009184, "lon": 37.8477227}, {"type": "node", "id": 610449646, "lat": 56.0108306, "lon": 37.8479522}, {"type": "node", "id": 610449648, "lat": 56.0107679, "lon": 37.8481963}, {"type": "node", "id": 610449649, "lat": 56.0118864, "lon": 37.8491159}, {"type": "node", "id": 610449651, "lat": 56.0119491, "lon": 37.8488718}, {"type": "node", "id": 610449670, "lat": 56.0100285, "lon": 37.8497962}, {"type": "node", "id": 610449671, "lat": 56.0100666, "lon": 37.8496315}, {"type": "node", "id": 610449672, "lat": 56.0106613, "lon": 37.8500729}, {"type": "node", "id": 610449673, "lat": 56.0106232, "lon": 37.8502375}, {"type": "node", "id": 610449675, "lat": 56.0102866, "lon": 37.8481514}, {"type": "node", "id": 610449676, "lat": 56.0103574, "lon": 37.8478536}, {"type": "node", "id": 610449677, "lat": 56.0106479, "lon": 37.8480748}, {"type": "node", "id": 610449678, "lat": 56.010577, "lon": 37.8483725}, {"type": "node", "id": 610449710, "lat": 56.009377, "lon": 37.8520251}, {"type": "node", "id": 610449711, "lat": 56.0094201, "lon": 37.8518503}, {"type": "node", "id": 610449712, "lat": 56.0100211, "lon": 37.8523011}, {"type": "node", "id": 610449713, "lat": 56.0099794, "lon": 37.8524793}, {"type": "node", "id": 610449715, "lat": 56.0095336, "lon": 37.8514303}, {"type": "node", "id": 610449716, "lat": 56.0095776, "lon": 37.8512454}, {"type": "node", "id": 610449717, "lat": 56.0101684, "lon": 37.8516957}, {"type": "node", "id": 610449718, "lat": 56.0101244, "lon": 37.8518806}, {"type": "node", "id": 610449724, "lat": 56.0098969, "lon": 37.850421}, {"type": "node", "id": 610449725, "lat": 56.0099391, "lon": 37.8502335}, {"type": "node", "id": 610449726, "lat": 56.010527, "lon": 37.8506567}, {"type": "node", "id": 610449727, "lat": 56.0104847, "lon": 37.8508443}, {"type": "node", "id": 611651739, "lat": 56.0079838, "lon": 37.8523993}, {"type": "node", "id": 611651740, "lat": 56.0075624, "lon": 37.8515934}, {"type": "node", "id": 611651741, "lat": 56.0076667, "lon": 37.8514189}, {"type": "node", "id": 611651742, "lat": 56.0080881, "lon": 37.8522248}, {"type": "node", "id": 611651743, "lat": 56.0073979, "lon": 37.851597}, {"type": "node", "id": 611651744, "lat": 56.0075008, "lon": 37.8517831}, {"type": "node", "id": 611651745, "lat": 56.007056, "lon": 37.85257}, {"type": "node", "id": 611651746, "lat": 56.0069531, "lon": 37.8523839}, {"type": "node", "id": 611652178, "lat": 56.0087596, "lon": 37.8484695}, {"type": "node", "id": 611652181, "lat": 56.0083957, "lon": 37.849954}, {"type": "node", "id": 611652183, "lat": 56.0085165, "lon": 37.8500487}, {"type": "node", "id": 611652186, "lat": 56.0088804, "lon": 37.8485643}, {"type": "node", "id": 1362820513, "lat": 56.0079499, "lon": 37.8466664}, {"type": "node", "id": 1362820617, "lat": 56.0068293, "lon": 37.8474155}, {"type": "node", "id": 1362820639, "lat": 56.0071491, "lon": 37.8462693}, {"type": "node", "id": 1362820766, "lat": 56.0079, "lon": 37.8468668}, {"type": "node", "id": 1362820953, "lat": 56.0073905, "lon": 37.8478366}, {"type": "node", "id": 1362821408, "lat": 56.0071989, "lon": 37.8460689}, {"type": "node", "id": 1362821607, "lat": 56.0068792, "lon": 37.8472029}, {"type": "node", "id": 1531104105, "lat": 56.0094415, "lon": 37.8518673}, {"type": "node", "id": 1531104236, "lat": 56.0095118, "lon": 37.8521316}, {"type": "node", "id": 1531104557, "lat": 56.0100798, "lon": 37.8529045}, {"type": "node", "id": 1531104566, "lat": 56.0101258, "lon": 37.8527167}, {"type": "node", "id": 1531104584, "lat": 56.0106214, "lon": 37.8495765}, {"type": "node", "id": 1531104587, "lat": 56.0107231, "lon": 37.8496592}, {"type": "node", "id": 1531104600, "lat": 56.0108576, "lon": 37.8535131}, {"type": "node", "id": 1531104609, "lat": 56.0108855, "lon": 37.8485369}, {"type": "node", "id": 1531104613, "lat": 56.0109035, "lon": 37.8533254}, {"type": "node", "id": 1531104616, "lat": 56.0109872, "lon": 37.8486196}, {"type": "node", "id": 1772615384, "lat": 56.0109366, "lon": 37.8485784, "tags": {"amenity": "bank", "atm": "yes", "branch": "\u0421\u0440\u0435\u0434\u043d\u0435\u0440\u0443\u0441\u0441\u043a\u0438\u0439 \u0431\u0430\u043d\u043a", "brand": "\u0421\u0431\u0435\u0440\u0431\u0430\u043d\u043a", "brand:en": "Sberbank", "brand:ru": "\u0421\u0431\u0435\u0440\u0431\u0430\u043d\u043a", "brand:wikidata": "Q205012", "contact:phone": "+7 495 9934632", "contact:website": "https://www.sberbank.ru", "name": "\u0421\u0431\u0435\u0440\u0431\u0430\u043d\u043a", "name:en": "Sberbank", "name:ru": "\u0421\u0431\u0435\u0440\u0431\u0430\u043d\u043a", "opening_hours": "Mo-Tu,Th-Fr 09:00-19:00; We 10:00-19:00; Sa 09:00-17:00", "operator": "\u041e\u0410\u041e \"\u0421\u0431\u0435\u0440\u0431\u0430\u043d\u043a \u0420\u043e\u0441\u0441\u0438\u0438\"", "ref": "9040/00844"}}, {"type": "node", "id": 1772615386, "lat": 56.0108258, "lon": 37.8487719, "tags": {"amenity": "atm", "operator": "\u041f\u0410\u041e \u0421\u0431\u0435\u0440\u0431\u0430\u043d\u043a"}}, {"type": "node", "id": 2583421667, "lat": 56.009575, "lon": 37.8488618, "tags": {"name": "\u0413\u0435\u043e\u0441\u0435\u0432\u0438\u0441", "office": "estate_agent", "opening_hours": "9:00-18:00"}}, {"type": "node", "id": 5546715894, "lat": 56.0074403, "lon": 37.847624}, {"type": "way", "id": 48000469, "nodes": [610449463, 610449465, 610449466, 610449467, 610449463], "tags": {"addr:housenumber": "1", "addr:street": "\u0443\u043b\u0438\u0446\u0430 \u041a\u0440\u044b\u043b\u043e\u0432\u0430", "building": "apartments", "building:levels": "9"}}, {"type": "way", "id": 48000480, "nodes": [610449536, 2583421667, 610449537, 610449538, 610449539, 610449536], "tags": {"addr:housenumber": "18", "addr:street": "\u041c\u043e\u0441\u043a\u043e\u0432\u0441\u043a\u0438\u0439 \u043f\u0440\u043e\u0441\u043f\u0435\u043a\u0442", "building": "apartments", "building:levels": "5"}}, {"type": "way", "id": 48000484, "nodes": [610449568, 610449570, 610449572, 610449574, 610449568], "tags": {"addr:housenumber": "24", "addr:street": "\u041c\u043e\u0441\u043a\u043e\u0432\u0441\u043a\u0438\u0439 \u043f\u0440\u043e\u0441\u043f\u0435\u043a\u0442", "building": "apartments", "building:levels": "5", "roof:colour": "silver", "roof:material": "eternit", "roof:shape": "hipped"}}, {"type": "way", "id": 48000485, "nodes": [610449576, 610449577, 610449580, 610449581, 610449576], "tags": {"addr:housenumber": "22", "addr:street": "\u041c\u043e\u0441\u043a\u043e\u0432\u0441\u043a\u0438\u0439 \u043f\u0440\u043e\u0441\u043f\u0435\u043a\u0442", "building": "apartments", "building:levels": "5", "roof:colour": "black", "roof:material": "eternit", "roof:shape": "hipped"}}, {"type": "way", "id": 48000486, "nodes": [610449582, 610449583, 610449584, 610449585, 610449582], "tags": {"addr:city": "\u041f\u0443\u0448\u043a\u0438\u043d\u043e", "addr:housenumber": "20", "addr:street": "\u041c\u043e\u0441\u043a\u043e\u0432\u0441\u043a\u0438\u0439 \u043f\u0440\u043e\u0441\u043f\u0435\u043a\u0442", "building": "apartments", "building:colour": "#AC998B", "building:levels": "9", "building:material": "brick", "roof:colour": "black"}}, {"type": "way", "id": 48000489, "nodes": [610449599, 610449601, 610449602, 610449603, 610449599], "tags": {"addr:housenumber": "14", "addr:street": "\u041c\u043e\u0441\u043a\u043e\u0432\u0441\u043a\u0438\u0439 \u043f\u0440\u043e\u0441\u043f\u0435\u043a\u0442", "building": "apartments", "building:levels": "5"}}, {"type": "way", "id": 48000491, "nodes": [610449612, 610449613, 610449614, 610449616, 610449612], "tags": {"addr:housenumber": "16", "addr:street": "\u041c\u043e\u0441\u043a\u043e\u0432\u0441\u043a\u0438\u0439 \u043f\u0440\u043e\u0441\u043f\u0435\u043a\u0442", "building": "apartments", "building:levels": "5"}}, {"type": "way", "id": 48000494, "nodes": [610449646, 610449648, 610449649, 610449651, 610449646], "tags": {"addr2:housenumber": "4", "addr2:street": "\u0421\u043e\u0432\u0435\u0442\u0441\u043a\u0430\u044f \u043f\u043b\u043e\u0449\u0430\u0434\u044c", "addr:housenumber": "12/4", "addr:street": "\u0443\u043b\u0438\u0446\u0430 \u0422\u0443\u0440\u0433\u0435\u043d\u0435\u0432\u0430", "building": "apartments", "building:colour": "#A47A62", "building:levels": "5", "roof:colour": "black", "roof:shape": "flat"}}, {"type": "way", "id": 48000497, "nodes": [610449670, 610449671, 610449672, 610449673, 610449670], "tags": {"addr:housenumber": "13", "addr:street": "\u041c\u043e\u0441\u043a\u043e\u0432\u0441\u043a\u0438\u0439 \u043f\u0440\u043e\u0441\u043f\u0435\u043a\u0442", "building": "apartments", "building:colour": "white", "building:levels": "5", "building:material": "concrete", "roof:colour": "silver", "roof:material": "eternit", "roof:shape": "hipped"}}, {"type": "way", "id": 48000498, "nodes": [610449675, 610449676, 610449677, 610449678, 610449675], "tags": {"addr:housenumber": "9/2", "addr:street": "\u041c\u043e\u0441\u043a\u043e\u0432\u0441\u043a\u0438\u0439 \u043f\u0440\u043e\u0441\u043f\u0435\u043a\u0442", "building": "apartments", "building:colour": "#e4bc76", "building:levels": "14", "roof:colour": "black"}}, {"type": "way", "id": 48000503, "nodes": [610449710, 610449711, 1531104105, 610449712, 610449713, 1531104236, 610449710], "tags": {"addr:housenumber": "21", "addr:street": "\u041c\u043e\u0441\u043a\u043e\u0432\u0441\u043a\u0438\u0439 \u043f\u0440\u043e\u0441\u043f\u0435\u043a\u0442", "building": "apartments", "building:colour": "white", "building:levels": "5", "roof:material": "eternit", "roof:shape": "hipped"}}, {"type": "way", "id": 48000504, "nodes": [610449715, 610449716, 610449717, 610449718, 610449715], "tags": {"addr:housenumber": "19", "addr:street": "\u041c\u043e\u0441\u043a\u043e\u0432\u0441\u043a\u0438\u0439 \u043f\u0440\u043e\u0441\u043f\u0435\u043a\u0442", "building": "apartments", "building:colour": "white", "building:levels": "5", "roof:material": "eternit", "roof:shape": "hipped"}}, {"type": "way", "id": 48000506, "nodes": [610449724, 610449725, 610449726, 610449727, 610449724], "tags": {"addr:housenumber": "15", "addr:street": "\u041c\u043e\u0441\u043a\u043e\u0432\u0441\u043a\u0438\u0439 \u043f\u0440\u043e\u0441\u043f\u0435\u043a\u0442", "building": "apartments", "building:colour": "white", "building:levels": "5", "building:material": "concrete", "roof:colour": "silver", "roof:material": "eternit", "roof:shape": "hipped"}}, {"type": "way", "id": 48124002, "nodes": [611651739, 611651740, 611651741, 611651742, 611651739], "tags": {"addr:housenumber": "9", "addr:street": "\u0443\u043b\u0438\u0446\u0430 \u0427\u0435\u0445\u043e\u0432\u0430", "building": "apartments", "building:levels": "5"}}, {"type": "way", "id": 48124003, "nodes": [611651743, 611651744, 611651745, 611651746, 611651743], "tags": {"addr:housenumber": "11", "addr:street": "\u0443\u043b\u0438\u0446\u0430 \u0427\u0435\u0445\u043e\u0432\u0430", "building": "apartments", "building:levels": "5"}}, {"type": "way", "id": 48124032, "nodes": [611652178, 611652181, 611652183, 611652186, 611652178], "tags": {"addr:housenumber": "20\u0410", "addr:street": "\u041c\u043e\u0441\u043a\u043e\u0432\u0441\u043a\u0438\u0439 \u043f\u0440\u043e\u0441\u043f\u0435\u043a\u0442", "building": "apartments"}}, {"type": "way", "id": 121820769, "nodes": [5546715894, 1362820953, 1362820617, 1362821607, 5546715894], "tags": {"addr:housenumber": "13", "addr:street": "\u0443\u043b\u0438\u0446\u0430 \u0413\u043e\u0440\u044c\u043a\u043e\u0433\u043e", "building": "apartments", "building:colour": "#F4CC8B", "building:levels": "5", "roof:colour": "gray", "roof:shape": "hipped"}}, {"type": "way", "id": 121820776, "nodes": [1362821408, 1362820513, 1362820766, 1362820639, 1362821408], "tags": {"addr:city": "\u041f\u0443\u0448\u043a\u0438\u043d\u043e", "addr:country": "RU", "addr:housenumber": "9", "addr:street": "\u0443\u043b\u0438\u0446\u0430 \u0413\u043e\u0440\u044c\u043a\u043e\u0433\u043e", "building": "apartments", "building:colour": "#F4CC8B", "building:levels": "9", "roof:colour": "black"}}, {"type": "way", "id": 139710493, "nodes": [1531104600, 1531104557, 1531104566, 1531104613, 1531104600], "tags": {"addr:housenumber": "22", "addr:street": "\u0443\u043b\u0438\u0446\u0430 \u0422\u0443\u0440\u0433\u0435\u043d\u0435\u0432\u0430", "building": "apartments", "building:levels": "5"}}, {"type": "way", "id": 139710496, "nodes": [1531104616, 1531104587, 1531104584, 1772615386, 1531104609, 1772615384, 1531104616], "tags": {"addr:city": "\u041f\u0443\u0448\u043a\u0438\u043d\u043e", "addr:country": "RU", "addr:housenumber": "11\u0410", "addr:postcode": "141207", "addr:street": "\u041c\u043e\u0441\u043a\u043e\u0432\u0441\u043a\u0438\u0439 \u043f\u0440\u043e\u0441\u043f\u0435\u043a\u0442", "building": "apartments"}}]}