{"version": 0.6, "generator": "Overpass API 0.7.62.1 084b4234", "osm3s": {"timestamp_osm_base": "2024-05-18T00:38:45Z", "copyright": "The data included in this document is from www.openstreetmap.org. The data is made available under ODbL."}, "elements": [{"type": "node", "id": 1052397089, "lat": 54.7035437, "lon": 20.5085041}, {"type": "node", "id": 1052397168, "lat": 54.7038762, "lon": 20.50609}, {"type": "node", "id": 1052397176, "lat": 54.7037045, "lon": 20.5080215}, {"type": "node", "id": 1052397194, "lat": 54.7038297, "lon": 20.5064073}, {"type": "node", "id": 1052397250, "lat": 54.703254, "lon": 20.5060058}, {"type": "node", "id": 1052397267, "lat": 54.7045556, "lon": 20.5089162}, {"type": "node", "id": 1052397335, "lat": 54.7035997, "lon": 20.5079754}, {"type": "node", "id": 1052397399, "lat": 54.7038502, "lon": 20.5062677}, {"type": "node", "id": 1052397574, "lat": 54.7041272, "lon": 20.5050682}, {"type": "node", "id": 1052397633, "lat": 54.7039345, "lon": 20.5064533}, {"type": "node", "id": 1052397684, "lat": 54.70328, "lon": 20.5058281}, {"type": "node", "id": 1052397698, "lat": 54.7027487, "lon": 20.5044443}, {"type": "node", "id": 1052397788, "lat": 54.7031739, "lon": 20.5059835}, {"type": "node", "id": 1052397852, "lat": 54.7027148, "lon": 20.5046563}, {"type": "node", "id": 1052397863, "lat": 54.7026563, "lon": 20.5054482}, {"type": "node", "id": 1052397924, "lat": 54.7035704, "lon": 20.5083074}, {"type": "node", "id": 1052397937, "lat": 54.7026139, "lon": 20.5056927}, {"type": "node", "id": 1052397995, "lat": 54.7040881, "lon": 20.505313}, {"type": "node", "id": 1052398009, "lat": 54.7032163, "lon": 20.505739}, {"type": "node", "id": 1188950229, "lat": 54.7033285, "lon": 20.5060385, "tags": {"addr:housenumber": "101", "addr:street": "\u041b\u0435\u043d\u0438\u043d\u0441\u043a\u0438\u0439 \u043f\u0440\u043e\u0441\u043f\u0435\u043a\u0442", "entrance": "main"}}, {"type": "node", "id": 1188950237, "lat": 54.7030619, "lon": 20.5059254, "tags": {"addr:housenumber": "103", "addr:street": "\u041b\u0435\u043d\u0438\u043d\u0441\u043a\u0438\u0439 \u043f\u0440\u043e\u0441\u043f\u0435\u043a\u0442", "entrance": "main"}}, {"type": "node", "id": 1459541790, "lat": 54.7039545, "lon": 20.5052491}, {"type": "node", "id": 1459541791, "lat": 54.7039883, "lon": 20.5050371}, {"type": "node", "id": 1459541792, "lat": 54.7039936, "lon": 20.5050043}, {"type": "node", "id": 1489332500, "lat": 54.7045607, "lon": 20.5089188}, {"type": "node", "id": 1489332504, "lat": 54.704665, "lon": 20.5089442}, {"type": "node", "id": 1497256696, "lat": 54.7038498, "lon": 20.5049706, "tags": {"addr:city": "\u041a\u0430\u043b\u0438\u043d\u0438\u043d\u0433\u0440\u0430\u0434", "addr:country": "RU", "addr:housenumber": "34\u0410", "addr:street": "\u041b\u0435\u043d\u0438\u043d\u0441\u043a\u0438\u0439 \u043f\u0440\u043e\u0441\u043f\u0435\u043a\u0442", "entrance": "main"}}, {"type": "node", "id": 1497256707, "lat": 54.7037128, "lon": 20.5049054, "tags": {"addr:city": "\u041a\u0430\u043b\u0438\u043d\u0438\u043d\u0433\u0440\u0430\u0434", "addr:country": "RU", "addr:housenumber": "36", "addr:street": "\u041b\u0435\u043d\u0438\u043d\u0441\u043a\u0438\u0439 \u043f\u0440\u043e\u0441\u043f\u0435\u043a\u0442", "entrance": "main"}}, {"type": "node", "id": 1497256709, "lat": 54.7035751, "lon": 20.5048389, "tags": {"addr:city": "\u041a\u0430\u043b\u0438\u043d\u0438\u043d\u0433\u0440\u0430\u0434", "addr:country": "RU", "addr:housenumber": "36\u0410", "addr:street": "\u041b\u0435\u043d\u0438\u043d\u0441\u043a\u0438\u0439 \u043f\u0440\u043e\u0441\u043f\u0435\u043a\u0442", "entrance": "main"}}, {"type": "node", "id": 1497256717, "lat": 54.7034374, "lon": 20.5047736, "tags": {"addr:city": "\u041a\u0430\u043b\u0438\u043d\u0438\u043d\u0433\u0440\u0430\u0434", "addr:country": "RU", "addr:housenumber": "38", "addr:street": "\u041b\u0435\u043d\u0438\u043d\u0441\u043a\u0438\u0439 \u043f\u0440\u043e\u0441\u043f\u0435\u043a\u0442", "entrance": "main"}}, {"type": "node", "id": 1497256720, "lat": 54.7032996, "lon": 20.5047078, "tags": {"addr:city": "\u041a\u0430\u043b\u0438\u043d\u0438\u043d\u0433\u0440\u0430\u0434", "addr:country": "RU", "addr:housenumber": "40", "addr:street": "\u041b\u0435\u043d\u0438\u043d\u0441\u043a\u0438\u0439 \u043f\u0440\u043e\u0441\u043f\u0435\u043a\u0442", "entrance": "main"}}, {"type": "node", "id": 1497256721, "lat": 54.7031631, "lon": 20.5046425, "tags": {"addr:city": "\u041a\u0430\u043b\u0438\u043d\u0438\u043d\u0433\u0440\u0430\u0434", "addr:country": "RU", "addr:housenumber": "40\u0410", "addr:street": "\u041b\u0435\u043d\u0438\u043d\u0441\u043a\u0438\u0439 \u043f\u0440\u043e\u0441\u043f\u0435\u043a\u0442", "entrance": "main"}}, {"type": "node", "id": 1497256722, "lat": 54.7030242, "lon": 20.504576, "tags": {"addr:city": "\u041a\u0430\u043b\u0438\u043d\u0438\u043d\u0433\u0440\u0430\u0434", "addr:country": "RU", "addr:housenumber": "42", "addr:street": "\u041b\u0435\u043d\u0438\u043d\u0441\u043a\u0438\u0439 \u043f\u0440\u043e\u0441\u043f\u0435\u043a\u0442", "entrance": "main"}}, {"type": "node", "id": 1497256723, "lat": 54.7028847, "lon": 20.5045109, "tags": {"addr:city": "\u041a\u0430\u043b\u0438\u043d\u0438\u043d\u0433\u0440\u0430\u0434", "addr:country": "RU", "addr:housenumber": "42\u0410", "addr:street": "\u041b\u0435\u043d\u0438\u043d\u0441\u043a\u0438\u0439 \u043f\u0440\u043e\u0441\u043f\u0435\u043a\u0442", "entrance": "main"}}, {"type": "node", "id": 1497256726, "lat": 54.7037757, "lon": 20.506235, "tags": {"addr:city": "\u041a\u0430\u043b\u0438\u043d\u0438\u043d\u0433\u0440\u0430\u0434", "addr:country": "RU", "addr:housenumber": "95", "addr:street": "\u041b\u0435\u043d\u0438\u043d\u0441\u043a\u0438\u0439 \u043f\u0440\u043e\u0441\u043f\u0435\u043a\u0442", "entrance": "main"}}, {"type": "node", "id": 1497256727, "lat": 54.7036266, "lon": 20.5061695, "tags": {"addr:city": "\u041a\u0430\u043b\u0438\u043d\u0438\u043d\u0433\u0440\u0430\u0434", "addr:country": "RU", "addr:housenumber": "97", "addr:street": "\u041b\u0435\u043d\u0438\u043d\u0441\u043a\u0438\u0439 \u043f\u0440\u043e\u0441\u043f\u0435\u043a\u0442", "entrance": "main"}}, {"type": "node", "id": 1497256728, "lat": 54.7034775, "lon": 20.506104, "tags": {"addr:city": "\u041a\u0430\u043b\u0438\u043d\u0438\u043d\u0433\u0440\u0430\u0434", "addr:country": "RU", "addr:housenumber": "99", "addr:street": "\u041b\u0435\u043d\u0438\u043d\u0441\u043a\u0438\u0439 \u043f\u0440\u043e\u0441\u043f\u0435\u043a\u0442", "entrance": "main"}}, {"type": "node", "id": 1497256762, "lat": 54.7027259, "lon": 20.5057509, "tags": {"addr:city": "\u041a\u0430\u043b\u0438\u043d\u0438\u043d\u0433\u0440\u0430\u0434", "addr:country": "RU", "addr:housenumber": "109", "addr:street": "\u041b\u0435\u043d\u0438\u043d\u0441\u043a\u0438\u0439 \u043f\u0440\u043e\u0441\u043f\u0435\u043a\u0442", "entrance": "main"}}, {"type": "node", "id": 1497256763, "lat": 54.7028379, "lon": 20.505809, "tags": {"addr:city": "\u041a\u0430\u043b\u0438\u043d\u0438\u043d\u0433\u0440\u0430\u0434", "addr:country": "RU", "addr:housenumber": "107", "addr:street": "\u041b\u0435\u043d\u0438\u043d\u0441\u043a\u0438\u0439 \u043f\u0440\u043e\u0441\u043f\u0435\u043a\u0442", "entrance": "main"}}, {"type": "node", "id": 1497256764, "lat": 54.7029499, "lon": 20.5058672, "tags": {"addr:city": "\u041a\u0430\u043b\u0438\u043d\u0438\u043d\u0433\u0440\u0430\u0434", "addr:country": "RU", "addr:housenumber": "105", "addr:street": "\u041b\u0435\u043d\u0438\u043d\u0441\u043a\u0438\u0439 \u043f\u0440\u043e\u0441\u043f\u0435\u043a\u0442", "entrance": "main"}}, {"type": "node", "id": 1523123948, "lat": 54.7044544, "lon": 20.508875, "tags": {"addr:city": "\u041a\u0430\u043b\u0438\u043d\u0438\u043d\u0433\u0440\u0430\u0434", "addr:country": "RU", "addr:housenumber": "83\u0410", "addr:street": "\u041b\u0435\u043d\u0438\u043d\u0441\u043a\u0438\u0439 \u043f\u0440\u043e\u0441\u043f\u0435\u043a\u0442", "entrance": "main"}}, {"type": "node", "id": 1523123952, "lat": 54.704252, "lon": 20.5087926, "tags": {"addr:city": "\u041a\u0430\u043b\u0438\u043d\u0438\u043d\u0433\u0440\u0430\u0434", "addr:country": "RU", "addr:housenumber": "83\u0411", "addr:street": "\u041b\u0435\u043d\u0438\u043d\u0441\u043a\u0438\u0439 \u043f\u0440\u043e\u0441\u043f\u0435\u043a\u0442", "entrance": "main"}}, {"type": "node", "id": 1523123955, "lat": 54.7040497, "lon": 20.5087101, "tags": {"addr:city": "\u041a\u0430\u043b\u0438\u043d\u0438\u043d\u0433\u0440\u0430\u0434", "addr:country": "RU", "addr:housenumber": "83\u0412", "addr:street": "\u041b\u0435\u043d\u0438\u043d\u0441\u043a\u0438\u0439 \u043f\u0440\u043e\u0441\u043f\u0435\u043a\u0442", "entrance": "main"}}, {"type": "node", "id": 1523123966, "lat": 54.7038473, "lon": 20.5086277, "tags": {"addr:city": "\u041a\u0430\u043b\u0438\u043d\u0438\u043d\u0433\u0440\u0430\u0434", "addr:country": "RU", "addr:housenumber": "83\u0413", "addr:street": "\u041b\u0435\u043d\u0438\u043d\u0441\u043a\u0438\u0439 \u043f\u0440\u043e\u0441\u043f\u0435\u043a\u0442", "entrance": "main"}}, {"type": "node", "id": 1523123970, "lat": 54.7036449, "lon": 20.5085453, "tags": {"addr:city": "\u041a\u0430\u043b\u0438\u043d\u0438\u043d\u0433\u0440\u0430\u0434", "addr:country": "RU", "addr:housenumber": "83\u0414", "addr:street": "\u041b\u0435\u043d\u0438\u043d\u0441\u043a\u0438\u0439 \u043f\u0440\u043e\u0441\u043f\u0435\u043a\u0442", "entrance": "main"}}, {"type": "node", "id": 1523123981, "lat": 54.7037339, "lon": 20.5070607, "tags": {"addr:city": "\u041a\u0430\u043b\u0438\u043d\u0438\u043d\u0433\u0440\u0430\u0434", "addr:country": "RU", "addr:housenumber": "84", "addr:street": "\u041b\u0435\u043d\u0438\u043d\u0441\u043a\u0438\u0439 \u043f\u0440\u043e\u0441\u043f\u0435\u043a\u0442", "entrance": "main", "fixme": "\u0422\u043e\u0447\u043d\u043e \u0434\u043e\u043c \u043d\u0435 87?"}}, {"type": "node", "id": 1523123984, "lat": 54.7036955, "lon": 20.507322, "tags": {"addr:city": "\u041a\u0430\u043b\u0438\u043d\u0438\u043d\u0433\u0440\u0430\u0434", "addr:country": "RU", "addr:housenumber": "85", "addr:street": "\u041b\u0435\u043d\u0438\u043d\u0441\u043a\u0438\u0439 \u043f\u0440\u043e\u0441\u043f\u0435\u043a\u0442", "entrance": "main"}}, {"type": "node", "id": 1523123991, "lat": 54.7036572, "lon": 20.5075834, "tags": {"addr:city": "\u041a\u0430\u043b\u0438\u043d\u0438\u043d\u0433\u0440\u0430\u0434", "addr:country": "RU", "addr:housenumber": "85\u0410", "addr:street": "\u041b\u0435\u043d\u0438\u043d\u0441\u043a\u0438\u0439 \u043f\u0440\u043e\u0441\u043f\u0435\u043a\u0442", "entrance": "main"}}, {"type": "node", "id": 1523123995, "lat": 54.7036189, "lon": 20.5078448, "tags": {"addr:city": "\u041a\u0430\u043b\u0438\u043d\u0438\u043d\u0433\u0440\u0430\u0434", "addr:country": "RU", "addr:housenumber": "85\u0411", "addr:street": "\u041b\u0435\u043d\u0438\u043d\u0441\u043a\u0438\u0439 \u043f\u0440\u043e\u0441\u043f\u0435\u043a\u0442", "entrance": "main"}}, {"type": "node", "id": 1523124000, "lat": 54.7037722, "lon": 20.5067993, "tags": {"addr:city": "\u041a\u0430\u043b\u0438\u043d\u0438\u043d\u0433\u0440\u0430\u0434", "addr:country": "RU", "addr:housenumber": "89", "addr:street": "\u041b\u0435\u043d\u0438\u043d\u0441\u043a\u0438\u0439 \u043f\u0440\u043e\u0441\u043f\u0435\u043a\u0442", "entrance": "main"}}, {"type": "node", "id": 1523124023, "lat": 54.7038105, "lon": 20.506538, "tags": {"addr:city": "\u041a\u0430\u043b\u0438\u043d\u0438\u043d\u0433\u0440\u0430\u0434", "addr:country": "RU", "addr:housenumber": "91", "addr:street": "\u041b\u0435\u043d\u0438\u043d\u0441\u043a\u0438\u0439 \u043f\u0440\u043e\u0441\u043f\u0435\u043a\u0442", "entrance": "main"}}, {"type": "node", "id": 1523124042, "lat": 54.7038394, "lon": 20.5063412, "tags": {"addr:city": "\u041a\u0430\u043b\u0438\u043d\u0438\u043d\u0433\u0440\u0430\u0434", "addr:country": "RU", "addr:housenumber": "93", "addr:street": "\u041b\u0435\u043d\u0438\u043d\u0441\u043a\u0438\u0439 \u043f\u0440\u043e\u0441\u043f\u0435\u043a\u0442", "entrance": "main"}}, {"type": "node", "id": 1597534724, "lat": 54.7039608, "lon": 20.5104915}, {"type": "node", "id": 1597534728, "lat": 54.7039669, "lon": 20.5100147}, {"type": "node", "id": 1597534742, "lat": 54.7040622, "lon": 20.5104953}, {"type": "node", "id": 1597534769, "lat": 54.704067, "lon": 20.5101221}, {"type": "node", "id": 2281997921, "lat": 54.7044307, "lon": 20.508414, "tags": {"addr:housenumber": "83\u0410", "addr:postcode": "236039", "addr:street": "\u041b\u0435\u043d\u0438\u043d\u0441\u043a\u0438\u0439 \u043f\u0440\u043e\u0441\u043f\u0435\u043a\u0442", "entrance": "yes", "name": "\u0413\u0430\u0441\u0442\u0440\u043e\u043d\u043e\u043c\u042a \u21161", "shop": "supermarket", "wheelchair": "limited"}}, {"type": "node", "id": 3134991985, "lat": 54.7037141, "lon": 20.5079561, "tags": {"entrance": "yes", "name": "Sevroll", "shop": "furniture", "wheelchair": "yes"}}, {"type": "node", "id": 3158297310, "lat": 54.703877, "lon": 20.5068454, "tags": {"amenity": "bank", "atm": "yes", "bic": "VTBRRUMM", "brand": "\u0412\u0422\u0411", "brand:en": "VTB Bank", "brand:wikidata": "Q1549389", "contact:email": "info@vtb.ru", "contact:facebook": "https://www.facebook.com/vtbgroup", "contact:phone": "+7 800 2007799", "contact:twitter": "https://twitter.com/vtb", "contact:vk": "https://vk.com/vtb", "contact:website": "https://www.vtb.ru", "contact:youtube": "https://www.youtube.com/user/vtbgroup", "entrance": "yes", "name": "\u0412\u0422\u0411", "name:en": "VTB Bank", "name:ru": "\u0412\u0422\u0411", "operator": "\u0411\u0430\u043d\u043a \u0412\u0422\u0411 (\u043f\u0443\u0431\u043b\u0438\u0447\u043d\u043e\u0435 \u0430\u043a\u0446\u0438\u043e\u043d\u0435\u0440\u043d\u043e\u0435 \u043e\u0431\u0449\u0435\u0441\u0442\u0432\u043e)", "operator:wikidata": "Q1549389", "operator:wikipedia": "ru:\u0411\u0430\u043d\u043a \u0412\u0422\u0411", "wheelchair": "yes"}}, {"type": "node", "id": 3315238260, "lat": 54.7038932, "lon": 20.5082476, "tags": {"entrance": "yes", "name": "\u0412\u0438\u043d\u0438\u0441\u0441\u0438\u043c\u043e", "shop": "alcohol", "wheelchair": "limited"}}, {"type": "node", "id": 4103340091, "lat": 54.7038003, "lon": 20.5073681, "tags": {"addr:housenumber": "85\u0410", "addr:street": "\u041b\u0435\u043d\u0438\u043d\u0441\u043a\u0438\u0439 \u043f\u0440\u043e\u0441\u043f\u0435\u043a\u0442", "email": "aronija39@gmail.com", "entrance": "yes", "name": "\u0410\u0440\u043e\u043d\u0438\u044f", "opening_hours": "Mo-Su 10:00-18:00", "phone": "+7 4012 631315", "shop": "furniture", "website": "http://\u0430\u0440\u043e\u043d\u0438\u044f.\u0440\u0444/", "wheelchair": "yes"}}, {"type": "node", "id": 4673794098, "lat": 54.7037236, "lon": 20.5078908, "tags": {"addr:housenumber": "85-87\u0410", "addr:postcode": "236039", "addr:street": "\u041b\u0435\u043d\u0438\u043d\u0441\u043a\u0438\u0439 \u043f\u0440\u043e\u0441\u043f\u0435\u043a\u0442", "amenity": "hookah_lounge", "brand": "Nuahule Smoke", "contact:instagram": "nuahule_smoke_kld", "entrance": "yes", "internet_access": "wlan", "opening_hours": "Su-Th 13:00-01:00; Fr-Sa 13:00-02:00", "phone": "+7 911 4553939", "wheelchair": "yes"}}, {"type": "node", "id": 7592293481, "lat": 54.7035936, "lon": 20.5059658}, {"type": "node", "id": 7592293482, "lat": 54.7036799, "lon": 20.5051178}, {"type": "node", "id": 7592293483, "lat": 54.7030288, "lon": 20.5048065}, {"type": "node", "id": 7592293496, "lat": 54.7028442, "lon": 20.5055458}, {"type": "node", "id": 7592293503, "lat": 54.7040037, "lon": 20.5052727, "tags": {"name": "\u0422\u0435\u0445\u043d\u043e\u043c\u0438\u043a\u0441", "shop": "electronics"}}, {"type": "node", "id": 7592293504, "lat": 54.7039363, "lon": 20.5052405}, {"type": "node", "id": 8851164236, "lat": 54.7040176, "lon": 20.5100166}, {"type": "node", "id": 8851164237, "lat": 54.7040163, "lon": 20.5101202}, {"type": "node", "id": 8851164240, "lat": 54.704358, "lon": 20.5084369, "tags": {"entrance": "yes", "name": "\u0412\u044b\u0441\u0448\u0438\u0439 \u0441\u0432\u0435\u0442", "shop": "lighting", "wheelchair": "no"}}, {"type": "node", "id": 8851164241, "lat": 54.7042203, "lon": 20.5083283, "tags": {"amenity": "clinic", "entrance": "yes", "name": "\u0425\u043e\u0440\u043e\u0448\u0430\u044f \u043f\u043e\u043b\u0438\u043a\u043b\u0438\u043d\u0438\u043a\u0430", "wheelchair": "yes"}}, {"type": "node", "id": 8851164242, "lat": 54.7041202, "lon": 20.50834, "tags": {"entrance": "yes", "name": "MakMart", "shop": "furniture", "wheelchair": "limited"}}, {"type": "node", "id": 8851164243, "lat": 54.7046599, "lon": 20.5085073}, {"type": "node", "id": 8851164244, "lat": 54.7047391, "lon": 20.5085396}, {"type": "node", "id": 8851164245, "lat": 54.7046832, "lon": 20.5089487}, {"type": "node", "id": 8851164246, "lat": 54.7046531, "lon": 20.508557}, {"type": "node", "id": 8851164253, "lat": 54.7044006, "lon": 20.5084018}, {"type": "node", "id": 8851164254, "lat": 54.7044609, "lon": 20.5084263}, {"type": "node", "id": 8851164255, "lat": 54.7044541, "lon": 20.508476}, {"type": "node", "id": 8851164256, "lat": 54.7043938, "lon": 20.5084515}, {"type": "node", "id": 8851164257, "lat": 54.7042572, "lon": 20.5083434}, {"type": "node", "id": 8851164258, "lat": 54.7041834, "lon": 20.5083133}, {"type": "node", "id": 8851164259, "lat": 54.7042505, "lon": 20.5083931}, {"type": "node", "id": 8851164260, "lat": 54.7041767, "lon": 20.508363}, {"type": "node", "id": 8851164261, "lat": 54.7038558, "lon": 20.5082323}, {"type": "node", "id": 8851164262, "lat": 54.7038312, "lon": 20.5084135}, {"type": "node", "id": 8851164263, "lat": 54.7037428, "lon": 20.5077601, "tags": {"clothes": "children", "entrance": "yes", "name": "\u0410\u043d\u0434\u0440\u0435\u0439\u043a\u0430", "shop": "clothes", "wheelchair": "yes"}}, {"type": "node", "id": 8851164264, "lat": 54.703762, "lon": 20.5076294, "tags": {"entrance": "yes", "name": "\u041f\u0438\u0432\u043d\u043e\u0439 \u043c\u0438\u0440", "shop": "beverages", "wheelchair": "yes"}}, {"type": "node", "id": 8851164265, "lat": 54.7037811, "lon": 20.5074987, "tags": {"entrance": "yes", "name": "\u041c\u0430\u043a\u0441\u0438\u043a", "shop": "furniture", "wheelchair": "yes"}}, {"type": "node", "id": 8851164266, "lat": 54.7038195, "lon": 20.5072374, "tags": {"entrance": "yes", "name": "\u0410\u0440\u0442 \u0438\u043d\u0442\u0435\u0440\u044c\u0435\u0440", "opening_hours": "Mo-Fr 10:00-19:00; Sa-Su 10:00-18:00", "phone": "+7 4012 507210; +7 4012 507420", "shop": "furniture", "wheelchair": "yes"}}, {"type": "node", "id": 8851164267, "lat": 54.7038386, "lon": 20.5071067, "tags": {"alt_name": "\u0420\u043e\u0441\u0441\u0438\u0431\u0431\u0430\u043b\u0442", "entrance": "yes", "name": "RSB Studio", "phone": "+7 4012 384472; +7 4012 379565", "shop": "furniture", "wheelchair": "no"}}, {"type": "node", "id": 8851164268, "lat": 54.7038578, "lon": 20.506976, "tags": {"entrance": "yes", "name": "\u041c\u0435\u0431\u0435\u043b\u044c \u0413\u0435\u0440\u043c\u0430\u043d\u0438\u0438", "shop": "furniture", "wheelchair": "yes"}}, {"type": "node", "id": 8851164269, "lat": 54.7039153, "lon": 20.506584, "tags": {"entrance": "yes", "name": "\u0411\u043e\u043b\u0435\u0440\u043e", "shop": "clothes", "wheelchair": "no"}}, {"type": "node", "id": 8851164270, "lat": 54.7039261, "lon": 20.5065106, "tags": {"entrance": "yes", "name": "\u041c\u0435\u0431\u0435\u043b\u044c \u0418\u0442\u0430\u043b\u0438\u0438", "shop": "furniture", "wheelchair": "no"}}, {"type": "node", "id": 8851164271, "lat": 54.7039391, "lon": 20.5064219, "tags": {"entrance": "yes", "name": "\u0410\u0440\u0442 \u042d\u043b\u044c", "shop": "furniture"}}, {"type": "node", "id": 8851164272, "lat": 54.703981, "lon": 20.506136}, {"type": "way", "id": 90681689, "nodes": [1052397267, 1523123948, 1523123952, 1523123955, 1523123966, 1523123970, 1052397089, 1052397924, 8851164262]}, {"type": "way", "id": 90681714, "nodes": [1459541790, 7592293504, 7592293482, 7592293483, 1052397852, 1052397698, 1497256723, 1497256722, 1497256721, 1497256720, 1497256717, 1497256709, 1497256707, 1497256696, 1459541791, 1459541790], "tags": {"building": "apartments", "building:levels": "5", "roof:shape": "flat"}}, {"type": "way", "id": 90681732, "nodes": [1052397863, 7592293496, 1052398009, 1052397788, 1188950237, 1497256764, 1497256763, 1497256762, 1052397937, 1052397863], "tags": {"building": "apartments"}}, {"type": "way", "id": 90681751, "nodes": [1052397684, 7592293481, 1052397168, 1052397399, 1497256726, 1497256727, 1497256728, 1188950229, 1052397250, 1052397684], "tags": {"building": "apartments", "building:levels": "5"}}, {"type": "way", "id": 90681756, "nodes": [1052397633, 8851164270, 8851164269, 3158297310, 8851164268, 8851164267, 8851164266, 4103340091, 8851164265, 8851164264, 8851164263, 4673794098, 3134991985, 1052397176, 1052397335, 1523123995, 1523123991, 1523123984, 1523123981, 1523124000, 1523124023, 1052397194, 1052397633], "tags": {"addr:city": "\u041a\u0430\u043b\u0438\u043d\u0438\u043d\u0433\u0440\u0430\u0434", "addr:housenumber": "85", "addr:street": "\u041b\u0435\u043d\u0438\u043d\u0441\u043a\u0438\u0439 \u043f\u0440\u043e\u0441\u043f\u0435\u043a\u0442", "building": "apartments", "building:levels": "5"}}, {"type": "way", "id": 132690531, "nodes": [1459541791, 1459541792, 1052397574, 1052397995, 7592293503, 1459541790, 1459541791], "tags": {"addr:housenumber": "34", "addr:street": "\u041b\u0435\u043d\u0438\u043d\u0441\u043a\u0438\u0439 \u043f\u0440\u043e\u0441\u043f\u0435\u043a\u0442", "building": "apartments", "building:levels": "7", "roof:shape": "flat"}}, {"type": "way", "id": 146462893, "nodes": [1597534769, 1597534742, 1597534724, 1597534728, 8851164236, 8851164237, 1597534769], "tags": {"addr:country": "RU", "addr:housenumber": "8\u0410", "addr:street": "\u0421\u0442\u0430\u0440\u043e\u043f\u0440\u0435\u0433\u043e\u043b\u044c\u0441\u043a\u0430\u044f \u043d\u0430\u0431\u0435\u0440\u0435\u0436\u043d\u0430\u044f", "building": "apartments", "building:levels": "8"}}, {"type": "way", "id": 956387368, "nodes": [8851164262, 8851164261, 3315238260, 8851164242, 8851164260, 8851164258, 8851164241, 8851164257, 8851164259, 8851164240, 8851164256, 8851164253, 2281997921, 8851164254, 8851164255, 8851164246, 8851164243, 8851164244, 8851164245, 1489332504, 1489332500, 1052397267]}, {"type": "way", "id": 956387369, "nodes": [1052397633, 8851164271, 8851164272, 1052397168, 1052397399, 1523124042, 1052397194, 1052397633], "tags": {"building": "apartments", "building:levels": "7"}}, {"type": "relation", "id": 12867817, "members": [{"type": "way", "ref": 956387368, "role": "outer"}, {"type": "way", "ref": 90681689, "role": "outer"}], "tags": {"building": "apartments", "building:levels": "10", "type": "multipolygon"}}]}