{"version": 0.6, "generator": "Overpass API 0.7.62.1 084b4234", "osm3s": {"timestamp_osm_base": "2024-05-17T03:30:48Z", "copyright": "The data included in this document is from www.openstreetmap.org. The data is made available under ODbL."}, "elements": [{"type": "node", "id": 1557268647, "lat": 55.7750384, "lon": 37.587978, "tags": {"amenity": "bank", "atm": "yes", "brand": "\u042e\u043d\u0438\u041a\u0440\u0435\u0434\u0438\u0442 \u0411\u0430\u043d\u043a", "brand:en": "UniCredit Bank", "brand:ru": "\u042e\u043d\u0438\u041a\u0440\u0435\u0434\u0438\u0442 \u0411\u0430\u043d\u043a", "brand:wikidata": "Q727011", "contact:email": "unicredit@unicredit.ru", "contact:fax": "+7 495 2587272", "contact:phone": "+7 495 2587200;+7 800 7001020", "contact:twitter": "https://twitter.com/unicreditrussia", "contact:vk": "https://vk.com/unicreditbank", "contact:website": "http://www.unicreditbank.ru/", "contact:youtube": "https://www.youtube.com/user/unicreditbankrussia", "name": "\u042e\u043d\u0438\u041a\u0440\u0435\u0434\u0438\u0442 \u0411\u0430\u043d\u043a", "name:en": "UniCredit Bank", "opening_hours": "Fr 10:00-18:00;Mo-Th 10:00-19:00", "operator": "\u042e\u043d\u0438\u041a\u0440\u0435\u0434\u0438\u0442 \u0411\u0430\u043d\u043a", "ref": "\u0414\u043e\u043f\u043e\u043b\u043d\u0438\u0442\u0435\u043b\u044c\u043d\u044b\u0439 \u043e\u0444\u0438\u0441 \"\u0422\u0432\u0435\u0440\u0441\u043a\u0430\u044f\""}}, {"type": "node", "id": 1918663121, "lat": 55.7739548, "lon": 37.5898351, "tags": {"amenity": "bank", "atm": "yes", "brand": "\u041f\u0440\u043e\u043c\u0441\u0432\u044f\u0437\u044c\u0431\u0430\u043d\u043a", "brand:en": "Promsvyazbank", "brand:wikidata": "Q649100", "contact:phone": "+7 495 7873333", "contact:website": "https://www.psbank.ru", "name": "\u041f\u0440\u043e\u043c\u0441\u0432\u044f\u0437\u044c\u0431\u0430\u043d\u043a", "name:en": "Promsvyazbank", "opening_hours": "Mo-Fr 09:00-20:00"}}, {"type": "node", "id": 1918663142, "lat": 55.7739936, "lon": 37.5889046, "tags": {"amenity": "bank", "bic": "RZBMRUMM", "brand": "\u0420\u0430\u0439\u0444\u0444\u0430\u0439\u0437\u0435\u043d", "brand:en": "Raiffeisen Bank", "brand:ru": "\u0420\u0430\u0439\u0444\u0444\u0430\u0439\u0437\u0435\u043d", "brand:wikidata": "Q4389244", "contact:email": "info@raiffeisen.ru", "contact:facebook": "https://www.facebook.com/raiffeisenbankrus", "contact:instagram": "https://instagram.com/raiffeisenbank_rus", "contact:phone": "+7 495 7219900", "contact:telegram": "https://telegram.me/RaiffeisenbankBot", "contact:twitter": "https://twitter.com/Raiffeisen_Ru", "contact:vk": "https://vk.com/raiffeisenbankrus", "contact:website": "https://www.raiffeisen.ru", "name": "\u0420\u0430\u0439\u0444\u0444\u0430\u0439\u0437\u0435\u043d", "name:en": "Raiffeisen Bank", "opening_hours": "Mo-Fr 10:00-20:00; Sa 10:00-17:00", "operator:wikidata": "Q4389244", "operator:wikipedia": "ru:\u0420\u0430\u0439\u0444\u0444\u0430\u0439\u0437\u0435\u043d\u0431\u0430\u043d\u043a", "wheelchair": "yes"}}, {"type": "node", "id": 1918663148, "lat": 55.7742573, "lon": 37.5893105, "tags": {"amenity": "bank", "name": "\u0421\u041c\u041f \u0431\u0430\u043d\u043a"}}, {"type": "node", "id": 1918663151, "lat": 55.7735912, "lon": 37.5895854, "tags": {"amenity": "bank", "name": "\u0421\u0438\u0442\u0438\u0431\u0430\u043d\u043a", "name:en": "Citibank", "wheelchair": "no"}}, {"type": "node", "id": 5240816929, "lat": 55.7752636, "lon": 37.5875866, "tags": {"amenity": "bank", "atm": "yes", "bic": "ALFARUMM", "branch": "\u0411\u0435\u043b\u043e\u0440\u0443\u0441\u0441\u043a\u0430\u044f", "brand": "\u0410\u043b\u044c\u0444\u0430-\u0411\u0430\u043d\u043a", "brand:en": "Alfa-Bank", "brand:ru": "\u0410\u043b\u044c\u0444\u0430-\u0411\u0430\u043d\u043a", "brand:wikidata": "Q1377835", "brand:wikipedia": "ru:\u0410\u043b\u044c\u0444\u0430-\u0431\u0430\u043d\u043a", "contact:email": "mail@alfabank.ru", "contact:facebook": "https://www.facebook.com/alfabank", "contact:ok": "https://ok.ru/alfabank", "contact:phone": "+7 495 7888878", "contact:twitter": "https://twitter.com/alfabank", "contact:vk": "https://vk.com/alfabank", "contact:website": "https://alfabank.ru", "contact:youtube": "https://www.youtube.com/user/alfabankru", "name": "\u0410\u043b\u044c\u0444\u0430-\u0411\u0430\u043d\u043a", "name:en": "Alfa-Bank", "opening_hours": "Mo-Fr 10:00-20:00; Sa 10:00-18:00", "operator": "\u0410\u041e \"\u0410\u043b\u044c\u0444\u0430-\u0411\u0430\u043d\u043a\"", "operator:wikidata": "Q1377835", "operator:wikipedia": "ru:\u0410\u043b\u044c\u0444\u0430-\u0431\u0430\u043d\u043a", "ref": "1502"}}, {"type": "node", "id": 6257908885, "lat": 55.7748384, "lon": 37.5883285, "tags": {"amenity": "bank", "email": "info@interprombank.ru", "name": "\u0418\u043d\u0442\u0435\u0440\u043f\u0440\u043e\u043c\u0431\u0430\u043d\u043a", "name:en": "Interprombank", "opening_hours": "Mo-fr 09:00-21:00; Sa-su 10:00-19:00", "operator": "\u0410\u041e \u041a\u0411 \"\u0418\u041d\u0422\u0415\u0420\u041f\u0420\u041e\u041c\u0411\u0410\u041d\u041a\"", "phone": "+7 495 2322050", "website": "https://www.interprombank.ru/"}}]}