{"version": 0.6, "generator": "Overpass API 0.7.62.1 084b4234", "osm3s": {"timestamp_osm_base": "2024-05-16T19:08:28Z", "copyright": "The data included in this document is from www.openstreetmap.org. The data is made available under ODbL."}, "elements": [{"type": "node", "id": 5032545464, "lat": 55.7500037, "lon": 37.5424102, "tags": {"amenity": "fast_food", "brand": "Cofix", "brand:wikidata": "Q16132717", "brand:wikipedia": "en:Cofix", "contact:email": "1023afimall@stores.cofix.ru", "contact:facebook": "https://www.facebook.com/cofixrussia", "contact:instagram": "https://www.instagram.com/cofixrussia", "contact:phone": "+7 800 3508418", "contact:vk": "https://vk.com/cofixrussia", "contact:website": "https://cofix.global", "cuisine": "coffee_shop", "delivery": "no", "level": "1", "name": "Cofix", "name:en": "Cofix", "opening_hours": "Fr 08:00-23:00; Mo-Th 08:00-22:00; Sa 10:00-23:00; Su 10:00-22:00", "takeaway": "only"}}, {"type": "node", "id": 11185621571, "lat": 55.7493194, "lon": 37.5420279, "tags": {"amenity": "fast_food", "contact:phone": "+7 800 3508418", "contact:website": "https://cofix.global", "cuisine": "coffee_shop", "name": "Cofix", "opening_hours": "Mo-Fr 07:30-22:00; Sa-Su 08:30-22:00"}}]}