{"version": 0.6, "generator": "Overpass API 0.7.62.1 084b4234", "osm3s": {"timestamp_osm_base": "2024-05-17T06:05:00Z", "copyright": "The data included in this document is from www.openstreetmap.org. The data is made available under ODbL."}, "elements": [{"type": "node", "id": 1783815248, "lat": 59.9330044, "lon": 30.4396657, "tags": {"amenity": "fast_food", "brand": "\u0412\u043a\u0443\u0441\u043d\u043e \u2014 \u0438 \u0442\u043e\u0447\u043a\u0430", "brand:en": "Vkusno i tochka", "brand:ru": "\u0412\u043a\u0443\u0441\u043d\u043e \u2014 \u0438 \u0442\u043e\u0447\u043a\u0430", "brand:wikidata": "Q112406961", "breakfast": "07:00-10:00", "contact:email": "info@qsrsystem.ru", "contact:phone": "+7 812 3331592", "contact:vk": "https://vk.com/vkusno_itochka", "contact:website": "https://vkusnoitochka.ru", "cuisine": "burger", "internet_access": "wlan", "name": "\u0412\u043a\u0443\u0441\u043d\u043e \u2014 \u0438 \u0442\u043e\u0447\u043a\u0430", "name:en": "Vkusno i tochka", "name:ru": "\u0412\u043a\u0443\u0441\u043d\u043e \u2014 \u0438 \u0442\u043e\u0447\u043a\u0430", "old_name": "\u041c\u0430\u043a\u0434\u043e\u043d\u0430\u043b\u0434\u0441", "old_name:en": "McDonald\u2019s", "opening_hours": "Mo-Su 06:00-23:30", "opening_hours:cafe": "07:30-23:00", "smoking": "no", "takeaway": "yes"}}, {"type": "node", "id": 4753051228, "lat": 59.9327998, "lon": 30.4379521, "tags": {"amenity": "fast_food", "level": "4", "name": "\u0410\u043c\u0441\u0442\u0435\u0440\u0434\u0430\u043c \u0447\u0438\u043f\u0441 \u043a\u043e\u043c\u043f\u0430\u043d\u0438", "opening_hours": "10:00-22:00"}}, {"type": "node", "id": 4753051231, "lat": 59.9331637, "lon": 30.4377497, "tags": {"alt_name": "Kentucky Fried Chicken", "amenity": "fast_food", "brand": "KFC", "brand:wikidata": "Q524757", "brand:wikipedia": "en:KFC", "cuisine": "burger;chicken", "level": "4", "name": "Rostic`s", "opening_hours": "10:00-21:45", "ref": "\u041a\u0430\u0441\u043a\u0430\u0434", "takeaway": "yes"}}, {"type": "node", "id": 4753051232, "lat": 59.9329519, "lon": 30.4383662, "tags": {"amenity": "fast_food", "brand": "\u0411\u0443\u0440\u0433\u0435\u0440 \u041a\u0438\u043d\u0433", "brand:en": "Burger King", "brand:ru": "\u0411\u0443\u0440\u0433\u0435\u0440 \u041a\u0438\u043d\u0433", "brand:wikidata": "Q177054", "brand:wikipedia": "en:Burger King", "contact:email": "FeedBack@burgerking.ru", "contact:phone": "+7 495 5445000", "contact:website": "https://burgerkingrus.ru/", "cuisine": "burger", "diet:vegetarian": "no", "internet_access": "wlan", "internet_access:fee": "no", "level": "4", "name": "\u0411\u0443\u0440\u0433\u0435\u0440 \u041a\u0438\u043d\u0433", "name:en": "Burger King", "name:ru": "\u0411\u0443\u0440\u0433\u0435\u0440 \u041a\u0438\u043d\u0433", "opening_hours": "Mo-Su 10:00-21:55", "operator": "\u0411\u0423\u0420\u0413\u0415\u0420 \u0420\u0423\u0421", "operator:phone": "+7 495 5445000", "ref": "123", "takeaway": "yes"}}, {"type": "node", "id": 4753051233, "lat": 59.9328958, "lon": 30.4384276, "tags": {"amenity": "fast_food", "cuisine": "vietnamese", "level": "4", "name": "NVB", "opening_hours": "10:00-22:00"}}, {"type": "node", "id": 4753051236, "lat": 59.9328235, "lon": 30.4383926, "tags": {"amenity": "fast_food", "level": "4", "name": "\u0421\u043b\u043e\u0439\u043a\u0430", "opening_hours": "10:00-22:00"}}, {"type": "node", "id": 4753051237, "lat": 59.9330477, "lon": 30.4380985, "tags": {"amenity": "fast_food", "brand": "\u0422\u0435\u0440\u0435\u043c\u043e\u043a", "brand:en": "Teremok", "brand:ru": "\u0422\u0435\u0440\u0435\u043c\u043e\u043a", "brand:wikidata": "Q4455593", "brand:wikipedia": "ru:\u0422\u0435\u0440\u0435\u043c\u043e\u043a (\u0441\u0435\u0442\u044c \u0431\u044b\u0441\u0442\u0440\u043e\u0433\u043e \u043f\u0438\u0442\u0430\u043d\u0438\u044f)", "contact:email": "spb@teremok.ru", "contact:phone": "+7 812 2446600;+7 812 3632332", "contact:website": "https://teremok.ru/", "cuisine": "crepe;russian", "level": "4", "name": "\u0422\u0435\u0440\u0435\u043c\u043e\u043a", "name:en": "Teremok", "name:ru": "\u0422\u0435\u0440\u0435\u043c\u043e\u043a", "opening_hours": "10:00-22:00", "takeaway": "yes"}}, {"type": "node", "id": 4753051238, "lat": 59.9327522, "lon": 30.4380913, "tags": {"amenity": "fast_food", "level": "4", "name": "\u0428\u0430\u0445\u0435\u0440\u0435\u0437\u0430\u0434\u0430", "opening_hours": "10:00-22:00"}}, {"type": "node", "id": 4753051239, "lat": 59.9330038, "lon": 30.4382314, "tags": {"amenity": "fast_food", "level": "4", "name": "\u0422\u0435\u0440\u0438\u044f\u043a\u0438 \u0433\u0440\u0438\u043b\u044c", "opening_hours": "10:00-22:00"}}, {"type": "node", "id": 4753051240, "lat": 59.9328487, "lon": 30.4378299, "tags": {"amenity": "fast_food", "level": "4", "name": "\u0427\u0435\u0431\u0443Room", "opening_hours": "10:00-22:00"}}, {"type": "node", "id": 7680074789, "lat": 59.9326076, "lon": 30.4382015, "tags": {"addr:housenumber": "67 \u043a3 \u043b\u0438\u0442\u0410", "addr:street": "\u0417\u0430\u043d\u0435\u0432\u0441\u043a\u0438\u0439 \u043f\u0440\u043e\u0441\u043f\u0435\u043a\u0442", "amenity": "fast_food", "brand": "\u0411\u0443\u0440\u0433\u0435\u0440 \u041a\u0438\u043d\u0433", "brand:en": "Burger King", "brand:ru": "\u0411\u0443\u0440\u0433\u0435\u0440 \u041a\u0438\u043d\u0433", "brand:wikidata": "Q177054", "brand:wikipedia": "en:Burger King", "contact:email": "info@burgerkingrus.ru", "contact:phone": "+7 495 5445000", "contact:website": "https://burgerkingrus.ru/", "cuisine": "burger", "internet_access": "wlan", "level": "2", "name": "\u0411\u0443\u0440\u0433\u0435\u0440 \u041a\u0438\u043d\u0433", "name:en": "Burger King", "name:ru": "\u0411\u0443\u0440\u0433\u0435\u0440 \u041a\u0438\u043d\u0433", "opening_hours": "Fr-Sa 07:55-24:00; Mo-Th,Su 07:55-22:55", "operator": "\u041e\u041e\u041e \"\u0411\u0443\u0440\u0433\u0435\u0440 \u0420\u0443\u0441\"", "takeaway": "yes"}}, {"type": "node", "id": 8938923931, "lat": 59.9330112, "lon": 30.4378179, "tags": {"amenity": "fast_food", "contact:email": "b2b@onepricecoffee.com", "contact:phone": "+7 495 0153150", "contact:website": "https://onepricecoffee.com/", "cuisine": "coffee_shop", "name": "One Price Coffee", "opening_hours": "Mo-Fr 07:00-22:00; Sa-Su 08:00-22:00"}}, {"type": "node", "id": 9866096603, "lat": 59.93335, "lon": 30.43775, "tags": {"amenity": "fast_food", "contact:email": "soc@mousetail.ru", "contact:phone": "+7 999 2388525", "contact:website": "https://mousetail.ru", "cuisine": "coffee_shop", "name": "Mouse Tail", "opening_hours": "Mo-Sa 08:00-15:30,16:00-22:00;Su 09:00-15:30,16:00-22:00"}}]}