{"version": 0.6, "generator": "Overpass API 0.7.62.1 084b4234", "osm3s": {"timestamp_osm_base": "2024-05-14T10:15:17Z", "copyright": "The data included in this document is from www.openstreetmap.org. The data is made available under ODbL."}, "elements": [{"type": "node", "id": 253043175, "lat": 55.7518652, "lon": 37.6007518, "tags": {"colour": "lightblue", "depth": "8", "layer": "-2", "name": "\u0410\u0440\u0431\u0430\u0442\u0441\u043a\u0430\u044f", "name:be": "\u0410\u0440\u0431\u0430\u0446\u043a\u0430\u044f", "name:de": "Arbatskaja", "name:en": "Arbatskaya", "name:ru": "\u0410\u0440\u0431\u0430\u0442\u0441\u043a\u0430\u044f", "name:uk": "\u0410\u0440\u0431\u0430\u0442\u0441\u044c\u043a\u0430", "network": "\u041c\u043e\u0441\u043a\u043e\u0432\u0441\u043a\u0438\u0439 \u043c\u0435\u0442\u0440\u043e\u043f\u043e\u043b\u0438\u0442\u0435\u043d", "operator": "\u0413\u0423\u041f \u00ab\u041c\u043e\u0441\u043a\u043e\u0432\u0441\u043a\u0438\u0439 \u043c\u0435\u0442\u0440\u043e\u043f\u043e\u043b\u0438\u0442\u0435\u043d\u00bb", "public_transport": "station", "railway": "station", "start_date": "1935-05-15", "station": "subway", "subway": "yes"}}]}