{"version": 0.6, "generator": "Overpass API 0.7.62.1 084b4234", "osm3s": {"timestamp_osm_base": "2024-05-18T00:08:00Z", "copyright": "The data included in this document is from www.openstreetmap.org. The data is made available under ODbL."}, "elements": [{"type": "node", "id": 1150084002, "lat": 54.6049676, "lon": 39.7645006}, {"type": "node", "id": 1150084020, "lat": 54.6046473, "lon": 39.7622594}, {"type": "node", "id": 1150084026, "lat": 54.6048204, "lon": 39.7642551}, {"type": "node", "id": 1150084032, "lat": 54.6040794, "lon": 39.7645902}, {"type": "node", "id": 1150084063, "lat": 54.6042273, "lon": 39.7647656}, {"type": "node", "id": 1150084082, "lat": 54.6037368, "lon": 39.7624225}, {"type": "node", "id": 1150084087, "lat": 54.6041798, "lon": 39.7622263}, {"type": "node", "id": 1150084101, "lat": 54.6048806, "lon": 39.7633989}, {"type": "node", "id": 1150084105, "lat": 54.6043048, "lon": 39.7639029}, {"type": "node", "id": 1150084120, "lat": 54.6042396, "lon": 39.7648488}, {"type": "node", "id": 1150084130, "lat": 54.6050796, "lon": 39.7635541}, {"type": "node", "id": 1150084133, "lat": 54.6044218, "lon": 39.7636011}, {"type": "node", "id": 1150084152, "lat": 54.6048559, "lon": 39.7644947}, {"type": "node", "id": 1150084154, "lat": 54.604069, "lon": 39.7637673}, {"type": "node", "id": 1150084177, "lat": 54.6046284, "lon": 39.7660812}, {"type": "node", "id": 1150084182, "lat": 54.6044569, "lon": 39.7638381}, {"type": "node", "id": 1150084188, "lat": 54.6038807, "lon": 39.7632872}, {"type": "node", "id": 1150084192, "lat": 54.6039908, "lon": 39.7632386}, {"type": "node", "id": 1150084194, "lat": 54.6044275, "lon": 39.7651928}, {"type": "node", "id": 1150084195, "lat": 54.6043327, "lon": 39.7623987}, {"type": "node", "id": 1150084201, "lat": 54.6039405, "lon": 39.7629139}, {"type": "node", "id": 1150084218, "lat": 54.6045953, "lon": 39.7658711}, {"type": "node", "id": 1150084225, "lat": 54.6045385, "lon": 39.7658977}, {"type": "node", "id": 1150084235, "lat": 54.6054867, "lon": 39.7631478}, {"type": "node", "id": 1150084243, "lat": 54.6049156, "lon": 39.7636359}, {"type": "node", "id": 1150084256, "lat": 54.6046734, "lon": 39.7650774}, {"type": "node", "id": 1150084266, "lat": 54.6046385, "lon": 39.7648557}, {"type": "node", "id": 1150084271, "lat": 54.6042716, "lon": 39.763678}, {"type": "node", "id": 1150084275, "lat": 54.6055182, "lon": 39.7633608}, {"type": "node", "id": 1150084293, "lat": 54.6052875, "lon": 39.7643593}, {"type": "node", "id": 1150084295, "lat": 54.6042442, "lon": 39.7650407}, {"type": "node", "id": 1150084298, "lat": 54.6045439, "lon": 39.7646326}, {"type": "node", "id": 1150084305, "lat": 54.6044224, "lon": 39.7646794}, {"type": "node", "id": 1150084316, "lat": 54.604614, "lon": 39.7620353}, {"type": "node", "id": 1150084319, "lat": 54.6041253, "lon": 39.7648993}, {"type": "node", "id": 1150084321, "lat": 54.6044232, "lon": 39.7661775}, {"type": "node", "id": 1150084333, "lat": 54.6052445, "lon": 39.7640694}, {"type": "node", "id": 1150084337, "lat": 54.6050481, "lon": 39.7633411}, {"type": "node", "id": 1150084338, "lat": 54.6042994, "lon": 39.7621746}, {"type": "node", "id": 1150084340, "lat": 54.6043889, "lon": 39.7644534}, {"type": "node", "id": 1150084354, "lat": 54.6038179, "lon": 39.7629682}, {"type": "node", "id": 1150084361, "lat": 54.6049246, "lon": 39.7642107}, {"type": "node", "id": 1150084362, "lat": 54.6042105, "lon": 39.7624331}, {"type": "node", "id": 1150084375, "lat": 54.6038902, "lon": 39.762575}, {"type": "node", "id": 1150084378, "lat": 54.6045084, "lon": 39.764393}, {"type": "node", "id": 1150084392, "lat": 54.6039921, "lon": 39.7640407}, {"type": "node", "id": 1150112062, "lat": 54.6040154, "lon": 39.7593747}, {"type": "node", "id": 1150112067, "lat": 54.6046964, "lon": 39.7603996}, {"type": "node", "id": 1150112079, "lat": 54.6032449, "lon": 39.7593138}, {"type": "node", "id": 1150112086, "lat": 54.604735, "lon": 39.7619871}, {"type": "node", "id": 1150112113, "lat": 54.6034592, "lon": 39.7605198}, {"type": "node", "id": 1150112120, "lat": 54.6041124, "lon": 39.7602187}, {"type": "node", "id": 1150112122, "lat": 54.6045663, "lon": 39.7602229}, {"type": "node", "id": 1150112136, "lat": 54.6051357, "lon": 39.7619914}, {"type": "node", "id": 1150112140, "lat": 54.6052282, "lon": 39.7620143}, {"type": "node", "id": 1150112152, "lat": 54.6051939, "lon": 39.7617839}, {"type": "node", "id": 1150112192, "lat": 54.6039821, "lon": 39.7591633}, {"type": "node", "id": 1150112217, "lat": 54.605168, "lon": 39.7601783}, {"type": "node", "id": 1150112219, "lat": 54.6051446, "lon": 39.7620513}, {"type": "node", "id": 1150112247, "lat": 54.6046619, "lon": 39.7601802}, {"type": "node", "id": 1150112256, "lat": 54.6041443, "lon": 39.760421}, {"type": "node", "id": 1150112277, "lat": 54.6047676, "lon": 39.7622061}, {"type": "node", "id": 1150112292, "lat": 54.6048482, "lon": 39.7621188}, {"type": "node", "id": 1150112309, "lat": 54.6048554, "lon": 39.7621672}, {"type": "node", "id": 1150112321, "lat": 54.6044256, "lon": 39.7591822}, {"type": "node", "id": 1150112345, "lat": 54.6034562, "lon": 39.7596978}, {"type": "node", "id": 1150112359, "lat": 54.6043923, "lon": 39.7589707}, {"type": "node", "id": 1150112363, "lat": 54.6033384, "lon": 39.7597531}, {"type": "node", "id": 1150112374, "lat": 54.603752, "lon": 39.7592811}, {"type": "node", "id": 1150112390, "lat": 54.6051334, "lon": 39.7599589}, {"type": "node", "id": 1150112399, "lat": 54.6037219, "lon": 39.7590899}, {"type": "node", "id": 1150112404, "lat": 54.603275, "lon": 39.759505}, {"type": "node", "id": 1150112405, "lat": 54.6045344, "lon": 39.7600206}, {"type": "node", "id": 1150112434, "lat": 54.603577, "lon": 39.7604645}, {"type": "node", "id": 1150609557, "lat": 54.6030868, "lon": 39.7600888}, {"type": "node", "id": 1150609560, "lat": 54.6033506, "lon": 39.7616796}, {"type": "node", "id": 1150609563, "lat": 54.6049447, "lon": 39.7654819}, {"type": "node", "id": 1150609573, "lat": 54.6034754, "lon": 39.7632882}, {"type": "node", "id": 1150609585, "lat": 54.6025007, "lon": 39.7597582}, {"type": "node", "id": 1150609586, "lat": 54.6031184, "lon": 39.7606832}, {"type": "node", "id": 1150609605, "lat": 54.6050756, "lon": 39.7651709}, {"type": "node", "id": 1150609610, "lat": 54.6051122, "lon": 39.7654033}, {"type": "node", "id": 1150609620, "lat": 54.603231, "lon": 39.7617358}, {"type": "node", "id": 1150609632, "lat": 54.6029617, "lon": 39.7601242}, {"type": "node", "id": 1150609653, "lat": 54.6029828, "lon": 39.7607469}, {"type": "node", "id": 1150609667, "lat": 54.6036533, "lon": 39.7634207}, {"type": "node", "id": 1150609668, "lat": 54.6025277, "lon": 39.7603256}, {"type": "node", "id": 1150609686, "lat": 54.6030981, "lon": 39.7639316}, {"type": "node", "id": 1150609689, "lat": 54.6030614, "lon": 39.7636984}, {"type": "node", "id": 1150609697, "lat": 54.60289, "lon": 39.7601578}, {"type": "node", "id": 1150609715, "lat": 54.6028727, "lon": 39.7595591}, {"type": "node", "id": 1150609718, "lat": 54.6049081, "lon": 39.7652495}, {"type": "node", "id": 1150609727, "lat": 54.60369, "lon": 39.7636539}, {"type": "node", "id": 1150609728, "lat": 54.6026576, "lon": 39.760315}, {"type": "node", "id": 1150609732, "lat": 54.60262, "lon": 39.7597022}, {"type": "node", "id": 1150609733, "lat": 54.6027125, "lon": 39.7602892}, {"type": "node", "id": 1150609736, "lat": 54.6026201, "lon": 39.7609122}, {"type": "node", "id": 1150609739, "lat": 54.6029944, "lon": 39.759502}, {"type": "node", "id": 1150609740, "lat": 54.6030291, "lon": 39.7601159}, {"type": "node", "id": 1150609746, "lat": 54.6027426, "lon": 39.7608547}, {"type": "node", "id": 1150609756, "lat": 54.6025857, "lon": 39.7602984}, {"type": "node", "id": 1150609760, "lat": 54.6035951, "lon": 39.763232}, {"type": "node", "id": 1154379060, "lat": 54.6039245, "lon": 39.7605198}, {"type": "node", "id": 1154379062, "lat": 54.6035025, "lon": 39.7607179}, {"type": "node", "id": 1154379068, "lat": 54.6035344, "lon": 39.7609202}, {"type": "node", "id": 1154379070, "lat": 54.6039564, "lon": 39.7607221}, {"type": "node", "id": 6297514198, "lat": 54.6035834, "lon": 39.7631578, "tags": {"amenity": "pharmacy", "brand": "\u0420\u0438\u0433\u043b\u0430", "brand:wikidata": "Q4394431", "brand:wikipedia": "ru:\u0420\u0438\u0433\u043b\u0430", "contact:email": "msk@rigla.ru", "contact:facebook": "https://www.facebook.com/rigla.ru", "contact:instagram": "https://www.instagram.com/rigla.ru", "contact:ok": "https://ok.ru/rigla.ru", "contact:phone": "+7 491 2250451", "contact:vk": "https://vk.com/rigla_ru", "contact:website": "http://www.rigla.ru", "healthcare": "pharmacy", "name": "\u0411\u0443\u0434\u044c \u0417\u0434\u043e\u0440\u043e\u0432", "name:ru": "\u0411\u0443\u0434\u044c \u0417\u0434\u043e\u0440\u043e\u0432", "opening_hours": "Mo-Su 08:00-21:00", "payment:android_pay": "yes", "payment:coins": "yes", "payment:contactless": "yes", "payment:maestro": "yes", "payment:mastercard": "yes", "payment:mir": "yes", "payment:money_order": "yes", "payment:notes": "yes", "payment:visa": "yes", "payment:visa_debit": "yes", "payment:visa_electron": "yes", "wheelchair": "limited"}}, {"type": "way", "id": 99432014, "nodes": [1150084293, 1150084002, 1150084361, 1150084333, 1150084293], "tags": {"addr:city": "\u0420\u044f\u0437\u0430\u043d\u044c", "addr:country": "RU", "addr:housenumber": "11", "addr:street": "\u041a\u0443\u0439\u0431\u044b\u0448\u0435\u0432\u0441\u043a\u043e\u0435 \u0448\u043e\u0441\u0441\u0435", "building": "apartments", "building:levels": "3"}}, {"type": "way", "id": 99432016, "nodes": [1150084298, 1150084152, 1150084026, 1150084378, 1150084298], "tags": {"addr:city": "\u0420\u044f\u0437\u0430\u043d\u044c", "addr:country": "RU", "addr:housenumber": "13", "addr:street": "\u041a\u0443\u0439\u0431\u044b\u0448\u0435\u0432\u0441\u043a\u043e\u0435 \u0448\u043e\u0441\u0441\u0435", "building": "apartments", "building:levels": "3"}}, {"type": "way", "id": 99432017, "nodes": [1150084201, 1150084354, 1150084082, 1150084087, 1150084362, 1150084375, 1150084201], "tags": {"addr:city": "\u0420\u044f\u0437\u0430\u043d\u044c", "addr:country": "RU", "addr:housenumber": "7/4", "addr:street": "\u0443\u043b\u0438\u0446\u0430 \u0411\u0430\u0431\u0443\u0448\u043a\u0438\u043d\u0430", "building": "apartments", "building:levels": "3"}}, {"type": "way", "id": 99432025, "nodes": [1150084120, 1150084319, 1150084032, 1150084340, 1150084305, 1150084063, 1150084120], "tags": {"addr:city": "\u0420\u044f\u0437\u0430\u043d\u044c", "addr:country": "RU", "addr:housenumber": "15/12", "addr:street": "\u041a\u0443\u0439\u0431\u044b\u0448\u0435\u0432\u0441\u043a\u043e\u0435 \u0448\u043e\u0441\u0441\u0435", "building": "apartments", "building:levels": "3"}}, {"type": "way", "id": 99432026, "nodes": [1150084105, 1150084392, 1150084188, 1150084192, 1150084154, 1150084271, 1150084105], "tags": {"addr:city": "\u0420\u044f\u0437\u0430\u043d\u044c", "addr:country": "RU", "addr:housenumber": "10", "addr:street": "\u041a\u0443\u0439\u0431\u044b\u0448\u0435\u0432\u0441\u043a\u043e\u0435 \u0448\u043e\u0441\u0441\u0435", "building": "apartments", "building:levels": "3"}}, {"type": "way", "id": 99432028, "nodes": [1150084130, 1150084275, 1150084235, 1150084337, 1150084130], "tags": {"addr:city": "\u0420\u044f\u0437\u0430\u043d\u044c", "addr:country": "RU", "addr:housenumber": "6", "addr:street": "\u041a\u0443\u0439\u0431\u044b\u0448\u0435\u0432\u0441\u043a\u043e\u0435 \u0448\u043e\u0441\u0441\u0435", "building": "apartments", "building:levels": "3"}}, {"type": "way", "id": 99432029, "nodes": [1150084243, 1150084182, 1150084133, 1150084101, 1150084243], "tags": {"addr:city": "\u0420\u044f\u0437\u0430\u043d\u044c", "addr:country": "RU", "addr:housenumber": "8", "addr:street": "\u041a\u0443\u0439\u0431\u044b\u0448\u0435\u0432\u0441\u043a\u043e\u0435 \u0448\u043e\u0441\u0441\u0435", "building": "apartments", "building:levels": "3"}}, {"type": "way", "id": 99432030, "nodes": [1150084177, 1150084321, 1150084295, 1150084266, 1150084256, 1150084194, 1150084225, 1150084218, 1150084177], "tags": {"addr:city": "\u0420\u044f\u0437\u0430\u043d\u044c", "addr:country": "RU", "addr:housenumber": "10", "addr:street": "\u042e\u0436\u043d\u044b\u0439 \u043f\u0435\u0440\u0435\u0443\u043b\u043e\u043a", "building": "apartments", "building:levels": "5"}}, {"type": "way", "id": 99432031, "nodes": [1150084316, 1150084338, 1150084195, 1150084020, 1150084316], "tags": {"addr:city": "\u0420\u044f\u0437\u0430\u043d\u044c", "addr:country": "RU", "addr:housenumber": "5", "addr:street": "\u0443\u043b\u0438\u0446\u0430 \u0411\u0430\u0431\u0443\u0448\u043a\u0438\u043d\u0430", "building": "apartments", "building:levels": "3"}}, {"type": "way", "id": 99434579, "nodes": [1150112434, 1150112113, 1150112363, 1150112345, 1150112434], "tags": {"addr:city": "\u0420\u044f\u0437\u0430\u043d\u044c", "addr:country": "RU", "addr:housenumber": "10", "addr:street": "\u0422\u0440\u0443\u0434\u043e\u0432\u0430\u044f \u0443\u043b\u0438\u0446\u0430", "building": "apartments"}}, {"type": "way", "id": 99434603, "nodes": [1150112405, 1150112120, 1150112256, 1150112122, 1150112405], "tags": {"addr:city": "\u0420\u044f\u0437\u0430\u043d\u044c", "addr:country": "RU", "addr:housenumber": "8 \u043a1", "addr:street": "\u0422\u0440\u0443\u0434\u043e\u0432\u0430\u044f \u0443\u043b\u0438\u0446\u0430", "building": "apartments"}}, {"type": "way", "id": 99434607, "nodes": [1150112067, 1150112217, 1150112390, 1150112247, 1150112067], "tags": {"addr:city": "\u0420\u044f\u0437\u0430\u043d\u044c", "addr:country": "RU", "addr:housenumber": "7 \u043a1", "addr:street": "\u0422\u0435\u043b\u0435\u0432\u0438\u0437\u0438\u043e\u043d\u043d\u0430\u044f \u0443\u043b\u0438\u0446\u0430", "building": "apartments"}}, {"type": "way", "id": 99434612, "nodes": [1150112404, 1150112374, 1150112399, 1150112079, 1150112404], "tags": {"addr:city": "\u0420\u044f\u0437\u0430\u043d\u044c", "addr:country": "RU", "addr:housenumber": "12/19", "addr:street": "\u0422\u0440\u0443\u0434\u043e\u0432\u0430\u044f \u0443\u043b\u0438\u0446\u0430", "building": "apartments"}}, {"type": "way", "id": 99434630, "nodes": [1150112086, 1150112152, 1150112140, 1150112219, 1150112136, 1150112292, 1150112309, 1150112277, 1150112086], "tags": {"addr:city": "\u0420\u044f\u0437\u0430\u043d\u044c", "addr:country": "RU", "addr:housenumber": "3", "addr:street": "\u0443\u043b\u0438\u0446\u0430 \u0411\u0430\u0431\u0443\u0448\u043a\u0438\u043d\u0430", "building": "apartments", "building:levels": "3"}}, {"type": "way", "id": 99434633, "nodes": [1150112321, 1150112062, 1150112192, 1150112359, 1150112321], "tags": {"addr:city": "\u0420\u044f\u0437\u0430\u043d\u044c", "addr:country": "RU", "addr:housenumber": "7", "addr:street": "\u0443\u043b\u0438\u0446\u0430 \u041b\u043e\u043c\u043e\u043d\u043e\u0441\u043e\u0432\u0430", "building": "apartments"}}, {"type": "way", "id": 99465980, "nodes": [1150609727, 1150609686, 1150609689, 1150609667, 1150609727], "tags": {"addr:city": "\u0420\u044f\u0437\u0430\u043d\u044c", "addr:country": "RU", "addr:housenumber": "14/1", "addr:street": "\u041a\u0443\u0439\u0431\u044b\u0448\u0435\u0432\u0441\u043a\u043e\u0435 \u0448\u043e\u0441\u0441\u0435", "building": "apartments", "name": "\u041c\u0438\u0440 \u043f\u0440\u043e\u0434\u0443\u043a\u0442\u043e\u0432", "shop": "mall"}}, {"type": "way", "id": 99465989, "nodes": [1150609736, 1150609668, 1150609756, 1150609585, 1150609732, 1150609733, 1150609728, 1150609746, 1150609736], "tags": {"addr:city": "\u0420\u044f\u0437\u0430\u043d\u044c", "addr:country": "RU", "addr:housenumber": "23", "addr:street": "\u0443\u043b\u0438\u0446\u0430 \u041b\u043e\u043c\u043e\u043d\u043e\u0441\u043e\u0432\u0430", "building": "apartments"}}, {"type": "way", "id": 99466007, "nodes": [1150609653, 1150609697, 1150609632, 1150609715, 1150609739, 1150609557, 1150609740, 1150609586, 1150609653], "tags": {"addr:city": "\u0420\u044f\u0437\u0430\u043d\u044c", "addr:country": "RU", "addr:housenumber": "5/8", "addr:street": "\u0422\u0440\u0443\u0434\u043e\u0432\u0430\u044f \u0443\u043b\u0438\u0446\u0430", "building": "apartments"}}, {"type": "way", "id": 99466008, "nodes": [1150609610, 1150609563, 1150609718, 1150609605, 1150609610], "tags": {"addr:city": "\u0420\u044f\u0437\u0430\u043d\u044c", "addr:country": "RU", "addr:housenumber": "13\u0411", "addr:street": "\u0421\u0435\u0432\u0435\u0440\u043d\u044b\u0439 \u043f\u0435\u0440\u0435\u0443\u043b\u043e\u043a", "building": "apartments"}}, {"type": "way", "id": 99466013, "nodes": [1150609573, 1150609620, 1150609560, 6297514198, 1150609760, 1150609573], "tags": {"addr:city": "\u0420\u044f\u0437\u0430\u043d\u044c", "addr:country": "RU", "addr:housenumber": "1 \u043a1", "addr:street": "\u0422\u0440\u0443\u0434\u043e\u0432\u0430\u044f \u0443\u043b\u0438\u0446\u0430", "building": "apartments", "shop": "mall"}}, {"type": "way", "id": 99858772, "nodes": [1154379060, 1154379062, 1154379068, 1154379070, 1154379060], "tags": {"addr:city": "\u0420\u044f\u0437\u0430\u043d\u044c", "addr:country": "RU", "addr:housenumber": "8", "addr:street": "\u0422\u0440\u0443\u0434\u043e\u0432\u0430\u044f \u0443\u043b\u0438\u0446\u0430", "building": "apartments"}}]}