{"version": 0.6, "generator": "Overpass API 0.7.62.1 084b4234", "osm3s": {"timestamp_osm_base": "2024-05-18T01:22:45Z", "copyright": "The data included in this document is from www.openstreetmap.org. The data is made available under ODbL."}, "elements": [{"type": "node", "id": 1433997768, "lat": 52.2808921, "lon": 104.3061886}, {"type": "node", "id": 1433997811, "lat": 52.2805937, "lon": 104.3066389}, {"type": "node", "id": 1433997817, "lat": 52.2807812, "lon": 104.3060553}, {"type": "node", "id": 1433997837, "lat": 52.2799311, "lon": 104.3058433}, {"type": "node", "id": 1433997845, "lat": 52.2800224, "lon": 104.3056403}, {"type": "node", "id": 1433997847, "lat": 52.2806364, "lon": 104.3063775}, {"type": "node", "id": 1433997860, "lat": 52.2807009, "lon": 104.3064004}, {"type": "node", "id": 1433997877, "lat": 52.2807633, "lon": 104.3064753}, {"type": "node", "id": 6373470105, "lat": 52.2788451, "lon": 104.3084172}, {"type": "node", "id": 6373470110, "lat": 52.2783881, "lon": 104.3087242}, {"type": "node", "id": 6373470124, "lat": 52.2784161, "lon": 104.3088322}, {"type": "node", "id": 6373470125, "lat": 52.2784831, "lon": 104.3091062}, {"type": "node", "id": 6373470128, "lat": 52.2787121, "lon": 104.3089572}, {"type": "node", "id": 6373470129, "lat": 52.2789411, "lon": 104.3088082}, {"type": "node", "id": 6373470130, "lat": 52.2788741, "lon": 104.3085342}, {"type": "node", "id": 6373470131, "lat": 52.2786451, "lon": 104.3086832}, {"type": "node", "id": 6373470132, "lat": 52.2788661, "lon": 104.3090822}, {"type": "node", "id": 6373470133, "lat": 52.2790281, "lon": 104.3089752}, {"type": "node", "id": 6373470134, "lat": 52.2791191, "lon": 104.3101092}, {"type": "node", "id": 6373470135, "lat": 52.2792811, "lon": 104.3100022}, {"type": "node", "id": 6373470136, "lat": 52.2791071, "lon": 104.3092982}, {"type": "node", "id": 6373470137, "lat": 52.2789451, "lon": 104.3094042}, {"type": "node", "id": 6373470138, "lat": 52.2790331, "lon": 104.3097582}, {"type": "node", "id": 6373470139, "lat": 52.2791951, "lon": 104.3096522}, {"type": "node", "id": 6373470140, "lat": 52.2789821, "lon": 104.3107322}, {"type": "node", "id": 6373470141, "lat": 52.2791741, "lon": 104.3105952}, {"type": "node", "id": 6373470142, "lat": 52.2793741, "lon": 104.3104502}, {"type": "node", "id": 6373470143, "lat": 52.2793091, "lon": 104.3102062}, {"type": "node", "id": 6373470146, "lat": 52.2791081, "lon": 104.3103502}, {"type": "node", "id": 6373470147, "lat": 52.2789161, "lon": 104.3104872}, {"type": "node", "id": 6373470153, "lat": 52.2786531, "lon": 104.3109762}, {"type": "node", "id": 6373470154, "lat": 52.2788691, "lon": 104.3108402}, {"type": "node", "id": 6373470156, "lat": 52.2788081, "lon": 104.3105812}, {"type": "node", "id": 6373470157, "lat": 52.2785921, "lon": 104.3107172}, {"type": "way", "id": 130102088, "nodes": [1433997768, 1433997877, 1433997860, 1433997811, 1433997837, 1433997845, 1433997847, 1433997817, 1433997768], "tags": {"addr:city": "\u0418\u0440\u043a\u0443\u0442\u0441\u043a", "addr:country": "RU", "addr:housenumber": "13", "addr:postcode": "664007", "addr:region": "\u0418\u0440\u043a\u0443\u0442\u0441\u043a\u0430\u044f \u043e\u0431\u043b\u0430\u0441\u0442\u044c", "addr:street": "\u042f\u043c\u0441\u043a\u0430\u044f \u0443\u043b\u0438\u0446\u0430", "building": "apartments", "building:levels": "5"}}, {"type": "way", "id": 680655894, "nodes": [6373470154, 6373470153, 6373470157, 6373470156, 6373470154], "tags": {"addr:housenumber": "116", "addr:street": "\u0443\u043b\u0438\u0446\u0430 \u041a\u0430\u0440\u043b\u0430 \u041b\u0438\u0431\u043a\u043d\u0435\u0445\u0442\u0430", "building": "apartments"}}, {"type": "way", "id": 680655900, "nodes": [6373470135, 6373470134, 6373470138, 6373470139, 6373470135], "tags": {"addr:housenumber": "15/4", "addr:street": "\u0443\u043b\u0438\u0446\u0430 \u0410\u043b\u0435\u043a\u0441\u0430\u043d\u0434\u0440\u0430 \u041d\u0435\u0432\u0441\u043a\u043e\u0433\u043e", "building": "apartments", "building:levels": "14"}}, {"type": "way", "id": 680655901, "nodes": [6373470129, 6373470128, 6373470131, 6373470130, 6373470129], "tags": {"addr:housenumber": "15", "addr:street": "\u0443\u043b\u0438\u0446\u0430 \u0410\u043b\u0435\u043a\u0441\u0430\u043d\u0434\u0440\u0430 \u041d\u0435\u0432\u0441\u043a\u043e\u0433\u043e", "building": "apartments", "building:levels": "9"}}, {"type": "way", "id": 680655902, "nodes": [6373470137, 6373470136, 6373470139, 6373470138, 6373470137], "tags": {"addr:housenumber": "15/3", "addr:street": "\u0443\u043b\u0438\u0446\u0430 \u0410\u043b\u0435\u043a\u0441\u0430\u043d\u0434\u0440\u0430 \u041d\u0435\u0432\u0441\u043a\u043e\u0433\u043e", "building": "apartments", "building:levels": "16"}}, {"type": "way", "id": 680655903, "nodes": [6373470133, 6373470136, 6373470137, 6373470132, 6373470133], "tags": {"addr:housenumber": "15/2", "addr:street": "\u0443\u043b\u0438\u0446\u0430 \u0410\u043b\u0435\u043a\u0441\u0430\u043d\u0434\u0440\u0430 \u041d\u0435\u0432\u0441\u043a\u043e\u0433\u043e", "building": "apartments", "building:levels": "15"}}, {"type": "way", "id": 680655904, "nodes": [6373470147, 6373470146, 6373470141, 6373470140, 6373470147], "tags": {"addr:housenumber": "114", "addr:street": "\u0443\u043b\u0438\u0446\u0430 \u041a\u0430\u0440\u043b\u0430 \u041b\u0438\u0431\u043a\u043d\u0435\u0445\u0442\u0430", "building": "apartments", "building:levels": "9"}}, {"type": "way", "id": 680655905, "nodes": [6373470143, 6373470142, 6373470141, 6373470146, 6373470143], "tags": {"addr:housenumber": "112", "addr:street": "\u0443\u043b\u0438\u0446\u0430 \u041a\u0430\u0440\u043b\u0430 \u041b\u0438\u0431\u043a\u043d\u0435\u0445\u0442\u0430", "building": "apartments", "building:levels": "12"}}, {"type": "way", "id": 680655909, "nodes": [6373470130, 6373470124, 6373470110, 6373470105, 6373470130], "tags": {"addr:city": "\u0418\u0440\u043a\u0443\u0442\u0441\u043a", "addr:country": "RU", "addr:housenumber": "19", "addr:postcode": "664047", "addr:region": "\u0418\u0440\u043a\u0443\u0442\u0441\u043a\u0430\u044f \u043e\u0431\u043b\u0430\u0441\u0442\u044c", "addr:street": "\u0443\u043b\u0438\u0446\u0430 \u0410\u043b\u0435\u043a\u0441\u0430\u043d\u0434\u0440\u0430 \u041d\u0435\u0432\u0441\u043a\u043e\u0433\u043e", "air_conditioning": "yes", "amenity": "bar", "building": "apartments", "building:levels": "2", "description": "\u041b\u0430\u0443\u043d\u0434\u0436 \u0431\u0430\u0440, \u0441 \u043e\u0442\u043b\u0438\u0447\u043d\u043e\u0439 \u0430\u0442\u043c\u043e\u0441\u0444\u0435\u0440\u043e\u0439, \u0438 \u0432\u043a\u0443\u0441\u043d\u044b\u043c\u0438 \u043a\u0430\u043b\u044c\u044f\u043d\u0430\u043c\u0438! \u041e\u0434\u0438\u043d \u0438\u0437 \u043b\u0443\u0447\u0448\u0438\u0445 \u0432 \u0433\u043e\u0440\u043e\u0434\u0435!", "hookah": "yes", "internet_access": "wlan", "internet_access:ssid": "gozasmoke", "level": "2", "name": "GOZA Smoke", "outdoor_seating": "no", "payment:cash": "yes", "payment:credit_cards": "yes", "payment:debit_cards": "yes", "smoking": "dedicated"}}, {"type": "way", "id": 680655914, "nodes": [6373470125, 6373470124, 6373470131, 6373470128, 6373470125], "tags": {"addr:housenumber": "17", "addr:street": "\u0443\u043b\u0438\u0446\u0430 \u0410\u043b\u0435\u043a\u0441\u0430\u043d\u0434\u0440\u0430 \u041d\u0435\u0432\u0441\u043a\u043e\u0433\u043e", "building": "apartments", "building:levels": "7"}}]}