{"version": 0.6, "generator": "Overpass API 0.7.62.1 084b4234", "osm3s": {"timestamp_osm_base": "2024-05-13T22:27:27Z", "copyright": "The data included in this document is from www.openstreetmap.org. The data is made available under ODbL."}, "elements": [{"type": "node", "id": 2451930643, "lat": 55.7547747, "lon": 37.6215849, "tags": {"amenity": "restaurant", "contact:email": "info@coffeemania.ru", "contact:facebook": "https://www.facebook.com/Coffeemania.ru", "contact:instagram": "https://www.instagram.com/coffeemania.ru/", "contact:phone": "+7 495 6203395", "contact:website": "http://coffeemania.ru/", "cuisine": "cake;coffee_shop", "name": "\u041a\u043e\u0444\u0435\u043c\u0430\u043d\u0438\u044f", "name:en": "Coffeemania", "opening_hours": "Mo-Su 10:00-22:00", "operator": "\u041c\u0435\u043d\u0430\u0440\u0434\u0438", "wheelchair": "no"}}, {"type": "node", "id": 3150353746, "lat": 55.7547905, "lon": 37.6201907, "tags": {"amenity": "restaurant", "contact:email": "info@bosco.ru", "contact:phone": "+7 495 6203182;+7 495 6600550", "contact:website": "https://boscofamily.ru", "name": "Bosco Caf\u00e9", "opening_hours": "Mo-Su 10:00-22:00", "operator": "Bosco"}}, {"type": "node", "id": 8052435130, "lat": 55.7540226, "lon": 37.6216836, "tags": {"amenity": "restaurant", "contact:instagram": "https://www.instagram.com/barbosco_moscow", "contact:phone": "+7 495 6273703", "name": "Barbosco", "opening_hours": "Mo-Fr 10:00-24:00; Sa,Su 00:00-03:00,10:00-24:00", "website": "https://barbosco.com"}}]}