{"version": 0.6, "generator": "Overpass API 0.7.62.1 084b4234", "osm3s": {"timestamp_osm_base": "2024-05-17T10:15:12Z", "copyright": "The data included in this document is from www.openstreetmap.org. The data is made available under ODbL."}, "elements": [{"type": "node", "id": 1090214703, "lat": 43.1108847, "lon": 131.9382975, "tags": {"amenity": "fast_food", "cuisine": "japanese;sushi", "email": "rimtokyo25@gmail.com", "name": "\u0420\u0438\u043c-\u0422\u043e\u043a\u0438\u043e", "name:en": "Rim-Tokyo", "opening_hours": "Mo-Su 11:00-23:00", "phone": "+74232909772", "shop": "charity", "source": "image", "website": "http://rim-tokyo.ru"}}, {"type": "node", "id": 1096115229, "lat": 43.1114309, "lon": 131.9379225, "tags": {"amenity": "fast_food", "name": "\u041f\u0438\u0440\u043e\u0436\u043a\u0438, \u0442\u043e\u0440\u0442\u044b, \u043a\u043e\u0444\u0435", "name:en": "Pies, cakes, coffee", "source": "image"}}, {"type": "node", "id": 2618104430, "lat": 43.1113859, "lon": 131.9392341, "tags": {"amenity": "fast_food", "name": "\u0411\u0443\u0440\u0433\u0435\u0440\u043d\u0430\u044f", "source": "notes"}}, {"type": "node", "id": 4405208689, "lat": 43.1106922, "lon": 131.9371641, "tags": {"amenity": "fast_food", "opening_hours": "24/7"}}, {"type": "node", "id": 6326552085, "lat": 43.1106691, "lon": 131.9375982, "tags": {"alt_name": "Kentucky Fried Chicken", "amenity": "fast_food", "brand": "KFC", "brand:wikidata": "Q524757", "cuisine": "chicken", "name": "KFC", "opening_hours": "Mo-Su 08:00-00:00", "takeaway": "yes"}}]}