{"version": 0.6, "generator": "Overpass API 0.7.62.1 084b4234", "osm3s": {"timestamp_osm_base": "2024-05-18T00:33:28Z", "copyright": "The data included in this document is from www.openstreetmap.org. The data is made available under ODbL."}, "elements": [{"type": "node", "id": 353919218, "lat": 54.9458781, "lon": 73.3819393}, {"type": "node", "id": 353919220, "lat": 54.9461943, "lon": 73.3798571}, {"type": "node", "id": 353919221, "lat": 54.9463124, "lon": 73.3799115}, {"type": "node", "id": 353919223, "lat": 54.9459961, "lon": 73.3819936}, {"type": "node", "id": 494771676, "lat": 54.9486425, "lon": 73.3848886}, {"type": "node", "id": 494771677, "lat": 54.9481104, "lon": 73.3848401}, {"type": "node", "id": 494771678, "lat": 54.9481043, "lon": 73.3850429}, {"type": "node", "id": 494771679, "lat": 54.9486364, "lon": 73.3850914}, {"type": "node", "id": 494771680, "lat": 54.9480545, "lon": 73.3848411}, {"type": "node", "id": 494771681, "lat": 54.9474804, "lon": 73.3847888}, {"type": "node", "id": 494771682, "lat": 54.9473469, "lon": 73.3861776}, {"type": "node", "id": 494771683, "lat": 54.9480484, "lon": 73.3850439}, {"type": "node", "id": 494771684, "lat": 54.9475705, "lon": 73.3850003, "tags": {"addr:flats": "47-54", "entrance": "staircase", "ref": "4"}}, {"type": "node", "id": 494771685, "lat": 54.9474741, "lon": 73.3860105, "tags": {"entrance": "staircase", "ref": "8"}}, {"type": "node", "id": 494771686, "lat": 54.9479632, "lon": 73.3864716}, {"type": "node", "id": 494771687, "lat": 54.9479966, "lon": 73.3862597}, {"type": "node", "id": 494771689, "lat": 54.9481311, "lon": 73.3865166}, {"type": "node", "id": 494771690, "lat": 54.9481623, "lon": 73.3863153}, {"type": "node", "id": 494771693, "lat": 54.9486527, "lon": 73.3864577}, {"type": "node", "id": 494771694, "lat": 54.9484166, "lon": 73.386347}, {"type": "node", "id": 494771695, "lat": 54.948404, "lon": 73.3864288}, {"type": "node", "id": 494771696, "lat": 54.9496088, "lon": 73.386859}, {"type": "node", "id": 494771697, "lat": 54.9489178, "lon": 73.3865398}, {"type": "node", "id": 494771698, "lat": 54.9488887, "lon": 73.3867308}, {"type": "node", "id": 494771699, "lat": 54.9495796, "lon": 73.38705}, {"type": "node", "id": 494771708, "lat": 54.9486944, "lon": 73.3874566}, {"type": "node", "id": 494771709, "lat": 54.9480963, "lon": 73.3871827}, {"type": "node", "id": 494771710, "lat": 54.9480673, "lon": 73.3873748}, {"type": "node", "id": 494771711, "lat": 54.9486654, "lon": 73.3876487}, {"type": "node", "id": 494771716, "lat": 54.9480442, "lon": 73.3871475}, {"type": "node", "id": 494771717, "lat": 54.9474448, "lon": 73.3868712}, {"type": "node", "id": 494771718, "lat": 54.9474148, "lon": 73.3870687}, {"type": "node", "id": 494771719, "lat": 54.9480142, "lon": 73.3873449}, {"type": "node", "id": 494771720, "lat": 54.9473449, "lon": 73.3875285}, {"type": "node", "id": 494771721, "lat": 54.9474251, "lon": 73.3870013}, {"type": "node", "id": 494771722, "lat": 54.9473107, "lon": 73.3869486}, {"type": "node", "id": 494771723, "lat": 54.9472306, "lon": 73.3874758}, {"type": "node", "id": 685042643, "lat": 54.9461225, "lon": 73.3865941}, {"type": "node", "id": 685042644, "lat": 54.9467248, "lon": 73.3868743}, {"type": "node", "id": 685042645, "lat": 54.9467572, "lon": 73.3866634}, {"type": "node", "id": 685042646, "lat": 54.9461549, "lon": 73.3863832}, {"type": "node", "id": 685042647, "lat": 54.9467278, "lon": 73.3877774}, {"type": "node", "id": 685042652, "lat": 54.9468866, "lon": 73.386743}, {"type": "node", "id": 685042653, "lat": 54.9470032, "lon": 73.3867972}, {"type": "node", "id": 685042654, "lat": 54.9468444, "lon": 73.3878316}, {"type": "node", "id": 722122188, "lat": 54.9457504, "lon": 73.3873192}, {"type": "node", "id": 722122369, "lat": 54.9460215, "lon": 73.3863248}, {"type": "node", "id": 722122380, "lat": 54.9459109, "lon": 73.3862733}, {"type": "node", "id": 722122556, "lat": 54.945861, "lon": 73.3873706}, {"type": "node", "id": 1027793611, "lat": 54.9494169, "lon": 73.3883763}, {"type": "node", "id": 1027793637, "lat": 54.9486576, "lon": 73.3867982}, {"type": "node", "id": 1027794253, "lat": 54.9495355, "lon": 73.3884302}, {"type": "node", "id": 1027794326, "lat": 54.9498026, "lon": 73.3883183}, {"type": "node", "id": 1027794470, "lat": 54.9498196, "lon": 73.3880647}, {"type": "node", "id": 1027794533, "lat": 54.9495597, "lon": 73.388269}, {"type": "node", "id": 1027795016, "lat": 54.9486339, "lon": 73.3865795}, {"type": "node", "id": 1027795035, "lat": 54.9494741, "lon": 73.3879946}, {"type": "node", "id": 1109019636, "lat": 54.9475333, "lon": 73.3862665, "tags": {"name": "Marafett", "shop": "chemist"}}, {"type": "node", "id": 1109019774, "lat": 54.9475281, "lon": 73.3860362}, {"type": "node", "id": 1487221160, "lat": 54.9485418, "lon": 73.3873867, "tags": {"name": "\u0424\u0435\u0440\u043c\u0435\u0440-\u0446\u0435\u043d\u0442\u0440.\u0440\u0444", "shop": "convenience"}}, {"type": "node", "id": 1487221264, "lat": 54.9473597, "lon": 73.3860444, "tags": {"amenity": "atm", "indoor": "no", "opening_hours": "24/7", "operator": "\u0411\u0430\u043d\u043a \u0412\u0422\u0411 (\u041f\u0410\u041e)"}}, {"type": "node", "id": 1968009046, "lat": 54.9481842, "lon": 73.3865761}, {"type": "node", "id": 1968009059, "lat": 54.9481892, "lon": 73.3865438}, {"type": "node", "id": 1968009062, "lat": 54.9483193, "lon": 73.3866394}, {"type": "node", "id": 1968009097, "lat": 54.9486876, "lon": 73.3866047}, {"type": "node", "id": 3383931751, "lat": 54.9481668, "lon": 73.3850486, "tags": {"addr:flats": "1-9", "entrance": "staircase", "ref": "1"}}, {"type": "node", "id": 3383931757, "lat": 54.9483092, "lon": 73.3850616, "tags": {"access": "private", "addr:flats": "10-18", "entrance": "staircase", "ref": "2"}}, {"type": "node", "id": 3383931761, "lat": 54.9484088, "lon": 73.3850707, "tags": {"addr:flats": "19-24", "entrance": "staircase", "ref": "3"}}, {"type": "node", "id": 3383931763, "lat": 54.9485503, "lon": 73.3850836, "tags": {"access": "private", "addr:flats": "25-33", "entrance": "staircase", "ref": "4"}}, {"type": "node", "id": 3459222729, "lat": 54.9476451, "lon": 73.3863198, "tags": {"check_date:opening_hours": "2021-05-27", "name": "\u041f\u0440\u043e\u0432\u0438\u0430\u043d\u0442", "opening_hours": "08:30-21:00", "shop": "pastry"}}, {"type": "node", "id": 4159654991, "lat": 54.9466739, "lon": 73.3866246, "tags": {"name": "Ciel", "shop": "cosmetics"}}, {"type": "node", "id": 4159654992, "lat": 54.9463561, "lon": 73.3864768, "tags": {"name": "Vizavi", "shop": "shoes"}}, {"type": "node", "id": 4159654999, "lat": 54.9462669, "lon": 73.3864353, "tags": {"name": "\u0418\u0422 \u0411\u0430\u043d\u043a", "was:amenity": "bank"}}, {"type": "node", "id": 4159655000, "lat": 54.9473517, "lon": 73.3861272, "tags": {"contact:phone": "+7 800 2500890", "contact:website": "https://omsk.mts.ru/", "name": "\u041c\u0422\u0421", "name:ru": "\u041c\u0422\u0421", "office": "telecommunication", "opening_hours": "Mo-Su 10:00-19:00", "shop": "mobile_phone"}}, {"type": "node", "id": 4159655004, "lat": 54.946878, "lon": 73.3867987, "tags": {"amenity": "pharmacy", "contact:vk": "farmakopeika", "name": "\u0424\u0430\u0440\u043c\u0430\u043a\u043e\u043f\u0435\u0439\u043a\u0430", "opening_hours": "Mo-Su 09:00-20:00", "phone": "+7 800 200 97 07", "website": "https://farmakopeika.ru/"}}, {"type": "node", "id": 4159655007, "lat": 54.947262, "lon": 73.3872692, "tags": {"name": "\u0420\u043e\u0441\u0441-\u0422\u0443\u0440", "shop": "travel_agency"}}, {"type": "node", "id": 4159655011, "lat": 54.9464995, "lon": 73.3865435, "tags": {"name": "\u0427\u0438\u0442\u0430\u0439-\u0413\u043e\u0440\u043e\u0434", "shop": "books"}}, {"type": "node", "id": 4159655079, "lat": 54.9469772, "lon": 73.3869665, "tags": {"name": "\u0426\u0432\u0435\u0442\u043e\u0447\u043d\u044b\u0439 \u0440\u0430\u0439", "shop": "florist"}}, {"type": "node", "id": 4159655080, "lat": 54.9469961, "lon": 73.3868434, "tags": {"amenity": "atm", "indoor": "no", "opening_hours": "24/7", "operator": "\u041e\u0422\u041f \u0411\u0430\u043d\u043a"}}, {"type": "node", "id": 4160633631, "lat": 54.9495207, "lon": 73.3880039, "tags": {"name": "Defile", "shop": "clothes"}}, {"type": "node", "id": 4160633634, "lat": 54.9494277, "lon": 73.3869798, "tags": {"name": "\u041f\u0438\u0432\u043a\u043e", "was:shop": "beverages"}}, {"type": "node", "id": 4160633635, "lat": 54.9496441, "lon": 73.3880291, "tags": {"level": "-1", "name": "\u0411\u043e\u0433\u0435\u043c\u0438\u044f", "shop": "houseware"}}, {"type": "node", "id": 4160633637, "lat": 54.9486691, "lon": 73.3867241, "tags": {"clothes": "suits", "name": "\u0412\u0438\u0442\u044f\u0437\u044c", "was:shop": "clothes"}}, {"type": "node", "id": 4160633640, "lat": 54.9477733, "lon": 73.3870226, "tags": {"name": "\u0414\u0432\u0435\u0440\u0438 \u0413\u0443\u0434", "shop": "doors"}}, {"type": "node", "id": 4160633644, "lat": 54.94728, "lon": 73.3871507, "tags": {"name": "\u0418\u043d\u0442\u0438\u043c", "shop": "erotic"}}, {"type": "node", "id": 4160633648, "lat": 54.9495924, "lon": 73.3869666, "tags": {"name": "\u041a\u0443\u0440\u0438\u043d\u0430\u044f \u0440\u0435\u0441\u043f\u0443\u0431\u043b\u0438\u043a\u0430", "shop": "butcher"}}, {"type": "node", "id": 4160633650, "lat": 54.9478354, "lon": 73.3870512, "tags": {"name": "\u041e\u0442 & \u0414\u043e", "shop": "doors"}}, {"type": "node", "id": 4160633651, "lat": 54.9490797, "lon": 73.3868191, "tags": {"name": "\u041f\u0435\u043f\u043b\u043e\u0441", "shop": "clothes"}}, {"type": "node", "id": 4160633652, "lat": 54.9492485, "lon": 73.386897, "tags": {"craft": "tailor", "name": "\u041c\u0435\u0445\u0430 \u0438 \u041a\u0430\u0448\u0435\u043c\u0438\u0440"}}, {"type": "node", "id": 4160633654, "lat": 54.9474312, "lon": 73.3862178, "tags": {"name": "\u041f\u0440\u0438\u043c\u0430", "shop": "optician"}}, {"type": "node", "id": 4160633655, "lat": 54.9479207, "lon": 73.3870906, "tags": {"amenity": "dentist", "name": "\u041f\u0440\u043e\u0444\u0438\u0434\u0435\u043d\u0442"}}, {"type": "node", "id": 4160633660, "lat": 54.9482731, "lon": 73.3866179, "tags": {"amenity": "fast_food", "cuisine": "sushi", "name": "\u0421\u0443\u0448\u0438 Wok"}}, {"type": "node", "id": 4160633661, "lat": 54.9482238, "lon": 73.386595, "tags": {"name": "\u0422\u0435\u043b\u04352", "office": "telecommunication", "shop": "mobile_phone"}}, {"type": "node", "id": 4160633663, "lat": 54.9481743, "lon": 73.3865369, "tags": {"name": "\u0423\u044e\u0442\u043d\u043e\u0435 \u0440\u0435\u0448\u0435\u043d\u0438\u0435", "shop": "fabric"}}, {"type": "node", "id": 4160633687, "lat": 54.9474657, "lon": 73.3868809, "tags": {"name": "\u041b\u044e\u0412\u043e\u0420\u0438", "shop": "hairdresser"}}, {"type": "node", "id": 4616273575, "lat": 54.9468558, "lon": 73.3877573, "tags": {"clothes": "military", "name": "\u0412\u043e\u0435\u043d\u0442\u043e\u0440\u0433", "shop": "clothes"}}, {"type": "node", "id": 4751207572, "lat": 54.9494482, "lon": 73.388167, "tags": {"level": "-1", "name": "Pac Group", "shop": "travel_agency"}}, {"type": "node", "id": 4751207573, "lat": 54.94868, "lon": 73.3875519, "tags": {"shop": "pawnbroker"}}, {"type": "node", "id": 4758372783, "lat": 54.9483876, "lon": 73.3873162, "tags": {"name": "\u0412\u043e\u043a\u0440\u0443\u0433 \u0441\u0432\u0435\u0442\u0430", "office": "travel_agent"}}, {"type": "node", "id": 4758372784, "lat": 54.9481636, "lon": 73.3872135, "tags": {"contact:email": "info@vipceiling.ru", "contact:phone": "+7 381 2951200;+7 800 2000092", "contact:website": "https://vipceiling.ru/omsk/", "craft": "ceiling", "name": "\u0412\u0438\u043f\u0441\u0438\u043b\u0438\u043d\u0433", "opening_hours": "Mo-Su 08:00-21:00"}}, {"type": "node", "id": 4758372802, "lat": 54.9469563, "lon": 73.3871025, "tags": {"email": "omskbeer@mail.ru", "name": "\u0411\u0438\u0440\u0445\u0430\u0443\u0441", "name:en": "BEERhouse", "shop": "beverages", "website": "https://bh55.ru/"}}, {"type": "node", "id": 4758372805, "lat": 54.9494651, "lon": 73.3880547, "tags": {"contact:email": "info@goodvape.ru", "contact:phone": "+7 800 5053685", "contact:vk": "https://vk.com/good_vapeshop", "contact:website": "https://www.good-vape.ru/", "contact:youtube": "https://www.youtube.com/c/GoodVape", "level": "-1", "name": "Good Vape", "opening_hours": "Fr-Sa 12:00-23:00; Mo-Th,Su 12:00-22:00", "operator": "\u0411\u0430\u043b\u0430\u043d\u043e\u0432\u0441\u043a\u0438\u0439 \u0418\u043b\u044c\u044f \u042e\u0440\u044c\u0435\u0432\u0438\u0447", "shop": "e-cigarette", "telegram": "https://t.me/goodvaperu"}}, {"type": "node", "id": 4784526781, "lat": 54.9483248, "lon": 73.3872874, "tags": {"name": "\u041b\u043e\u043c\u0431\u0430\u0440\u0414\u0436\u0438\u043d\u043d\u0438", "shop": "pawnbroker"}}, {"type": "node", "id": 4784526782, "lat": 54.9486319, "lon": 73.387428, "tags": {"beauty": "nails", "name": "\u0413\u0435\u043b\u043b\u0435\u043a", "shop": "beauty"}}, {"type": "node", "id": 4784526783, "lat": 54.9483656, "lon": 73.3866611, "tags": {"addr:housenumber": "54 \u043f\u043e\u043c. 11\u041f", "addr:postcode": "644048", "addr:street": "\u043f\u0440\u043e\u0441\u043f\u0435\u043a\u0442 \u041a\u0430\u0440\u043b\u0430 \u041c\u0430\u0440\u043a\u0441\u0430", "amenity": "pharmacy", "contact:vk": "aptekiplus", "name": "\u0410\u043f\u0442\u0435\u043a\u0430\u041f\u043b\u044e\u0441", "opening_hours": "08:00-21:00", "phone": "+7 3812 95 60 39", "website": "https://aptekiplus.ru"}}, {"type": "node", "id": 4784526784, "lat": 54.9484287, "lon": 73.3866908, "tags": {"name": "\u0415\u0440\u043c\u043e\u043b\u0438\u043d\u043e", "shop": "convenience"}}, {"type": "node", "id": 4784526785, "lat": 54.948088, "lon": 73.3872377, "tags": {"name": "\u0426\u0432\u0435\u0442\u044b \u0432 \u0430\u0440\u043a\u0435", "shop": "florist"}}, {"type": "node", "id": 4784526786, "lat": 54.9473836, "lon": 73.3869822, "tags": {"name": "\u041c\u0435\u0434\u0438\u0446\u0438\u043d\u0441\u043a\u0438\u0439 \u043c\u0430\u0433\u0430\u0437\u0438\u043d", "shop": "medical_supply"}}, {"type": "node", "id": 4786727544, "lat": 54.9493345, "lon": 73.3869368, "tags": {"name": "\u0422\u0430\u043d\u0433\u043e", "shop": "clothes"}}, {"type": "node", "id": 4786727545, "lat": 54.9491939, "lon": 73.3868717, "tags": {"name": "\u0422\u0430\u043d\u0446\u043e\u0440", "shop": "shoes"}}, {"type": "node", "id": 4786727546, "lat": 54.9491447, "lon": 73.3868491, "tags": {"name": "\u0412\u0435\u043b\u043b", "office": "travel_agent"}}, {"type": "node", "id": 4811911812, "lat": 54.9479752, "lon": 73.3863956, "tags": {"amenity": "training", "education": "facultative_school", "education_form:parttime": "yes", "education_level:primary": "yes", "education_profile:art": "yes", "education_profile:visual_art": "yes", "education_system:ru_standard": "yes", "name": "\u0414\u0435\u0442\u0441\u043a\u0430\u044f \u0448\u043a\u043e\u043b\u0430 \u0438\u0441\u043a\u0443\u0441\u0441\u0442\u0432 \u21164", "ref": "4", "training": "art"}}, {"type": "node", "id": 4811911813, "lat": 54.9474061, "lon": 73.3855618, "tags": {"name": "\u041d\u0430 \u0421\u0435\u0440\u043e\u0432\u0430 13", "shop": "mall"}}, {"type": "node", "id": 4811911817, "lat": 54.9474736, "lon": 73.3848598, "tags": {"name": "\u041a\u0440\u0430\u0441\u043d\u043e\u0435 & \u0411\u0435\u043b\u043e\u0435", "shop": "alcohol", "website": "https://krasnoeibeloe.ru/", "wheelchair": "no"}}, {"type": "node", "id": 4811911829, "lat": 54.9468517, "lon": 73.38697, "tags": {"level": "-1", "shop": "convenience"}}, {"type": "node", "id": 4811911830, "lat": 54.9473709, "lon": 73.3859283, "tags": {"clothes": "underwear", "name": "\u0420\u0430\u0434\u043e\u0441\u0442\u044c", "shop": "clothes"}}, {"type": "node", "id": 4811911831, "lat": 54.9476722, "lon": 73.386976, "tags": {"name": "69", "shop": "bicycle"}}, {"type": "node", "id": 4811911832, "lat": 54.9476081, "lon": 73.3869465, "tags": {"name": "Tattoo studio 13", "shop": "tattoo"}}, {"type": "node", "id": 4811911833, "lat": 54.9475197, "lon": 73.3869058, "tags": {"name": "\u041e\u043d \u0438 \u041e\u043d\u0430", "shop": "clothes"}}, {"type": "node", "id": 4994528325, "lat": 54.9460188, "lon": 73.3818442, "tags": {"access": "private", "addr:flats": "1-16", "entrance": "main", "ref": "1"}}, {"type": "node", "id": 4994528326, "lat": 54.9460629, "lon": 73.3815539, "tags": {"access": "private", "addr:flats": "17-32", "entrance": "staircase", "ref": "2"}}, {"type": "node", "id": 4994528327, "lat": 54.9460958, "lon": 73.3813377, "tags": {"access": "private", "addr:flats": "33-48", "entrance": "main", "ref": "3"}}, {"type": "node", "id": 4994528328, "lat": 54.9461386, "lon": 73.3810556, "tags": {"access": "private", "addr:flats": "49-64", "entrance": "staircase", "ref": "4"}}, {"type": "node", "id": 4994528329, "lat": 54.9461735, "lon": 73.3808259, "tags": {"access": "private", "addr:flats": "65-80", "entrance": "staircase", "ref": "5"}}, {"type": "node", "id": 4994528330, "lat": 54.9462185, "lon": 73.3805298, "tags": {"access": "private", "addr:flats": "81-96", "entrance": "staircase", "ref": "6"}}, {"type": "node", "id": 4994528331, "lat": 54.9462526, "lon": 73.3803052, "tags": {"access": "private", "addr:flats": "97-112", "entrance": "main", "ref": "7"}}, {"type": "node", "id": 4994528332, "lat": 54.9462925, "lon": 73.3800424, "tags": {"access": "private", "addr:flats": "113-128", "entrance": "staircase", "ref": "8"}}, {"type": "node", "id": 4994528333, "lat": 54.946172, "lon": 73.3800043, "tags": {"brand:wikidata": "Q940518", "brand:wikipedia": "ru:\u041c\u0430\u0433\u043d\u0438\u0442 (\u0441\u0435\u0442\u044c \u043c\u0430\u0433\u0430\u0437\u0438\u043d\u043e\u0432)", "contact:phone": "+7 800 2009002", "contact:website": "http://magnit-info.ru", "name": "\u041c\u0430\u0433\u043d\u0438\u0442", "name:en": "Magnit", "name:ru": "\u041c\u0430\u0433\u043d\u0438\u0442", "opening_hours": "09:00-22:00", "operator": "\u0410\u041e \u0422\u0430\u043d\u0434\u0435\u0440", "ref": "20612044", "shop": "convenience"}}, {"type": "node", "id": 5054221366, "lat": 54.9475024, "lon": 73.3857138, "tags": {"addr:flats": "71-78", "entrance": "staircase", "ref": "7"}}, {"type": "node", "id": 5054221367, "lat": 54.9475253, "lon": 73.3854736, "tags": {"addr:flats": "63-70", "entrance": "staircase", "ref": "6"}}, {"type": "node", "id": 5054221368, "lat": 54.9475485, "lon": 73.3852305, "tags": {"addr:flats": "55-62", "entrance": "staircase", "ref": "5"}}, {"type": "node", "id": 5054221369, "lat": 54.9476723, "lon": 73.3850096, "tags": {"addr:flats": "31-45", "entrance": "staircase", "ref": "3"}}, {"type": "node", "id": 5054221370, "lat": 54.9478046, "lon": 73.3850217, "tags": {"addr:flats": "16-30", "entrance": "staircase", "ref": "2"}}, {"type": "node", "id": 5054221371, "lat": 54.9479342, "lon": 73.3850335, "tags": {"addr:flats": "1-15", "entrance": "staircase", "ref": "1"}}, {"type": "node", "id": 5330033055, "lat": 54.9475702, "lon": 73.3869291, "tags": {"name": "Ascalini", "shop": "shoes"}}, {"type": "node", "id": 5350854856, "lat": 54.9460894, "lon": 73.380548, "tags": {"name": "\u0420\u0430\u0441\u0441\u0432\u0435\u0442", "shop": "convenience"}}, {"type": "node", "id": 5350854857, "lat": 54.9459441, "lon": 73.3815049, "tags": {"name": "\u0412\u0430\u043d\u0438\u043b\u044c", "shop": "hairdresser"}}, {"type": "node", "id": 5350854859, "lat": 54.9461491, "lon": 73.3801547, "tags": {"email": "omskbeer@mail.ru", "name": "\u0411\u0438\u0440\u0445\u0430\u0443\u0441", "name:en": "BEERhouse", "shop": "beverages", "website": "https://bh55.ru/"}}, {"type": "node", "id": 5451304832, "lat": 54.948254, "lon": 73.3872549, "tags": {"contact:email": "astigma55@mail.ru", "contact:phone": "+7 908 8091710", "name": "\u0410\u0441\u0442\u0438\u0433\u043c\u0430\u0442\u0438\u043a\u0430", "opening_hours": "Mo-Sa 10:00-19:00", "operator": "\u041b\u0443\u043a\u0430\u043d\u0438\u043d \u0410.\u0410.", "shop": "optician"}}, {"type": "node", "id": 5451304833, "lat": 54.9481478, "lon": 73.3865244, "tags": {"clothes": "children", "name": "\u0414\u0435\u0442\u043a\u0438", "shop": "clothes"}}, {"type": "node", "id": 5451304835, "lat": 54.9474509, "lon": 73.3850958, "tags": {"shop": "hairdresser"}}, {"type": "node", "id": 5451304836, "lat": 54.9474591, "lon": 73.385011, "tags": {"name": "\u041e\u043b\u0430 \u0442\u0443\u0440", "shop": "travel_agency"}}, {"type": "node", "id": 5451304837, "lat": 54.947548, "lon": 73.384795, "tags": {"shop": "convenience"}}, {"type": "node", "id": 6341563576, "lat": 54.9479143, "lon": 73.3862204}, {"type": "node", "id": 6341563579, "lat": 54.9479606, "lon": 73.3850359}, {"type": "node", "id": 7710806901, "lat": 54.9495908, "lon": 73.3880182, "tags": {"name": "\u0411\u0438\u0440\u0445\u0430\u0443\u0441", "shop": "beverages"}}, {"type": "node", "id": 7710806903, "lat": 54.9489401, "lon": 73.3867545, "tags": {"contact:email": "order@onlinetrade.ru", "contact:phone": "+7 381 2207236", "contact:website": "https://www.onlinetrade.ru/", "name": "\u041e\u043d\u043b\u0430\u0439\u043d \u0422\u0440\u0435\u0439\u0434", "name:en": "Online Trade", "name:ru": "\u041e\u043d\u043b\u0430\u0439\u043d \u0422\u0440\u0435\u0439\u0434", "opening_hours": "Mo-Su 10:00-20:00", "shop": "outpost"}}, {"type": "node", "id": 7710806904, "lat": 54.9490233, "lon": 73.386793, "tags": {"name": "\u0428\u043f\u0438\u043b'\u043a\u0430", "shop": "hairdresser"}}, {"type": "node", "id": 7710806906, "lat": 54.9497105, "lon": 73.3880426, "tags": {"name": "Hairurg", "shop": "hairdresser"}}, {"type": "node", "id": 7710806907, "lat": 54.9494306, "lon": 73.3882849, "tags": {"name": "3 \u0444\u0430\u0437\u044b", "shop": "electrical"}}, {"type": "way", "id": 31645156, "nodes": [353919218, 5350854857, 5350854856, 5350854859, 4994528333, 353919220, 353919221, 4994528332, 4994528331, 4994528330, 4994528329, 4994528328, 4994528327, 4994528326, 4994528325, 353919223, 353919218], "tags": {"addr:housenumber": "5", "addr:street": "\u0443\u043b\u0438\u0446\u0430 \u0424\u0451\u0434\u043e\u0440\u0430 \u041a\u0440\u044b\u043b\u043e\u0432\u0430", "building": "apartments", "building:levels": "5"}}, {"type": "way", "id": 40723917, "nodes": [494771676, 494771679, 3383931763, 3383931761, 3383931757, 3383931751, 494771678, 494771677, 494771676], "tags": {"addr:housenumber": "11", "addr:postcode": "644048", "addr:street": "\u0443\u043b\u0438\u0446\u0430 \u0421\u0435\u0440\u043e\u0432\u0430", "building": "apartments", "building:levels": "3"}}, {"type": "way", "id": 40723918, "nodes": [1109019636, 4160633654, 494771682, 4159655000, 1487221264, 4811911830, 4811911813, 5451304835, 5451304836, 4811911817, 494771681, 5451304837, 494771680, 494771683, 6341563579, 5054221371, 5054221370, 5054221369, 494771684, 5054221368, 5054221367, 5054221366, 494771685, 1109019774, 6341563576, 494771687, 4811911812, 494771686, 3459222729, 1109019636], "tags": {"addr:housenumber": "13", "addr:postcode": "644020", "addr:street": "\u0443\u043b\u0438\u0446\u0430 \u0421\u0435\u0440\u043e\u0432\u0430", "building": "apartments", "building:levels": "5"}}, {"type": "way", "id": 40723919, "nodes": [1968009062, 4160633660, 4160633661, 1968009046, 1968009059, 4160633663, 5451304833, 494771689, 494771690, 494771695, 494771694, 494771693, 1027795016]}, {"type": "way", "id": 40723920, "nodes": [494771696, 4160633648, 494771699, 4160633634, 4786727544, 4160633652, 4786727545, 4786727546, 4160633651, 7710806904, 7710806903, 494771698, 494771697, 494771696], "tags": {"addr:housenumber": "52", "addr:street": "\u043f\u0440\u043e\u0441\u043f\u0435\u043a\u0442 \u041a\u0430\u0440\u043b\u0430 \u041c\u0430\u0440\u043a\u0441\u0430", "building": "apartments", "building:levels": "5"}}, {"type": "way", "id": 40723923, "nodes": [494771708, 4751207573, 494771711, 494771710, 4784526785, 494771709, 4758372784, 5451304832, 4784526781, 4758372783, 1487221160, 4784526782, 494771708], "tags": {"addr:housenumber": "67", "addr:street": "\u043f\u0440\u043e\u0441\u043f\u0435\u043a\u0442 \u041a\u0430\u0440\u043b\u0430 \u041c\u0430\u0440\u043a\u0441\u0430", "building": "apartments", "building:levels": "5"}}, {"type": "way", "id": 40723925, "nodes": [494771716, 494771719, 494771718, 494771721, 494771717, 4160633687, 4811911833, 5330033055, 4811911832, 4811911831, 4160633640, 4160633650, 4160633655, 494771716], "tags": {"addr:housenumber": "69", "addr:street": "\u043f\u0440\u043e\u0441\u043f\u0435\u043a\u0442 \u041a\u0430\u0440\u043b\u0430 \u041c\u0430\u0440\u043a\u0441\u0430", "building": "apartments", "building:levels": "5"}}, {"type": "way", "id": 40723926, "nodes": [494771720, 494771723, 4159655007, 4160633644, 494771722, 4784526786, 494771721, 494771718, 494771720], "tags": {"addr:housenumber": "71", "addr:street": "\u043f\u0440\u043e\u0441\u043f\u0435\u043a\u0442 \u041a\u0430\u0440\u043b\u0430 \u041c\u0430\u0440\u043a\u0441\u0430", "building": "apartments"}}, {"type": "way", "id": 54356447, "nodes": [685042653, 4159655080, 4159655079, 4758372802, 4616273575, 685042654, 685042647, 4811911829, 4159655004, 685042652, 685042653], "tags": {"addr:housenumber": "73", "addr:street": "\u043f\u0440\u043e\u0441\u043f\u0435\u043a\u0442 \u041a\u0430\u0440\u043b\u0430 \u041c\u0430\u0440\u043a\u0441\u0430", "building": "apartments", "building:levels": "5"}}, {"type": "way", "id": 54356449, "nodes": [685042646, 4159654999, 4159654992, 4159655011, 4159654991, 685042645, 685042644, 685042643, 685042646], "tags": {"addr:housenumber": "75", "addr:postcode": "644020", "addr:street": "\u043f\u0440\u043e\u0441\u043f\u0435\u043a\u0442 \u041a\u0430\u0440\u043b\u0430 \u041c\u0430\u0440\u043a\u0441\u0430", "building": "apartments", "building:levels": "5"}}, {"type": "way", "id": 58217747, "nodes": [722122369, 722122556, 722122188, 722122380, 722122369], "tags": {"addr:housenumber": "77", "addr:street": "\u043f\u0440\u043e\u0441\u043f\u0435\u043a\u0442 \u041a\u0430\u0440\u043b\u0430 \u041c\u0430\u0440\u043a\u0441\u0430", "building": "apartments", "building:levels": "5"}}, {"type": "way", "id": 88479100, "nodes": [1027794470, 1027794326, 1027794533, 1027794253, 1027793611, 7710806907, 4751207572, 4758372805, 1027795035, 4160633631, 7710806901, 4160633635, 7710806906, 1027794470], "tags": {"addr:housenumber": "61/1", "addr:street": "\u043f\u0440\u043e\u0441\u043f\u0435\u043a\u0442 \u041a\u0430\u0440\u043b\u0430 \u041c\u0430\u0440\u043a\u0441\u0430", "building": "apartments", "building:levels": "8"}}, {"type": "way", "id": 414932356, "nodes": [1027795016, 1968009097, 4160633637, 1027793637, 4784526784, 4784526783, 1968009062]}, {"type": "relation", "id": 6184854, "members": [{"type": "way", "ref": 40723919, "role": "outer"}, {"type": "way", "ref": 414932356, "role": "outer"}], "tags": {"addr:housenumber": "54", "addr:postcode": "644048", "addr:street": "\u043f\u0440\u043e\u0441\u043f\u0435\u043a\u0442 \u041a\u0430\u0440\u043b\u0430 \u041c\u0430\u0440\u043a\u0441\u0430", "building": "apartments", "building:levels": "9", "building:parts": "horizontal", "type": "multipolygon"}}]}