{"version": 0.6, "generator": "Overpass API 0.7.62.1 084b4234", "osm3s": {"timestamp_osm_base": "2024-05-14T14:33:19Z", "copyright": "The data included in this document is from www.openstreetmap.org. The data is made available under ODbL."}, "elements": [{"type": "node", "id": 5038421426, "lat": 56.0505871, "lon": 92.9038104, "tags": {"air_conditioning": "no", "alt_name": "Kentucky Fried Chicken", "amenity": "fast_food", "brand": "KFC", "brand:wikidata": "Q524757", "brand:wikipedia": "en:KFC", "cuisine": "chicken", "diet:halal": "no", "diet:kosher": "no", "diet:vegetarian": "no", "indoor_seating": "yes", "level": "1", "name": "KFC", "opening_hours": "PH,Mo-Su 10:00-22:00", "outdoor_seating": "no", "payment:credit_cards": "yes", "payment:debit_cards": "yes", "smoking": "no", "takeaway": "yes", "wheelchair": "yes"}}, {"type": "node", "id": 7832285755, "lat": 56.0502853, "lon": 92.9040974, "tags": {"air_conditioning": "no", "amenity": "fast_food", "brand": "Cinnabon", "brand:wikidata": "Q1092539", "check_date:opening_hours": "2022-03-29", "contact:email": "3533@cinnabon.me", "contact:facebook": "https://www.facebook.com/cinnabon.russia", "contact:instagram": "https://instagram.com/cinnabon_russia", "contact:phone": "+7 913 5926568", "contact:vk": "https://vk.com/cinnabon_rus", "contact:website": "https://cinnabonrussia.com/", "cuisine": "dessert", "diet:halal": "no", "diet:kosher": "no", "indoor_seating": "yes", "level": "1", "name": "Cinnabon", "opening_hours": "Mo-Su 10:00-22:00", "operator": "\u041c\u043a\u0440\u0442\u0447\u044f\u043d \u0415\u043b\u0435\u043d\u0430 \u041f\u0435\u0442\u0440\u043e\u0432\u043d\u0430", "outdoor_seating": "no", "payment:credit_cards": "yes", "payment:debit_cards": "yes", "smoking": "no", "takeaway": "yes", "wheelchair": "yes"}}, {"type": "node", "id": 11007217730, "lat": 56.0513433, "lon": 92.9057282, "tags": {"amenity": "fast_food", "contact:phone": "+7 913 8360297", "contact:website": "https://www.vitajuice.ru/", "cuisine": "juice", "indoor_seating": "no", "name": "Vita Juice", "opening_hours": "Mo-Sa 10:00-22:00; Su 10:00-21:30", "outdoor_seating": "no", "takeaway": "only"}}, {"type": "node", "id": 11007217731, "lat": 56.0513134, "lon": 92.9057175, "tags": {"amenity": "fast_food", "contact:phone": "+7 800 2509203;+7 913 8360296;+7 917 3935409", "contact:website": "https://www.vitajuice.ru/", "cuisine": "juice", "indoor_seating": "no", "name": "Vita Juice", "opening_hours": "Mo-Sa 10:00-22:00; Su 10:00-21:30", "outdoor_seating": "no", "takeaway": "only"}}, {"type": "node", "id": 11086055004, "lat": 56.0503242, "lon": 92.9032791, "tags": {"amenity": "fast_food", "brand": "Subway", "brand:wikidata": "Q244457", "cuisine": "sandwich", "name": "Subway", "takeaway": "yes"}}, {"type": "node", "id": 11438527505, "lat": 56.0505448, "lon": 92.9038835, "tags": {"amenity": "fast_food", "contact:email": "juice07@bk.ru", "contact:phone": "+7 917 8849312", "contact:website": "https://empizza.su/", "cuisine": "pizza", "name": "Empizza", "opening_hours": "Mo-Su 10:00-22:00"}}]}