{"version": 0.6, "generator": "Overpass API 0.7.62.1 084b4234", "osm3s": {"timestamp_osm_base": "2024-05-17T19:34:00Z", "copyright": "The data included in this document is from www.openstreetmap.org. The data is made available under ODbL."}, "elements": [{"type": "node", "id": 806509586, "lat": 59.9344236, "lon": 30.3137505, "tags": {"amenity": "cafe", "brand": "\u0421\u0435\u0432\u0435\u0440", "brand:wikidata": "Q4411982", "check_date": "2023-07-03", "contact:facebook": "https://www.facebook.com/sever.metropol.official", "contact:instagram": "https://www.instagram.com/sever_metropol/", "contact:phone": "+7 812 6151182", "contact:vk": "https://vk.com/sever.metropol.official", "contact:website": "https://sever-metropol.ru", "cuisine": "cake;coffee_shop", "email": "info@sf-sm.ru", "name": "\u0421\u0435\u0432\u0435\u0440-\u041c\u0435\u0442\u0440\u043e\u043f\u043e\u043b\u044c", "name:en": "Sever-Metropol", "name:ru": "\u0421\u0435\u0432\u0435\u0440-\u041c\u0435\u0442\u0440\u043e\u043f\u043e\u043b\u044c", "opening_hours": "Mo-Fr 08:00-21:00; Sa-Su 09:00-21:00", "shop": "pastry"}}, {"type": "node", "id": 1600285644, "lat": 59.9339235, "lon": 30.3133277, "tags": {"amenity": "cafe", "check_date": "2023-11-23", "name": "Gar\u00e7on", "opening_hours": "09:00-21:00"}}, {"type": "node", "id": 2407126698, "lat": 59.9346343, "lon": 30.3126363, "tags": {"amenity": "cafe", "check_date": "2022-10-26", "contact:vk": "https://vk.com/coffeeroomspb", "indoor_seating": "yes", "name": "\u0421offee Room Street", "opening_hours": "Mo-Th,Su 09:00-21:00; Fr-Sa 09:00-22:00", "operator": "\u041a\u044d\u043d\u0434\u0438", "outdoor_seating": "no", "payment:cash": "yes", "payment:maestro": "yes", "payment:mastercard": "yes", "payment:visa": "yes", "payment:visa_electron": "yes", "phone": "+7 981 9842000", "takeaway": "yes", "website": "https://www.coffeeroomspb.com/", "wheelchair": "no"}}, {"type": "node", "id": 4810638071, "lat": 59.9335029, "lon": 30.3112844, "tags": {"amenity": "cafe", "check_date": "2023-07-03", "contact:facebook": "konditerskayaspb", "contact:instagram": "konditerskaya1", "contact:vk": "citycakes", "contact:website": "https://www.konditer1.ru/", "cuisine": "coffee_shop;cake;pastry", "delivery": "yes", "name": "\u0413\u043e\u0440\u043e\u0434\u0441\u043a\u0438\u0435 \u043a\u043e\u043d\u0434\u0438\u0442\u0435\u0440\u0441\u043a\u0438\u0435 \u21161", "name:ru": "\u0413\u043e\u0440\u043e\u0434\u0441\u043a\u0438\u0435 \u043a\u043e\u043d\u0434\u0438\u0442\u0435\u0440\u0441\u043a\u0438\u0435 \u21161", "opening_hours": "08:30-22:00", "payment:cash": "yes", "payment:maestro": "yes", "payment:mastercard": "yes", "payment:visa": "yes", "payment:visa_electron": "yes", "phone": "+7 812 6777651", "shop": "pastry", "takeaway": "yes", "wheelchair": "no"}}, {"type": "node", "id": 7807030300, "lat": 59.9345201, "lon": 30.3140134, "tags": {"amenity": "cafe", "check_date": "2023-07-03", "contact:vk": "https://vk.com/chocobar", "name": "Chocolate Bar", "website": "https://www.\u0448\u043e\u043a\u043e\u043b\u0430\u0434\u043d\u044b\u0439\u0431\u0430\u0440.\u0440\u0444/"}}]}