{"version": 0.6, "generator": "Overpass API 0.7.62.1 084b4234", "osm3s": {"timestamp_osm_base": "2024-05-16T17:46:02Z", "copyright": "The data included in this document is from www.openstreetmap.org. The data is made available under ODbL."}, "elements": [{"type": "node", "id": 567869648, "lat": 55.7809098, "lon": 37.6668076, "tags": {"amenity": "bank", "atm": "yes", "bic": "VTBRRUMM", "branch": "\u0414\u041e \u00ab\u041a\u0440\u0430\u0441\u043d\u043e\u0441\u0435\u043b\u044c\u0441\u043a\u0438\u0439\u00bb", "brand": "\u0412\u0422\u0411", "brand:en": "VTB Bank", "brand:wikidata": "Q1549389", "brand:wikipedia": "en:VTB Bank", "contact:facebook": "https://www.facebook.com/VTB.BankofMoscow", "contact:instagram": "https://www.instagram.com/bankvtb", "contact:ok": "https://ok.ru/vtb", "contact:phone": "+7 800 1002424", "contact:twitter": "https://twitter.com/VTB_BM", "contact:vk": "https://vk.com/vtb_bm", "contact:website": "https://www.vtb.ru/o-banke/kontakty/otdeleniya/moscow/krasnoselskij/", "contact:youtube": "https://www.youtube.com/vtbgroup", "name": "\u0412\u0422\u0411", "name:en": "VTB Bank", "opening_hours": "Mo-Fr 09:00-20:00; Sa 10:00-17:00"}}, {"type": "node", "id": 4363321029, "lat": 55.7800697, "lon": 37.6683488, "tags": {"amenity": "bank", "brand": "\u0420\u043e\u0441\u0441\u0435\u043b\u044c\u0445\u043e\u0437\u0431\u0430\u043d\u043a", "brand:en": "Rosselkhozbank", "brand:ru": "\u0420\u043e\u0441\u0441\u0435\u043b\u044c\u0445\u043e\u0437\u0431\u0430\u043d\u043a", "brand:wikidata": "Q3920226", "brand:wikipedia": "en:Russian Agricultural Bank", "name": "\u0420\u043e\u0441\u0441\u0435\u043b\u044c\u0445\u043e\u0437\u0431\u0430\u043d\u043a", "name:en": "Rosselkhozbank", "name:ru": "\u0420\u043e\u0441\u0441\u0435\u043b\u044c\u0445\u043e\u0437\u0431\u0430\u043d\u043a", "phone": "+7 800 2000290", "website": "https://rshb.ru/"}}]}