{"version": 0.6, "generator": "Overpass API 0.7.62.1 084b4234", "osm3s": {"timestamp_osm_base": "2024-05-13T22:13:14Z", "copyright": "The data included in this document is from www.openstreetmap.org. The data is made available under ODbL."}, "elements": [{"type": "node", "id": 2750059276, "lat": 55.7802798, "lon": 49.2134043, "tags": {"amenity": "fast_food", "brand": "\u0412\u043a\u0443\u0441\u043d\u043e \u2014 \u0438 \u0442\u043e\u0447\u043a\u0430", "brand:en": "Vkusno i tochka", "brand:ru": "\u0412\u043a\u0443\u0441\u043d\u043e \u2014 \u0438 \u0442\u043e\u0447\u043a\u0430", "brand:wikidata": "Q112406961", "brand:wikipedia": "en:McDonald's", "check_date": "2023-09-11", "cuisine": "burger", "level": "0", "name": "\u0412\u043a\u0443\u0441\u043d\u043e \u2014 \u0438 \u0442\u043e\u0447\u043a\u0430", "name:en": "Vkusno i tochka", "name:ru": "\u0412\u043a\u0443\u0441\u043d\u043e \u2014 \u0438 \u0442\u043e\u0447\u043a\u0430", "opening_hours": "09:00-22:00", "operator": "\u041e\u041e\u041e \"\u0421\u041f\u041f\"", "takeaway": "yes", "wheelchair": "yes"}}, {"type": "node", "id": 2767063118, "lat": 55.7805578, "lon": 49.2127891, "tags": {"amenity": "fast_food", "check_date": "2023-09-11", "level": "0", "name": "\u0411\u043b\u0438\u043d\u0431\u0435\u0440\u0438", "wheelchair": "yes"}}, {"type": "node", "id": 2777544743, "lat": 55.7808135, "lon": 49.2133842, "tags": {"amenity": "fast_food", "brand": "\u0411\u0443\u0440\u0433\u0435\u0440 \u041a\u0438\u043d\u0433", "brand:en": "Burger King", "brand:ru": "\u0411\u0443\u0440\u0433\u0435\u0440 \u041a\u0438\u043d\u0433", "brand:wikidata": "Q177054", "brand:wikipedia": "en:Burger King", "check_date": "2023-09-11", "contact:email": "FeedBack@burgerking.ru", "contact:phone": "+7 495 5445000", "contact:website": "https://burgerkingrus.ru/", "cuisine": "burger", "internet_access": "wlan", "internet_access:fee": "no", "level": "0", "name": "\u0411\u0443\u0440\u0433\u0435\u0440 \u041a\u0438\u043d\u0433", "name:en": "Burger King", "name:ru": "\u0411\u0443\u0440\u0433\u0435\u0440 \u041a\u0438\u043d\u0433", "opening_hours": "Mo-Su 08:55-21:55", "operator": "\u0411\u0423\u0420\u0413\u0415\u0420 \u0420\u0423\u0421", "operator:phone": "+7 495 5445000", "ref": "260", "takeaway": "yes", "wheelchair": "yes"}}, {"type": "node", "id": 5551781022, "lat": 55.7807292, "lon": 49.213379, "tags": {"amenity": "fast_food", "brand": "\u0414\u043e\u0434\u043e \u041f\u0438\u0446\u0446\u0430", "brand:en": "Dodo Pizza", "brand:ru": "\u0414\u043e\u0434\u043e \u041f\u0438\u0446\u0446\u0430", "brand:wikidata": "Q61949318", "brand:wikipedia": "ru:\u0414\u043e\u0434\u043e \u041f\u0438\u0446\u0446\u0430", "check_date": "2023-09-11", "cuisine": "pizza", "email": "dodo.kzn.3@gmail.com", "internet_access": "wlan", "level": "0", "name": "\u0414\u043e\u0434\u043e \u041f\u0438\u0446\u0446\u0430", "name:en": "Dodo Pizza", "name:ru": "\u0414\u043e\u0434\u043e \u041f\u0438\u0446\u0446\u0430", "opening_hours": "Mo-Su 09:00-22:00", "phone": "+7 917 2808677", "takeaway": "yes", "website": "https://dodopizza.ru/"}}, {"type": "node", "id": 8897472702, "lat": 55.7808538, "lon": 49.2128732, "tags": {"alt_name": "Kentucky Fried Chicken", "amenity": "fast_food", "brand": "KFC", "brand:wikidata": "Q524757", "brand:wikipedia": "en:KFC", "check_date": "2023-09-11", "contact:email": "yum-press@spncomms.com", "contact:facebook": "https://www.facebook.com/kfcrussia", "contact:instagram": "https://www.instagram.com/kfcrussia", "contact:ok": "https://ok.ru/kfcrussia", "contact:phone": "+7 800 5558333", "contact:tumblr": "https://kfcrussia.tumblr.com", "contact:twitter": "https://twitter.com/kfcrussia", "contact:vk": "https://vk.com/kfcrussia", "contact:website": "https://www.kfc.ru", "contact:youtube": "https://www.youtube.com/KFCRussia", "cuisine": "chicken", "diet:vegetarian": "no", "level": "0", "name": "KFC", "name:en": "KFC", "opening_hours": "09:00-22:00", "takeaway": "yes"}}, {"type": "node", "id": 9504212812, "lat": 55.780395, "lon": 49.213529, "tags": {"amenity": "fast_food", "check_date": "2023-09-11", "contact:email": "support@vitajuice.ru", "contact:phone": "+7 843 2584151", "contact:website": "https://kzn.farshburger.ru/", "cuisine": "burger", "level": "1", "name": "Far\u0448", "opening_hours": "Mo-Su 10:00-22:00", "operator": "\u041e\u041e\u041e \"\u0424\u0430\u0440\u0448 \u041f\u043e\u0432\u043e\u043b\u0436\u044c\u0435\"", "wheelchair": "yes"}}, {"type": "node", "id": 11067248455, "lat": 55.7806856, "lon": 49.2126677, "tags": {"amenity": "fast_food", "check_date": "2023-09-11", "contact:email": "support@vitajuice.ru", "contact:phone": "+7 908 6320078", "contact:website": "https://\u043f\u043b\u043e\u0432-\u0431\u0435\u0440\u0438.\u0440\u0444", "level": "0", "name": "\u041f\u043b\u043e\u0432\u0411\u0435\u0440\u0438", "opening_hours": "Mo-Su 10:00-21:00"}}, {"type": "node", "id": 11083637384, "lat": 55.7802823, "lon": 49.2127499, "tags": {"amenity": "fast_food", "check_date": "2024-04-14", "contact:email": "info@chopho.ru", "contact:phone": "+7 800 6000036;+7 965 6000636", "contact:website": "https://delivery.chopho.ru/", "level": "0", "name": "Cho", "opening_hours": "Mo-Su 10:00-22:00"}}, {"type": "node", "id": 11183870676, "lat": 55.7803486, "lon": 49.2127766, "tags": {"amenity": "fast_food", "check_date": "2024-04-14", "level": "0", "name": "\u041b\u0435\u043f\u0438\u043c \u0438 \u0432\u0430\u0440\u0438\u043c", "opening_hours": "09:00-22:00"}}, {"type": "node", "id": 11183870677, "lat": 55.7806517, "lon": 49.2129122, "tags": {"amenity": "fast_food", "check_date": "2023-09-11", "level": "0", "name": "Sofra kebab", "opening_hours": "09:00-22:00"}}, {"type": "node", "id": 11183870697, "lat": 55.7804153, "lon": 49.2133715, "tags": {"amenity": "fast_food", "brand": "Subway", "brand:wikidata": "Q244457", "check_date": "2023-09-11", "cuisine": "sandwich", "level": "0", "name": "Subway", "opening_hours": "09:00-22:00", "takeaway": "yes"}}, {"type": "node", "id": 11183870698, "lat": 55.7805158, "lon": 49.2133768, "tags": {"amenity": "fast_food", "check_date": "2023-09-11", "cuisine": "sushi", "level": "0", "name": "\u0421\u0443\u0448\u0438 \u043c\u0430\u0440\u043a\u0435\u0442", "opening_hours": "09:00-22:00"}}]}