{"version": 0.6, "generator": "Overpass API 0.7.62.1 084b4234", "osm3s": {"timestamp_osm_base": "2024-05-14T11:10:45Z", "copyright": "The data included in this document is from www.openstreetmap.org. The data is made available under ODbL."}, "elements": [{"type": "node", "id": 1083656741, "lat": 54.513521, "lon": 36.2704698}, {"type": "node", "id": 1918453760, "lat": 54.5134403, "lon": 36.2706047}, {"type": "node", "id": 1918453761, "lat": 54.5134578, "lon": 36.2704483}, {"type": "node", "id": 1918453766, "lat": 54.5135298, "lon": 36.270393}, {"type": "node", "id": 1918453767, "lat": 54.5135413, "lon": 36.2706384}, {"type": "node", "id": 1918453770, "lat": 54.5135675, "lon": 36.2704056}, {"type": "node", "id": 3176130936, "lat": 54.5129511, "lon": 36.2711674, "tags": {"amenity": "bank", "contact:fax": "+7 4842 591052", "contact:phone": "+7 4842 591051;+7 4842 591916", "contact:website": "http://www.forabank.ru/", "name": "\u0424\u043e\u0440\u0430-\u0411\u0430\u043d\u043a", "opening_hours": "Mo-Fr 09:00-21:00; Sa 09:00-18:00", "operator": "\u0410\u041a\u0411 \u0417\u0410\u041e \u00ab\u0424\u041e\u0420\u0410-\u0411\u0410\u041d\u041a\u00bb", "ref": "6", "url": "http://klg.forabank.ru/contacts/offices/item22"}}, {"type": "node", "id": 3787150542, "lat": 54.5131351, "lon": 36.2696993, "tags": {"amenity": "bank", "brand": "\u0410\u043b\u044c\u0444\u0430-\u0411\u0430\u043d\u043a", "brand:en": "Alfa-Bank", "brand:ru": "\u0410\u043b\u044c\u0444\u0430-\u0411\u0430\u043d\u043a", "brand:wikidata": "Q1377835", "brand:wikipedia": "ru:\u0410\u043b\u044c\u0444\u0430-\u0431\u0430\u043d\u043a", "contact:phone": "+7 495 7888878", "contact:website": "https://alfabank.ru", "name": "\u0410\u043b\u044c\u0444\u0430-\u0411\u0430\u043d\u043a", "name:en": "Alfa-Bank", "name:ru": "\u0410\u043b\u044c\u0444\u0430-\u0411\u0430\u043d\u043a", "opening_hours": "Mo-Fr 09:00-20:00; Sa 09:00-18:00; Su off", "operator": "\u0410\u041e \"\u0410\u043b\u044c\u0444\u0430-\u0411\u0430\u043d\u043a\"", "ref": "0672"}}, {"type": "way", "id": 181416909, "nodes": [1918453767, 1918453760, 1918453761, 1083656741, 1918453766, 1918453770, 1918453767], "tags": {"addr:housenumber": "59", "addr:street": "\u0443\u043b\u0438\u0446\u0430 \u041a\u0438\u0440\u043e\u0432\u0430", "amenity": "bank", "building": "yes", "building:levels": "9", "name": "\u0421\u0432\u044f\u0437\u044c\u0431\u0430\u043d\u043a"}}]}