{"version": 0.6, "generator": "Overpass API 0.7.62.1 084b4234", "osm3s": {"timestamp_osm_base": "2024-05-18T00:13:05Z", "copyright": "The data included in this document is from www.openstreetmap.org. The data is made available under ODbL."}, "elements": [{"type": "node", "id": 250474837, "lat": 53.2443422, "lon": 50.2296777}, {"type": "node", "id": 250474839, "lat": 53.2444149, "lon": 50.2298339}, {"type": "node", "id": 250474841, "lat": 53.2445712, "lon": 50.2295117}, {"type": "node", "id": 250474843, "lat": 53.24438, "lon": 50.2297583}, {"type": "node", "id": 250474845, "lat": 53.2444533, "lon": 50.229917}, {"type": "node", "id": 250474847, "lat": 53.2446445, "lon": 50.2296705}, {"type": "node", "id": 250474848, "lat": 53.2441773, "lon": 50.2302539}, {"type": "node", "id": 250474850, "lat": 53.2440111, "lon": 50.2298881}, {"type": "node", "id": 250474852, "lat": 53.2441402, "lon": 50.2297243}, {"type": "node", "id": 250474854, "lat": 53.2443064, "lon": 50.23009}, {"type": "node", "id": 250479263, "lat": 53.2433732, "lon": 50.2284261}, {"type": "node", "id": 250479265, "lat": 53.2428909, "lon": 50.2273346}, {"type": "node", "id": 250479267, "lat": 53.2429855, "lon": 50.227218}, {"type": "node", "id": 250479269, "lat": 53.2434678, "lon": 50.2283095}, {"type": "node", "id": 250972234, "lat": 53.2443867, "lon": 50.2334583}, {"type": "node", "id": 250978727, "lat": 53.2425921, "lon": 50.2308098}, {"type": "node", "id": 250978728, "lat": 53.2426849, "lon": 50.2306911}, {"type": "node", "id": 250978729, "lat": 53.2421961, "lon": 50.2296236}, {"type": "node", "id": 250978730, "lat": 53.2421032, "lon": 50.2297423}, {"type": "node", "id": 250978731, "lat": 53.2415444, "lon": 50.2287752}, {"type": "node", "id": 250978732, "lat": 53.2419407, "lon": 50.2299564}, {"type": "node", "id": 250978733, "lat": 53.2414518, "lon": 50.2288943}, {"type": "node", "id": 250978734, "lat": 53.2420334, "lon": 50.2298373}, {"type": "node", "id": 250978735, "lat": 53.2421351, "lon": 50.2313842}, {"type": "node", "id": 250978736, "lat": 53.2417536, "lon": 50.2305363}, {"type": "node", "id": 250978737, "lat": 53.2416709, "lon": 50.2306403}, {"type": "node", "id": 250978738, "lat": 53.2420523, "lon": 50.2314882}, {"type": "node", "id": 250978739, "lat": 53.2416565, "lon": 50.230328}, {"type": "node", "id": 250978740, "lat": 53.2415737, "lon": 50.230432}, {"type": "node", "id": 250978741, "lat": 53.2411923, "lon": 50.2295841}, {"type": "node", "id": 250978742, "lat": 53.2412751, "lon": 50.2294801}, {"type": "node", "id": 250978743, "lat": 53.2414518, "lon": 50.2309151}, {"type": "node", "id": 250978744, "lat": 53.2418332, "lon": 50.231763}, {"type": "node", "id": 250978745, "lat": 53.2413689, "lon": 50.2310192}, {"type": "node", "id": 250978746, "lat": 53.2417503, "lon": 50.2318671}, {"type": "node", "id": 250978747, "lat": 53.2409723, "lon": 50.2298726}, {"type": "node", "id": 250978748, "lat": 53.2408894, "lon": 50.2299767}, {"type": "node", "id": 250978749, "lat": 53.2412708, "lon": 50.2308246}, {"type": "node", "id": 250978750, "lat": 53.2413537, "lon": 50.2307205}, {"type": "node", "id": 250978753, "lat": 53.2405927, "lon": 50.2303633}, {"type": "node", "id": 250978756, "lat": 53.2409741, "lon": 50.2312111}, {"type": "node", "id": 250978759, "lat": 53.2406754, "lon": 50.2302593}, {"type": "node", "id": 250978762, "lat": 53.2410569, "lon": 50.2311072}, {"type": "node", "id": 250978776, "lat": 53.2407818, "lon": 50.2331158}, {"type": "node", "id": 250978787, "lat": 53.2403175, "lon": 50.232372}, {"type": "node", "id": 250978796, "lat": 53.240699, "lon": 50.2332199}, {"type": "node", "id": 250978806, "lat": 53.2404003, "lon": 50.232268}, {"type": "node", "id": 250978807, "lat": 53.2412208, "lon": 50.2287469}, {"type": "node", "id": 250978808, "lat": 53.2412882, "lon": 50.2288987}, {"type": "node", "id": 250978811, "lat": 53.2440102, "lon": 50.2330984}, {"type": "node", "id": 250978812, "lat": 53.2439208, "lon": 50.2332123}, {"type": "node", "id": 250978813, "lat": 53.2436775, "lon": 50.2326792}, {"type": "node", "id": 250978814, "lat": 53.2437669, "lon": 50.2325653}, {"type": "node", "id": 250978815, "lat": 53.2441434, "lon": 50.2329217}, {"type": "node", "id": 250978816, "lat": 53.2444793, "lon": 50.2333402}, {"type": "node", "id": 250978817, "lat": 53.2442359, "lon": 50.2328043}, {"type": "node", "id": 250978818, "lat": 53.2435076, "lon": 50.2331697}, {"type": "node", "id": 250978819, "lat": 53.2435786, "lon": 50.233322}, {"type": "node", "id": 250978820, "lat": 53.243393, "lon": 50.2335636}, {"type": "node", "id": 250978821, "lat": 53.2434218, "lon": 50.2336254}, {"type": "node", "id": 250978822, "lat": 53.2432256, "lon": 50.2338809}, {"type": "node", "id": 250978823, "lat": 53.2432538, "lon": 50.2339413}, {"type": "node", "id": 250978824, "lat": 53.243061, "lon": 50.2341925}, {"type": "node", "id": 250978825, "lat": 53.2430913, "lon": 50.2342574}, {"type": "node", "id": 250978826, "lat": 53.2428925, "lon": 50.2345164}, {"type": "node", "id": 250978827, "lat": 53.2427341, "lon": 50.234142}, {"type": "node", "id": 250978828, "lat": 53.2430175, "lon": 50.2341057}, {"type": "node", "id": 250978829, "lat": 53.2429884, "lon": 50.2340434}, {"type": "node", "id": 250978830, "lat": 53.2431842, "lon": 50.2337885}, {"type": "node", "id": 250978831, "lat": 53.2431567, "lon": 50.2337295}, {"type": "node", "id": 250978832, "lat": 53.2433533, "lon": 50.2334735}, {"type": "node", "id": 250978833, "lat": 53.2433234, "lon": 50.2334095}, {"type": "node", "id": 251626886, "lat": 53.2428496, "lon": 50.2315632}, {"type": "node", "id": 251626887, "lat": 53.2429384, "lon": 50.2314499}, {"type": "node", "id": 251626888, "lat": 53.2430921, "lon": 50.2320943}, {"type": "node", "id": 251626889, "lat": 53.243181, "lon": 50.231981}, {"type": "node", "id": 251626890, "lat": 53.2431445, "lon": 50.2309999}, {"type": "node", "id": 251626891, "lat": 53.2429019, "lon": 50.2304688}, {"type": "node", "id": 251626892, "lat": 53.2428131, "lon": 50.2305821}, {"type": "node", "id": 251626893, "lat": 53.2430557, "lon": 50.2311133}, {"type": "node", "id": 251626894, "lat": 53.2408483, "lon": 50.2320495}, {"type": "node", "id": 251626895, "lat": 53.2407686, "lon": 50.2321508}, {"type": "node", "id": 251626896, "lat": 53.2403769, "lon": 50.231291}, {"type": "node", "id": 251626897, "lat": 53.2404566, "lon": 50.2311896}, {"type": "node", "id": 251627682, "lat": 53.2417635, "lon": 50.233004}, {"type": "node", "id": 251627685, "lat": 53.2422421, "lon": 50.2319907}, {"type": "node", "id": 251627686, "lat": 53.2426278, "lon": 50.2314899}, {"type": "node", "id": 251627687, "lat": 53.2427023, "lon": 50.2316501}, {"type": "node", "id": 303290450, "lat": 53.240337, "lon": 50.2280835}, {"type": "node", "id": 303290452, "lat": 53.2403, "lon": 50.2281322}, {"type": "node", "id": 303290454, "lat": 53.2404413, "lon": 50.2284319}, {"type": "node", "id": 303290455, "lat": 53.2407016, "lon": 50.2280076}, {"type": "node", "id": 303290456, "lat": 53.2408847, "lon": 50.2280703}, {"type": "node", "id": 303290457, "lat": 53.2407003, "lon": 50.2280557}, {"type": "node", "id": 303290458, "lat": 53.2407089, "lon": 50.2284898}, {"type": "node", "id": 303290460, "lat": 53.2405896, "lon": 50.2282367}, {"type": "node", "id": 303290461, "lat": 53.2408832, "lon": 50.2281248}, {"type": "node", "id": 303290462, "lat": 53.2407952, "lon": 50.2283762}, {"type": "node", "id": 303290463, "lat": 53.2407173, "lon": 50.2282109}, {"type": "node", "id": 303455246, "lat": 53.2406308, "lon": 50.2297135}, {"type": "node", "id": 303455247, "lat": 53.2405634, "lon": 50.2295617}, {"type": "node", "id": 303455249, "lat": 53.2403011, "lon": 50.2301221}, {"type": "node", "id": 303455250, "lat": 53.2402337, "lon": 50.2299702}, {"type": "node", "id": 303455251, "lat": 53.2409585, "lon": 50.2293074}, {"type": "node", "id": 303455253, "lat": 53.2408911, "lon": 50.2291556}, {"type": "node", "id": 659825106, "lat": 53.2423446, "lon": 50.2322611, "tags": {"addr:housenumber": "210", "addr:postcode": "443087", "addr:street": "\u043f\u0440\u043e\u0441\u043f\u0435\u043a\u0442 \u041a\u0438\u0440\u043e\u0432\u0430"}}, {"type": "node", "id": 659825109, "lat": 53.2423165, "lon": 50.2321509}, {"type": "node", "id": 659825119, "lat": 53.2416851, "lon": 50.2328327}, {"type": "node", "id": 961877014, "lat": 53.2422661, "lon": 50.2320898}, {"type": "node", "id": 1214679238, "lat": 53.2442727, "lon": 50.230016}, {"type": "node", "id": 1214679334, "lat": 53.2442011, "lon": 50.2298584}, {"type": "node", "id": 3958446597, "lat": 53.2411582, "lon": 50.2330063}, {"type": "node", "id": 3958446598, "lat": 53.2412379, "lon": 50.232905}, {"type": "node", "id": 4185260109, "lat": 53.2428124, "lon": 50.2343447}, {"type": "node", "id": 4185260110, "lat": 53.2428307, "lon": 50.234349}, {"type": "node", "id": 4185260111, "lat": 53.2423453, "lon": 50.2346485}, {"type": "node", "id": 4185260112, "lat": 53.2424337, "lon": 50.2348379}, {"type": "node", "id": 6442446711, "lat": 53.2432635, "lon": 50.2278223, "tags": {"access": "private", "addr:flats": "37-72", "entrance": "yes", "ref": "2"}}, {"type": "node", "id": 6442446712, "lat": 53.2433631, "lon": 50.2280538, "tags": {"access": "private", "addr:flats": "1-36", "entrance": "yes", "ref": "1"}}, {"type": "node", "id": 6442446713, "lat": 53.2431531, "lon": 50.2275725, "tags": {"access": "private", "addr:flats": "73-108", "entrance": "yes", "ref": "3"}}, {"type": "node", "id": 6442446714, "lat": 53.2430605, "lon": 50.2273791, "tags": {"access": "private", "entrance": "yes", "flats": "109-142", "ref": "4"}}, {"type": "node", "id": 11336079234, "lat": 53.2406493, "lon": 50.2283633, "tags": {"access": "private", "entrance": "staircase", "ref": "2"}}, {"type": "node", "id": 11336079235, "lat": 53.2403707, "lon": 50.228282, "tags": {"access": "private", "entrance": "staircase", "ref": "1"}}, {"type": "node", "id": 11336079236, "lat": 53.2407999, "lon": 50.2282168}, {"type": "node", "id": 11336079237, "lat": 53.2408011, "lon": 50.2281728}, {"type": "node", "id": 11336079238, "lat": 53.2408816, "lon": 50.2281792}, {"type": "node", "id": 11336079239, "lat": 53.2403615, "lon": 50.2279806}, {"type": "node", "id": 11336079240, "lat": 53.2403164, "lon": 50.22804}, {"type": "way", "id": 23169212, "nodes": [1214679334, 250474837, 250474843, 250474841, 250474847, 250474845, 250474839, 1214679238]}, {"type": "way", "id": 23169213, "nodes": [1214679238, 250474854, 250474848, 250474850, 250474852, 1214679334]}, {"type": "way", "id": 23169308, "nodes": [250479263, 250479265, 250479267, 6442446714, 6442446713, 6442446711, 6442446712, 250479269, 250479263], "tags": {"addr:housenumber": "118", "addr:postcode": "443087", "addr:street": "\u0443\u043b\u0438\u0446\u0430 \u0421\u0442\u0430\u0440\u0430-\u0417\u0430\u0433\u043e\u0440\u0430", "building": "apartments", "building:levels": "9"}}, {"type": "way", "id": 23204053, "nodes": [250978730, 250978729, 250978728, 250978727, 250978730], "tags": {"addr:housenumber": "167", "addr:postcode": "443087", "addr:street": "\u0443\u043b\u0438\u0446\u0430 \u0421\u0442\u0430\u0440\u0430-\u0417\u0430\u0433\u043e\u0440\u0430", "building": "apartments", "building:levels": "9"}}, {"type": "way", "id": 23204054, "nodes": [250978733, 250978731, 250978734, 250978732, 250978733], "tags": {"addr:housenumber": "165", "addr:postcode": "443087", "addr:street": "\u0443\u043b\u0438\u0446\u0430 \u0421\u0442\u0430\u0440\u0430-\u0417\u0430\u0433\u043e\u0440\u0430", "building": "apartments", "building:levels": "9"}}, {"type": "way", "id": 23204055, "nodes": [250978737, 250978736, 250978735, 250978738, 250978737], "tags": {"addr:housenumber": "222", "addr:postcode": "443087", "addr:street": "\u043f\u0440\u043e\u0441\u043f\u0435\u043a\u0442 \u041a\u0438\u0440\u043e\u0432\u0430", "building": "apartments", "building:levels": "5"}}, {"type": "way", "id": 23204056, "nodes": [250978741, 250978742, 250978739, 250978740, 250978741], "tags": {"addr:housenumber": "220", "addr:postcode": "443087", "addr:street": "\u043f\u0440\u043e\u0441\u043f\u0435\u043a\u0442 \u041a\u0438\u0440\u043e\u0432\u0430", "building": "apartments", "building:levels": "5"}}, {"type": "way", "id": 23204057, "nodes": [250978745, 250978743, 250978744, 250978746, 250978745], "tags": {"addr:housenumber": "212", "addr:postcode": "443087", "addr:street": "\u043f\u0440\u043e\u0441\u043f\u0435\u043a\u0442 \u041a\u0438\u0440\u043e\u0432\u0430", "building": "apartments", "building:levels": "5"}}, {"type": "way", "id": 23204058, "nodes": [250978748, 250978747, 250978750, 250978749, 250978748], "tags": {"addr:housenumber": "218", "addr:postcode": "443087", "addr:street": "\u043f\u0440\u043e\u0441\u043f\u0435\u043a\u0442 \u041a\u0438\u0440\u043e\u0432\u0430", "building": "apartments", "building:levels": "5"}}, {"type": "way", "id": 23204059, "nodes": [250978753, 250978759, 250978762, 250978756, 250978753], "tags": {"addr:housenumber": "214", "addr:postcode": "443087", "addr:street": "\u043f\u0440\u043e\u0441\u043f\u0435\u043a\u0442 \u041a\u0438\u0440\u043e\u0432\u0430", "building": "apartments", "building:levels": "5"}}, {"type": "way", "id": 23204063, "nodes": [250978787, 250978806, 250978776, 250978796, 250978787], "tags": {"addr:housenumber": "204", "addr:postcode": "443087", "addr:street": "\u043f\u0440\u043e\u0441\u043f\u0435\u043a\u0442 \u041a\u0438\u0440\u043e\u0432\u0430", "building": "apartments", "building:levels": "5"}}, {"type": "way", "id": 23204066, "nodes": [303455253, 303455251, 303455246, 303455247, 303455253], "tags": {"addr:housenumber": "196", "addr:postcode": "443087", "addr:street": "\u043f\u0440\u043e\u0441\u043f\u0435\u043a\u0442 \u041a\u0438\u0440\u043e\u0432\u0430", "building": "apartments", "building:levels": "9"}}, {"type": "way", "id": 23204067, "nodes": [250978811, 250978812, 250978813, 250978814, 250978811], "tags": {"addr:housenumber": "285", "addr:street": "\u043f\u0440\u043e\u0441\u043f\u0435\u043a\u0442 \u041a\u0438\u0440\u043e\u0432\u0430", "building": "apartments", "building:levels": "12"}}, {"type": "way", "id": 23204068, "nodes": [250978816, 250972234, 250978815, 250978817, 250978816], "tags": {"addr:housenumber": "175", "addr:street": "\u0443\u043b\u0438\u0446\u0430 \u0421\u0442\u0430\u0440\u0430-\u0417\u0430\u0433\u043e\u0440\u0430", "building": "apartments", "building:levels": "12"}}, {"type": "way", "id": 23204069, "nodes": [250978818, 250978819, 250978820, 250978821, 250978822, 250978823, 250978824, 250978825, 250978826, 4185260109, 4185260112, 4185260111, 250978827, 4185260110, 250978828, 250978829, 250978830, 250978831, 250978832, 250978833, 250978818], "tags": {"addr:housenumber": "283", "addr:street": "\u043f\u0440\u043e\u0441\u043f\u0435\u043a\u0442 \u041a\u0438\u0440\u043e\u0432\u0430", "building": "apartments", "building:colour": "orange", "building:levels": "9"}}, {"type": "way", "id": 23253625, "nodes": [251626889, 251626888, 251626886, 251626887, 251626889], "tags": {"addr:housenumber": "226\u0410", "addr:postcode": "443087", "addr:street": "\u043f\u0440\u043e\u0441\u043f\u0435\u043a\u0442 \u041a\u0438\u0440\u043e\u0432\u0430", "building": "apartments", "building:levels": "12"}}, {"type": "way", "id": 23253626, "nodes": [251626890, 251626893, 251626892, 251626891, 251626890], "tags": {"addr:housenumber": "226", "addr:postcode": "443087", "addr:street": "\u043f\u0440\u043e\u0441\u043f\u0435\u043a\u0442 \u041a\u0438\u0440\u043e\u0432\u0430", "building": "apartments", "building:levels": "12"}}, {"type": "way", "id": 23253627, "nodes": [251626895, 251626896, 251626897, 251626894, 251626895], "tags": {"addr:housenumber": "202", "addr:postcode": "443087", "addr:street": "\u043f\u0440\u043e\u0441\u043f\u0435\u043a\u0442 \u041a\u0438\u0440\u043e\u0432\u0430", "building": "apartments", "building:levels": "5"}}, {"type": "way", "id": 27618893, "nodes": [303290463, 303290462, 303290458, 11336079234, 303290460, 303290454, 11336079235, 303290452, 303290450]}, {"type": "way", "id": 27618894, "nodes": [303290450, 11336079240, 11336079239, 303290455, 303290457, 303290456, 303290461, 11336079238, 11336079237, 11336079236, 303290463]}, {"type": "way", "id": 27630580, "nodes": [303455250, 303455249, 303455246, 303455247, 303455250], "tags": {"addr:housenumber": "194", "addr:postcode": "443087", "addr:street": "\u043f\u0440\u043e\u0441\u043f\u0435\u043a\u0442 \u041a\u0438\u0440\u043e\u0432\u0430", "building": "apartments", "building:levels": "9"}}, {"type": "way", "id": 27630582, "nodes": [303455253, 250978807, 250978808, 303455251, 303455253], "tags": {"addr:housenumber": "216", "addr:postcode": "443087", "addr:street": "\u043f\u0440\u043e\u0441\u043f\u0435\u043a\u0442 \u041a\u0438\u0440\u043e\u0432\u0430", "building": "apartments", "building:levels": "9"}}, {"type": "way", "id": 51687681, "nodes": [659825109, 251627685, 251627686, 251627687, 659825109], "tags": {"addr:housenumber": "224", "addr:postcode": "443087", "addr:street": "\u043f\u0440\u043e\u0441\u043f\u0435\u043a\u0442 \u041a\u0438\u0440\u043e\u0432\u0430", "building": "apartments", "building:levels": "9"}}, {"type": "way", "id": 51687682, "nodes": [659825106, 961877014, 659825119, 251627682]}, {"type": "way", "id": 131670424, "nodes": [251627682, 659825106]}, {"type": "way", "id": 392652907, "nodes": [251626895, 3958446597, 3958446598, 251626894, 251626895], "tags": {"addr:housenumber": "202\u0410", "addr:postcode": "443087", "addr:street": "\u043f\u0440\u043e\u0441\u043f\u0435\u043a\u0442 \u041a\u0438\u0440\u043e\u0432\u0430", "building": "apartments", "building:levels": "5"}}, {"type": "relation", "id": 1501921, "members": [{"type": "way", "ref": 23169212, "role": "outer"}, {"type": "way", "ref": 23169213, "role": "outer"}], "tags": {"addr:city": "\u0421\u0430\u043c\u0430\u0440\u0430", "addr:country": "RU", "addr:housenumber": "228", "addr:street": "\u043f\u0440\u043e\u0441\u043f\u0435\u043a\u0442 \u041a\u0438\u0440\u043e\u0432\u0430", "building": "apartments", "type": "multipolygon"}}, {"type": "relation", "id": 1769468, "members": [{"type": "way", "ref": 51687682, "role": "outer"}, {"type": "way", "ref": 131670424, "role": "outer"}], "tags": {"building": "apartments", "building:colour": "#a53b3b", "building:levels": "9", "type": "multipolygon"}}, {"type": "relation", "id": 16673618, "members": [{"type": "way", "ref": 27618894, "role": "outer"}, {"type": "way", "ref": 27618893, "role": "outer"}], "tags": {"addr:city": "\u0421\u0430\u043c\u0430\u0440\u0430", "addr:housenumber": "163", "addr:postcode": "443087", "addr:street": "\u0443\u043b\u0438\u0446\u0430 \u0421\u0442\u0430\u0440\u0430-\u0417\u0430\u0433\u043e\u0440\u0430", "building": "apartments", "building:levels": "10", "type": "multipolygon"}}]}