{"version": 0.6, "generator": "Overpass API 0.7.62.1 084b4234", "osm3s": {"timestamp_osm_base": "2024-05-14T13:12:36Z", "copyright": "The data included in this document is from www.openstreetmap.org. The data is made available under ODbL."}, "elements": [{"type": "node", "id": 1671169588, "lat": 59.9011118, "lon": 30.4591322, "tags": {"railway": "switch"}}, {"type": "node", "id": 1671169593, "lat": 59.9011577, "lon": 30.4591711, "tags": {"railway": "switch"}}, {"type": "node", "id": 1671169596, "lat": 59.9012435, "lon": 30.4595428, "tags": {"name": "\u0414\u0430\u043b\u044c\u043d\u0435\u0432\u043e\u0441\u0442\u043e\u0447\u043d\u044b\u0439 \u043f\u0440\u043e\u0441\u043f\u0435\u043a\u0442", "public_transport": "stop_position", "railway": "tram_stop", "tram": "yes"}}, {"type": "node", "id": 1671182113, "lat": 59.9068776, "lon": 30.483545}, {"type": "node", "id": 1671182122, "lat": 59.9089085, "lon": 30.4921298, "tags": {"railway": "switch"}}, {"type": "node", "id": 1671196236, "lat": 59.909132, "lon": 30.4929216, "tags": {"railway": "switch"}}, {"type": "node", "id": 1733342929, "lat": 59.9065005, "lon": 30.4819389, "tags": {"name": "\u0441\u0442\u0430\u043d\u0446\u0438\u044f \u043c\u0435\u0442\u0440\u043e \u00ab\u0423\u043b\u0438\u0446\u0430 \u0414\u044b\u0431\u0435\u043d\u043a\u043e\u00bb", "public_transport": "stop_position", "railway": "tram_stop", "tram": "yes"}}, {"type": "node", "id": 1733342933, "lat": 59.9068896, "lon": 30.4834331, "tags": {"name": "\u0441\u0442\u0430\u043d\u0446\u0438\u044f \u043c\u0435\u0442\u0440\u043e \u00ab\u0423\u043b\u0438\u0446\u0430 \u0414\u044b\u0431\u0435\u043d\u043a\u043e\u00bb", "public_transport": "stop_position", "railway": "tram_stop", "tram": "yes"}}, {"type": "node", "id": 1733350598, "lat": 59.9051908, "lon": 30.4764082, "tags": {"name": "\u0422\u043e\u0440\u0433\u043e\u0432\u044b\u0439 \u0446\u0435\u043d\u0442\u0440", "public_transport": "stop_position", "railway": "tram_stop", "tram": "yes"}}, {"type": "node", "id": 1733350599, "lat": 59.9053228, "lon": 30.4768043, "tags": {"name": "\u0422\u043e\u0440\u0433\u043e\u0432\u044b\u0439 \u0446\u0435\u043d\u0442\u0440", "public_transport": "stop_position", "railway": "tram_stop", "tram": "yes"}}, {"type": "node", "id": 1733356431, "lat": 59.9032958, "lon": 30.4683957, "tags": {"name": "\u0418\u0441\u043a\u0440\u043e\u0432\u0441\u043a\u0438\u0439 \u043f\u0440\u043e\u0441\u043f\u0435\u043a\u0442", "public_transport": "stop_position", "railway": "tram_stop", "tram": "yes"}}, {"type": "node", "id": 1733356432, "lat": 59.9036125, "lon": 30.4695656, "tags": {"name": "\u0418\u0441\u043a\u0440\u043e\u0432\u0441\u043a\u0438\u0439 \u043f\u0440\u043e\u0441\u043f\u0435\u043a\u0442", "public_transport": "stop_position", "railway": "tram_stop", "tram": "yes"}}, {"type": "node", "id": 4501024271, "lat": 59.9085283, "lon": 30.4905211, "tags": {"name": "\u0422\u043e\u0432\u0430\u0440\u0438\u0449\u0435\u0441\u043a\u0438\u0439 \u043f\u0440\u043e\u0441\u043f\u0435\u043a\u0442", "public_transport": "stop_position", "railway": "tram_stop", "tram": "yes"}}, {"type": "node", "id": 4501024272, "lat": 59.908859, "lon": 30.4917683, "tags": {"name": "\u0422\u043e\u0432\u0430\u0440\u0438\u0449\u0435\u0441\u043a\u0438\u0439 \u043f\u0440\u043e\u0441\u043f\u0435\u043a\u0442", "public_transport": "stop_position", "railway": "tram_stop", "tram": "yes"}}, {"type": "node", "id": 5086025656, "lat": 59.9011699, "lon": 30.4593679, "tags": {"button_operated": "no", "crossing": "traffic_signals", "highway": "crossing", "railway": "tram_crossing", "tactile_paving": "no", "traffic_signals:sound": "yes"}}, {"type": "node", "id": 5086025657, "lat": 59.9011961, "lon": 30.4593422, "tags": {"button_operated": "no", "crossing": "traffic_signals", "highway": "crossing", "railway": "tram_crossing", "tactile_paving": "no", "traffic_signals:sound": "yes"}}, {"type": "node", "id": 7090577569, "lat": 59.9052746, "lon": 30.4765979, "tags": {"railway": "tram_crossing"}}, {"type": "node", "id": 7090577570, "lat": 59.9065939, "lon": 30.4821658, "tags": {"button_operated": "no", "crossing": "traffic_signals", "highway": "crossing", "railway": "tram_crossing", "tactile_paving": "no", "traffic_signals:sound": "yes"}}, {"type": "node", "id": 7090577571, "lat": 59.9066823, "lon": 30.482546, "tags": {"railway": "tram_level_crossing"}}, {"type": "node", "id": 7090577572, "lat": 59.9067419, "lon": 30.4828023, "tags": {"railway": "tram_level_crossing"}}, {"type": "node", "id": 7090577573, "lat": 59.9068205, "lon": 30.4831408, "tags": {"crossing": "traffic_signals", "highway": "crossing", "railway": "tram_crossing"}}, {"type": "node", "id": 7090577574, "lat": 59.908605, "lon": 30.4906952, "tags": {"crossing": "traffic_signals", "highway": "crossing"}}, {"type": "node", "id": 7090577576, "lat": 59.9087927, "lon": 30.4914869, "tags": {"crossing": "traffic_signals", "highway": "crossing", "railway": "tram_crossing"}}, {"type": "node", "id": 7090577577, "lat": 59.9087644, "lon": 30.4915156, "tags": {"crossing": "traffic_signals", "highway": "crossing"}}, {"type": "node", "id": 7090577578, "lat": 59.9052431, "lon": 30.4766269, "tags": {"railway": "tram_crossing"}}, {"type": "node", "id": 7090577579, "lat": 59.9065615, "lon": 30.4821972, "tags": {"button_operated": "no", "crossing": "traffic_signals", "highway": "crossing", "railway": "tram_crossing", "tactile_paving": "no", "traffic_signals:sound": "yes"}}, {"type": "node", "id": 7090577580, "lat": 59.90665, "lon": 30.4825766, "tags": {"railway": "tram_level_crossing"}}, {"type": "node", "id": 7090577581, "lat": 59.9067103, "lon": 30.4828323, "tags": {"railway": "tram_level_crossing"}}, {"type": "node", "id": 7090577582, "lat": 59.9067898, "lon": 30.4831685, "tags": {"crossing": "traffic_signals", "highway": "crossing", "railway": "tram_crossing"}}, {"type": "node", "id": 7090577583, "lat": 59.9085775, "lon": 30.4907207, "tags": {"crossing": "traffic_signals", "highway": "crossing", "railway": "tram_crossing"}}, {"type": "node", "id": 8872698902, "lat": 59.9035147, "lon": 30.469325, "tags": {"button_operated": "no", "crossing": "traffic_signals", "highway": "crossing", "railway": "tram_crossing", "tactile_paving": "no", "traffic_signals:sound": "yes"}}, {"type": "node", "id": 8872698903, "lat": 59.9035483, "lon": 30.4692941, "tags": {"button_operated": "no", "crossing": "traffic_signals", "highway": "crossing", "railway": "tram_crossing", "tactile_paving": "no", "traffic_signals:sound": "yes"}}, {"type": "node", "id": 8872698904, "lat": 59.9033684, "lon": 30.4685329, "tags": {"crossing": "traffic_signals", "highway": "crossing", "railway": "tram_crossing"}}, {"type": "node", "id": 8872698905, "lat": 59.9033353, "lon": 30.4685635, "tags": {"crossing": "traffic_signals", "highway": "crossing", "railway": "tram_crossing"}}, {"type": "node", "id": 9198853426, "lat": 59.9024239, "lon": 30.4647158, "tags": {"railway": "tram_crossing"}}, {"type": "node", "id": 9198853427, "lat": 59.902454, "lon": 30.4646869, "tags": {"railway": "tram_crossing"}}, {"type": "node", "id": 10242786348, "lat": 59.903411, "lon": 30.4688852, "tags": {"railway": "tram_level_crossing"}}, {"type": "node", "id": 10242786349, "lat": 59.9034382, "lon": 30.4690007, "tags": {"railway": "tram_level_crossing"}}, {"type": "node", "id": 10242786350, "lat": 59.9034718, "lon": 30.4689703, "tags": {"railway": "tram_level_crossing"}}, {"type": "node", "id": 10242786351, "lat": 59.9034445, "lon": 30.4688549, "tags": {"railway": "tram_level_crossing"}}, {"type": "node", "id": 10244104338, "lat": 59.9087114, "lon": 30.4911435}, {"type": "node", "id": 10244104339, "lat": 59.9086799, "lon": 30.4911558}, {"type": "node", "id": 10244104340, "lat": 59.9086615, "lon": 30.4910775}, {"type": "node", "id": 10244104341, "lat": 59.9086854, "lon": 30.4910341}, {"type": "way", "id": 154587105, "nodes": [1671169588, 5086025656, 9198853426, 1733356431, 8872698905, 10242786348, 10242786349, 8872698902, 1733350598, 7090577578, 1733342929, 7090577579, 7090577580, 7090577581, 7090577582, 1671182113, 4501024271, 7090577583, 10244104340, 10244104339, 7090577577, 1671182122], "tags": {"designated_direction": "forward", "electrified": "contact_line", "frequency": "0", "gauge": "1524", "oneway": "yes", "railway": "tram", "usage": "main", "voltage": "600"}}, {"type": "way", "id": 154591833, "nodes": [1671196236, 4501024272, 7090577576, 10244104338, 10244104341, 7090577574, 1733342933, 7090577573, 7090577572, 7090577571, 7090577570, 1733350599, 7090577569, 1733356432, 8872698903, 10242786350, 10242786351, 8872698904, 9198853427, 1671169596, 5086025657, 1671169593], "tags": {"designated_direction": "forward", "electrified": "contact_line", "frequency": "0", "gauge": "1524", "oneway": "yes", "railway": "tram", "usage": "main", "voltage": "600"}}]}