{"version": 0.6, "generator": "Overpass API 0.7.62.1 084b4234", "osm3s": {"timestamp_osm_base": "2024-05-16T19:00:26Z", "copyright": "The data included in this document is from www.openstreetmap.org. The data is made available under ODbL."}, "elements": [{"type": "node", "id": 968170591, "lat": 55.7699843, "lon": 37.5937454, "tags": {"amenity": "cafe", "name": "\u0410\u0440\u0445\u0438\u0442\u0435\u043a\u0442\u043e\u0440"}}, {"type": "node", "id": 4150565390, "lat": 55.7707202, "lon": 37.5964291, "tags": {"amenity": "cafe", "name": "\u0425\u0438\u043d\u043a\u0430\u043b\u044c\u043d\u0430\u044f", "operator": "\u041e\u041e\u041e \"\u0426\u0435\u043d\u0442\u0440 \u043f\u0438\u0432\u0430\""}}, {"type": "node", "id": 5609946321, "lat": 55.7699111, "lon": 37.5955548, "tags": {"amenity": "cafe", "contact:facebook": "https://www.facebook.com/cheandpa", "contact:phone": "+7 985 2286633", "contact:website": "https://chip.coffee/", "cuisine": "coffee_shop", "name": "\u0427\u0435\u043b\u043e\u0432\u0435\u043a \u0438 \u043f\u0430\u0440\u043e\u0445\u043e\u0434", "opening_hours": "Mo-Su 10:00-21:00"}}, {"type": "node", "id": 6555483231, "lat": 55.7703385, "lon": 37.5964312, "tags": {"amenity": "cafe", "contact:instagram": "https://www.instagram.com/flavor_coffee_wine/", "cuisine": "coffee_shop", "name": "Flavor"}}, {"type": "node", "id": 9885958898, "lat": 55.7707134, "lon": 37.594437, "tags": {"amenity": "cafe", "contact:vk": "https://vk.com/cafekremlevsky", "name": "\u041a\u0440\u0435\u043c\u043b\u0435\u0432\u0441\u043a\u0438\u0439"}}, {"type": "node", "id": 10763832326, "lat": 55.7697218, "lon": 37.595196, "tags": {"amenity": "cafe", "contact:instagram": "https://www.instagram.com/rebellion____clubhouse/", "contact:website": "https://www.theclubhouse.ru/", "cuisine": "coffee_shop", "name": "Rebellion"}}]}