{"version": 0.6, "generator": "Overpass API 0.7.62.1 084b4234", "osm3s": {"timestamp_osm_base": "2024-05-14T10:55:16Z", "copyright": "The data included in this document is from www.openstreetmap.org. The data is made available under ODbL."}, "elements": [{"type": "node", "id": 2084484174, "lat": 55.7446858, "lon": 37.6272334, "tags": {"amenity": "cafe", "brand": "\u0425\u043b\u0435\u0431 \u041d\u0430\u0441\u0443\u0449\u043d\u044b\u0439", "brand:wikidata": "Q109910218", "contact:email": "service@hlebnasushny.ru", "contact:facebook": "https://www.facebook.com/hlebnasushny.ru", "contact:instagram": "https://www.instagram.com/hlebnasushny.ru", "contact:phone": "+7 495 9849129", "contact:website": "https://hlebnasushny.ru/", "name": "\u0425\u043b\u0435\u0431 \u041d\u0430\u0441\u0443\u0449\u043d\u044b\u0439", "opening_hours": "Mo-Fr 07:00-22:00;Sa-Su 08:00-22:00", "operator": "\u0425\u043b\u0435\u0431 \u041d\u0430\u0441\u0443\u0449\u043d\u044b\u0439-\u041f\u044f\u0442\u043d\u0438\u0446\u043a\u0430\u044f", "shop": "bakery", "wheelchair": "no"}}, {"type": "node", "id": 2582449797, "lat": 55.7440195, "lon": 37.6276755, "tags": {"amenity": "cafe", "brand": "Cofix", "brand:en": "Cofix", "brand:he": "\u05e7\u05e4\u05d5\u05d9\u05e7\u05e1", "brand:wikidata": "Q16132717", "brand:wikipedia": "he:\u05e7\u05d5\u05e4\u05d9\u05e7\u05e1", "contact:email": "info@cofix.ru", "contact:facebook": "https://www.facebook.com/cofixrussia", "contact:instagram": "https://www.instagram.com/cofixrussia", "contact:phone": "+7 800 3508418", "contact:vk": "https://vk.com/cofixrussia", "contact:website": "https://www.cofix.global", "cuisine": "coffee_shop", "delivery": "no", "level": "1", "name": "Cofix", "name:en": "Cofix", "name:he": "\u05e7\u05d5\u05e4\u05d9\u05e7\u05e1", "opening_hours": "Mo-Fr 08:00-22:00; Sa-Su 10:00-22:00", "takeaway": "yes"}}, {"type": "node", "id": 3575458265, "lat": 55.7435204, "lon": 37.6296229, "tags": {"amenity": "cafe", "cuisine": "oriental", "name": "\u0411\u0438\u0441\u0442\u0440\u043e", "name:en": "Bistro", "opening_hours": "Mo-Fr 09:00-20:00; Sa 09:00-19:00"}}, {"type": "node", "id": 3893310167, "lat": 55.7444431, "lon": 37.6274223, "tags": {"amenity": "cafe", "contact:facebook": "https://www.facebook.com/xachapuria", "cuisine": "georgian", "name": "\u0425\u0430\u0447\u0430\u043f\u0443\u0440\u0438\u044f", "name:en": "Hachapuriya", "opening_hours": "Mo-Su 11:00-24:00"}}, {"type": "node", "id": 4999666352, "lat": 55.7448018, "lon": 37.6271398, "tags": {"amenity": "cafe", "contact:instagram": "https://www.instagram.com/perezvon_coffee/", "cuisine": "coffee_shop", "diet:halal": "no", "diet:vegetarian": "no", "indoor_seating": "yes", "name": "\u041f\u0435\u0440\u0435\u0437\u0432\u043e\u043d", "opening_hours": "Mo-Su 09:00-21:00", "outdoor_seating": "yes", "payment:credit_cards": "yes", "payment:debit_cards": "yes", "smoking": "no", "wheelchair": "no"}}, {"type": "node", "id": 8747432550, "lat": 55.7438407, "lon": 37.6277862, "tags": {"amenity": "cafe", "contact:instagram": "https://www.instagram.com/frankbybasta/", "contact:phone": "+7 495 2281808", "contact:website": "https://frankmeat.ru/", "cuisine": "beef", "name": "Frank by \u0411\u0430\u0441\u0442\u0430", "official_name": "Frank by \u0411\u0430\u0441\u0442\u0430", "opening_hours": "Mo-We,Su 12:00-24:00; Th 12:00-01:00, Fr-Sa 12:00-03:00"}}, {"type": "node", "id": 10557552980, "lat": 55.7439351, "lon": 37.6281108, "tags": {"amenity": "cafe", "contact:instagram": "https://www.instagram.com/chiho_china/", "contact:website": "https://chiho.ru", "cuisine": "asian", "name": "\u0427\u0438\u0445\u043e", "opening_hours": "Mo-Th 11:00-23:00, Fr 11:00-24:00, Sa 12:00-24:00, Su 12:00-23:00"}}, {"type": "node", "id": 10915726978, "lat": 55.744265, "lon": 37.6278922, "tags": {"alt_name": "\u0411\u0440\u0430\u0442\u044c\u044f \u041a\u0430\u0440\u0430\u0432\u0430\u0435\u0432\u044b", "amenity": "cafe", "contact:instagram": "https://www.instagram.com/karavaevi.ru/", "contact:phone": "+7 495 623-71-85", "contact:telegram": "https://t.me/karavaeviru", "contact:vk": "https://vk.com/karavaeviru", "contact:website": "https://www.karavaevi.ru", "diet:vegan": "yes", "diet:vegetarian": "yes", "food": "prepared_meals", "name": "\u041a\u0443\u043b\u0438\u043d\u0430\u0440\u043d\u0430\u044f \u043b\u0430\u0432\u043a\u0430 \u0431\u0440\u0430\u0442\u044c\u0435\u0432 \u041a\u0430\u0440\u0430\u0432\u0430\u0435\u0432\u044b\u0445", "name:en": "Bratya Karavaevy", "name:uk": "\u041a\u0443\u043b\u0456\u043d\u0430\u0440\u043d\u0430 \u043a\u0440\u0430\u043c\u043d\u0438\u0446\u044f \u0431\u0440\u0430\u0442\u0456\u0432 \u041a\u0430\u0440\u0430\u0432\u0430\u0454\u0432\u0438\u0445", "opening_hours": "Mo-Su 08:00-23:00", "shop": "food", "smoking": "no", "takeaway": "yes"}}]}