{"version": 0.6, "generator": "Overpass API 0.7.62.1 084b4234", "osm3s": {"timestamp_osm_base": "2024-05-18T01:17:29Z", "copyright": "The data included in this document is from www.openstreetmap.org. The data is made available under ODbL."}, "elements": [{"type": "node", "id": 353909090, "lat": 54.9520642, "lon": 73.3855342}, {"type": "node", "id": 353909091, "lat": 54.9520679, "lon": 73.3854293}, {"type": "node", "id": 353909094, "lat": 54.952617, "lon": 73.3854884}, {"type": "node", "id": 353909096, "lat": 54.9526242, "lon": 73.3852848}, {"type": "node", "id": 353909097, "lat": 54.9519591, "lon": 73.3852133}, {"type": "node", "id": 353909099, "lat": 54.9519482, "lon": 73.3855217}, {"type": "node", "id": 353909101, "lat": 54.9520609, "lon": 73.3856261}, {"type": "node", "id": 353909103, "lat": 54.9520294, "lon": 73.3865165}, {"type": "node", "id": 353909104, "lat": 54.9519133, "lon": 73.386504}, {"type": "node", "id": 353909105, "lat": 54.9519449, "lon": 73.3856136}, {"type": "node", "id": 353909111, "lat": 54.9526041, "lon": 73.3858521}, {"type": "node", "id": 353909112, "lat": 54.9526121, "lon": 73.3856263}, {"type": "node", "id": 353909113, "lat": 54.952796, "lon": 73.3889752}, {"type": "node", "id": 353909116, "lat": 54.9527448, "lon": 73.3885406}, {"type": "node", "id": 353909117, "lat": 54.9544836, "lon": 73.3881454}, {"type": "node", "id": 353909120, "lat": 54.9544883, "lon": 73.3886004}, {"type": "node", "id": 353909122, "lat": 54.954649, "lon": 73.3885639}, {"type": "node", "id": 353909125, "lat": 54.9545955, "lon": 73.3878504}, {"type": "node", "id": 353909129, "lat": 54.9525924, "lon": 73.3883357}, {"type": "node", "id": 353909131, "lat": 54.9526429, "lon": 73.38901}, {"type": "node", "id": 353909140, "lat": 54.9531898, "lon": 73.385616}, {"type": "node", "id": 353909142, "lat": 54.9545409, "lon": 73.3857044, "tags": {"addr:flats": "156-175", "entrance": "staircase", "ref": "12"}}, {"type": "node", "id": 353909143, "lat": 54.9546228, "lon": 73.3870126, "tags": {"addr:flats": "89-101", "entrance": "staircase", "ref": "7"}}, {"type": "node", "id": 353909144, "lat": 54.9534393, "lon": 73.3872422, "tags": {"addr:flats": "1-12", "entrance": "staircase", "ref": "1"}}, {"type": "node", "id": 353909147, "lat": 54.9534372, "lon": 73.387211}, {"type": "node", "id": 353909148, "lat": 54.9532944, "lon": 73.3872388}, {"type": "node", "id": 353909150, "lat": 54.9533129, "lon": 73.3875285}, {"type": "node", "id": 353909153, "lat": 54.9546543, "lon": 73.3854804}, {"type": "node", "id": 353909155, "lat": 54.9531987, "lon": 73.3853369}, {"type": "node", "id": 353918916, "lat": 54.9520257, "lon": 73.386619}, {"type": "node", "id": 353918922, "lat": 54.9520061, "lon": 73.3871725}, {"type": "node", "id": 353918926, "lat": 54.9518901, "lon": 73.38716}, {"type": "node", "id": 353918928, "lat": 54.9519097, "lon": 73.3866065}, {"type": "node", "id": 353918932, "lat": 54.9523168, "lon": 73.3892253}, {"type": "node", "id": 353918936, "lat": 54.9523458, "lon": 73.3894348}, {"type": "node", "id": 353918940, "lat": 54.9511805, "lon": 73.3899249}, {"type": "node", "id": 353918942, "lat": 54.9511515, "lon": 73.3897154}, {"type": "node", "id": 353918959, "lat": 54.9524134, "lon": 73.388347}, {"type": "node", "id": 353918962, "lat": 54.9524108, "lon": 73.3885459}, {"type": "node", "id": 353918964, "lat": 54.951796, "lon": 73.3885213}, {"type": "node", "id": 353918969, "lat": 54.9517986, "lon": 73.3883224}, {"type": "node", "id": 1027793316, "lat": 54.9524756, "lon": 73.3901126}, {"type": "node", "id": 1027793903, "lat": 54.9521466, "lon": 73.390219}, {"type": "node", "id": 1027794668, "lat": 54.9521144, "lon": 73.3899879}, {"type": "node", "id": 1027794818, "lat": 54.9524392, "lon": 73.3898508}, {"type": "node", "id": 1438065307, "lat": 54.9538705, "lon": 73.3880452, "tags": {"amenity": "bank", "contact:phone": "8 800 2002 372", "contact:website": "http://www.plus-bank.ru/", "name": "\u041a\u0432\u0430\u043d\u0442 \u041c\u043e\u0431\u0430\u0439\u043b \u0411\u0430\u043d\u043a", "opening_hours": "Mo-Fr 09:00-19:00; Sa 10:00-16:00", "ref": "1"}}, {"type": "node", "id": 1527968361, "lat": 54.9538364, "lon": 73.3856669}, {"type": "node", "id": 1527968364, "lat": 54.9538449, "lon": 73.3853996}, {"type": "node", "id": 1527968399, "lat": 54.9541964, "lon": 73.3870953}, {"type": "node", "id": 1527968401, "lat": 54.9542135, "lon": 73.3873536}, {"type": "node", "id": 1527968442, "lat": 54.9546056, "lon": 73.3867427}, {"type": "node", "id": 1527968443, "lat": 54.9547383, "lon": 73.386717}, {"type": "node", "id": 1676542098, "lat": 54.9535191, "lon": 73.3880951, "tags": {"branch": "\u0417\u0430\u043f\u0430\u0434\u043d\u043e-\u0421\u0438\u0431\u0438\u0440\u0441\u043a\u0438\u0439 \u0431\u0430\u043d\u043a", "brand:wikidata": "Q205012", "brand:wikipedia": "ru:\u0421\u0431\u0435\u0440\u0431\u0430\u043d\u043a \u0420\u043e\u0441\u0441\u0438\u0438", "contact:phone": "+7 495 5005550", "contact:website": "https://www.sberbank.ru", "name": "\u0421\u0431\u0435\u0440\u0431\u0430\u043d\u043a", "name:en": "Sberbank", "name:ru": "\u0421\u0431\u0435\u0440\u0431\u0430\u043d\u043a", "opening_hours": "Mo-Fr 09:00-18:00", "operator": "\u041f\u0410\u041e \u0421\u0431\u0435\u0440\u0431\u0430\u043d\u043a", "ref": "8634/0131", "was:amenity": "bank", "wheelchair": "yes"}}, {"type": "node", "id": 1865341103, "lat": 54.951805, "lon": 73.3877184}, {"type": "node", "id": 1865341104, "lat": 54.9518102, "lon": 73.387455}, {"type": "node", "id": 1865341106, "lat": 54.9520287, "lon": 73.3877319}, {"type": "node", "id": 1865341107, "lat": 54.9520339, "lon": 73.3874684}, {"type": "node", "id": 1865341109, "lat": 54.9527493, "lon": 73.3886008}, {"type": "node", "id": 1865341110, "lat": 54.9527568, "lon": 73.3885991}, {"type": "node", "id": 1865341111, "lat": 54.9527713, "lon": 73.3887917}, {"type": "node", "id": 1865341112, "lat": 54.9527821, "lon": 73.3887892}, {"type": "node", "id": 1865341113, "lat": 54.9544756, "lon": 73.3884306}, {"type": "node", "id": 1865341114, "lat": 54.954478, "lon": 73.3882233}, {"type": "node", "id": 1865341117, "lat": 54.9544933, "lon": 73.3884266}, {"type": "node", "id": 1865341118, "lat": 54.9544892, "lon": 73.3882208}, {"type": "node", "id": 1877231919, "lat": 54.9519554, "lon": 73.3874637, "tags": {"entrance": "staircase"}}, {"type": "node", "id": 2037688806, "lat": 54.9532071, "lon": 73.3859169}, {"type": "node", "id": 2037688808, "lat": 54.9532151, "lon": 73.3856911}, {"type": "node", "id": 2037688826, "lat": 54.954473, "lon": 73.3857288}, {"type": "node", "id": 2037688827, "lat": 54.9544741, "lon": 73.3856963}, {"type": "node", "id": 2321502449, "lat": 54.9540671, "lon": 73.3871204}, {"type": "node", "id": 2321502450, "lat": 54.9540836, "lon": 73.3873789}, {"type": "node", "id": 2812688600, "lat": 54.952363, "lon": 73.3901277}, {"type": "node", "id": 2812689401, "lat": 54.9523673, "lon": 73.3901584}, {"type": "node", "id": 4102269947, "lat": 54.9539132, "lon": 73.3880355, "tags": {"amenity": "atm", "indoor": "no", "opening_hours": "24/7", "operator": "\u041a\u0432\u0430\u043d\u0442 \u041c\u043e\u0431\u0430\u0439\u043b \u0411\u0430\u043d\u043a"}}, {"type": "node", "id": 4161293275, "lat": 54.9530711, "lon": 73.3881969, "tags": {"name": "Autojack", "shop": "clothes"}}, {"type": "node", "id": 4161293282, "lat": 54.9547544, "lon": 73.3872337, "tags": {"clothes": "fur", "name": "\u0413\u0430\u043b\u0430\u0442\u0435\u044f", "shop": "clothes"}}, {"type": "node", "id": 4161293288, "lat": 54.95209, "lon": 73.388334, "tags": {"clothes": "military", "name": "\u0410\u0440\u043c\u0435\u0439\u0441\u043a\u0438\u0439", "shop": "clothes"}}, {"type": "node", "id": 4161293890, "lat": 54.954692, "lon": 73.3860407, "tags": {"name": "\u0411\u0440\u0438\u0441\u0442\u043e\u043b\u044c", "shop": "alcohol"}}, {"type": "node", "id": 4161293891, "lat": 54.9527216, "lon": 73.3882763, "tags": {"addr:housenumber": "45 \u043f\u043e\u043c. 6\u041f", "addr:street": "\u043f\u0440\u043e\u0441\u043f\u0435\u043a\u0442 \u041a\u0430\u0440\u043b\u0430 \u041c\u0430\u0440\u043a\u0441\u0430", "amenity": "pharmacy", "contact:vk": "aptekiplus", "name": "\u0410\u043f\u0442\u0435\u043a\u0430\u041f\u043b\u044e\u0441", "opening_hours": "Mo-Su 08:00-21:00", "operator": "\u0418\u041f \u0420\u0443\u0437\u0430\u043d\u043a\u0438\u043d\u0430 \u0415.\u0421.", "phone": "+7 3812 95 60 39", "website": "https://aptekiplus.ru"}}, {"type": "node", "id": 4161293893, "lat": 54.9519497, "lon": 73.3883284, "tags": {"amenity": "cafe", "cuisine": "sushi", "name": "\u041c\u0443\u0440\u0430\u043a\u0430\u043c\u0438"}}, {"type": "node", "id": 4161293894, "lat": 54.9533878, "lon": 73.3881249, "tags": {"amenity": "bank", "name": "\u0417\u0430\u043f\u0441\u0438\u0431\u043a\u043e\u043c\u0431\u0430\u043d\u043a"}}, {"type": "node", "id": 4161293898, "lat": 54.9546855, "lon": 73.3872622, "tags": {"name": "\u041a\u0430\u0440\u043d\u0430\u0432\u0430\u043b\u044c\u043d\u0430\u044f \u043b\u0430\u0432\u043a\u0430", "shop": "party"}}, {"type": "node", "id": 4161293899, "lat": 54.9536476, "lon": 73.3880659, "tags": {"addr:housenumber": "45", "addr:street": "\u043f\u0440\u043e\u0441\u043f\u0435\u043a\u0442 \u041a\u0430\u0440\u043b\u0430 \u041c\u0430\u0440\u043a\u0441\u0430", "level": "-1", "name": "\u041a\u0440\u0430\u0441\u043d\u043e\u0435 & \u0411\u0435\u043b\u043e\u0435", "opening_hours": "Mo-Su 09:00-22:00", "shop": "alcohol", "website": "https://krasnoeibeloe.ru/"}}, {"type": "node", "id": 4161293904, "lat": 54.9544018, "lon": 73.3878945, "tags": {"addr:housenumber": "45", "addr:street": "\u043f\u0440\u043e\u0441\u043f\u0435\u043a\u0442 \u041a\u0430\u0440\u043b\u0430 \u041c\u0430\u0440\u043a\u0441\u0430", "name": "\u041c\u043e\u043d\u0440\u043e", "name:en": "Monro", "shop": "shoes"}}, {"type": "node", "id": 4161293905, "lat": 54.9522296, "lon": 73.3883396, "tags": {"name": "\u0424\u0435\u0440\u043c\u0435\u0440-\u0446\u0435\u043d\u0442\u0440.\u0440\u0444", "shop": "farm"}}, {"type": "node", "id": 4161293907, "lat": 54.9518768, "lon": 73.3883255, "tags": {"name": "\u041d\u0438\u0442\u043e\u0447\u043a\u0430", "shop": "sewing"}}, {"type": "node", "id": 4161293908, "lat": 54.9546431, "lon": 73.3884856, "tags": {"amenity": "bank", "name": "\u041e\u0422\u041f \u0411\u0430\u043d\u043a"}}, {"type": "node", "id": 4161293913, "lat": 54.9540076, "lon": 73.3880141, "tags": {"name": "\u041f\u043b\u0430\u0442\u043e\u043d", "office": "company"}}, {"type": "node", "id": 4161293920, "lat": 54.9534074, "lon": 73.3875101, "tags": {"amenity": "bank", "name": "\u0421\u041a\u0411-\u0431\u0430\u043d\u043a"}}, {"type": "node", "id": 4161293923, "lat": 54.9524127, "lon": 73.3883982, "tags": {"name": "\u0421\u0432\u0435\u0436\u0435\u0432\u044a", "shop": "beverages"}}, {"type": "node", "id": 4161293925, "lat": 54.9533084, "lon": 73.388173, "tags": {"addr:housenumber": "45", "addr:street": "\u043f\u0440\u043e\u0441\u043f\u0435\u043a\u0442 \u041a\u0430\u0440\u043b\u0430 \u041c\u0430\u0440\u043a\u0441\u0430", "amenity": "pharmacy", "contact:vk": "club96398900", "email": "semeynay@bk.ru", "name": "\u0421\u0435\u043c\u0435\u0439\u043d\u0430\u044f", "opening_hours": "24/7", "phone": "+7 3812 40 79 07", "website": "https://apteka-omsk.ru"}}, {"type": "node", "id": 4161293928, "lat": 54.9542828, "lon": 73.3873402, "tags": {"name": "Disconto", "shop": "shoes"}}, {"type": "node", "id": 4161293931, "lat": 54.9523431, "lon": 73.3883442, "tags": {"amenity": "cafe", "level": "-1", "name": "\u041d\u043e\u0442\u0430"}}, {"type": "node", "id": 4161293932, "lat": 54.9541152, "lon": 73.3873728, "tags": {"name": "\u0423\u043d\u0446\u0438\u044f", "shop": "tea"}}, {"type": "node", "id": 4161293933, "lat": 54.9536283, "lon": 73.3874672, "tags": {"addr:postcode": "644048", "amenity": "pharmacy", "contact:vk": "farmakopeika", "name": "\u0424\u0430\u0440\u043c\u0430\u043a\u043e\u043f\u0435\u0439\u043a\u0430", "opening_hours": "Mo-Su 09:00-21:00", "phone": "+7 800 200 97 07", "website": "https://farmakopeika.ru/"}}, {"type": "node", "id": 4161293936, "lat": 54.9546042, "lon": 73.3879665, "tags": {"name": "\u042e\u043d\u0438\u0447\u0435\u043b", "shop": "shoes"}}, {"type": "node", "id": 4161293938, "lat": 54.95203, "lon": 73.3876667, "tags": {"name": "\u0416\u0435\u043c\u0447\u0443\u0433", "shop": "beauty"}}, {"type": "node", "id": 4161293946, "lat": 54.9532264, "lon": 73.3881916}, {"type": "node", "id": 4161293949, "lat": 54.953244, "lon": 73.3884271}, {"type": "node", "id": 4161293954, "lat": 54.9538966, "lon": 73.3874152, "tags": {"name": "\u041d\u0430 \u041c\u0430\u0440\u043a\u0441\u0430", "shop": "convenience"}}, {"type": "node", "id": 4161293957, "lat": 54.954752, "lon": 73.3869123, "tags": {"name": "\u0421\u0430\u043d\u0442\u0435\u0445\u043d\u0438\u043a", "shop": "bathroom_furnishing"}}, {"type": "node", "id": 4161293958, "lat": 54.9547387, "lon": 73.3872518}, {"type": "node", "id": 4161293959, "lat": 54.954771, "lon": 73.3872092}, {"type": "node", "id": 4342166007, "lat": 54.9512518, "lon": 73.3896733, "tags": {"addr:flats": "181-216", "entrance": "staircase", "ref": "6"}}, {"type": "node", "id": 4342166009, "lat": 54.9514482, "lon": 73.3895906, "tags": {"addr:flats": "145-180", "entrance": "staircase", "ref": "5"}}, {"type": "node", "id": 4342166011, "lat": 54.9516409, "lon": 73.3895096, "tags": {"addr:flats": "109-144", "entrance": "staircase", "ref": "4"}}, {"type": "node", "id": 4342166013, "lat": 54.9518393, "lon": 73.3894261, "tags": {"addr:flats": "73-108", "entrance": "staircase", "ref": "3"}}, {"type": "node", "id": 4342166014, "lat": 54.9518676, "lon": 73.3885242, "tags": {"entrance": "yes"}}, {"type": "node", "id": 4342166015, "lat": 54.9520124, "lon": 73.38853, "tags": {"entrance": "yes"}}, {"type": "node", "id": 4342166016, "lat": 54.9520285, "lon": 73.3893466, "tags": {"addr:flats": "37-72", "entrance": "staircase", "ref": "2"}}, {"type": "node", "id": 4342166017, "lat": 54.9521434, "lon": 73.3885352, "tags": {"entrance": "yes"}}, {"type": "node", "id": 4342166018, "lat": 54.9522232, "lon": 73.3892647, "tags": {"addr:flats": "1-36", "entrance": "staircase", "ref": "1"}}, {"type": "node", "id": 4342166019, "lat": 54.952319, "lon": 73.3885422, "tags": {"entrance": "yes"}}, {"type": "node", "id": 4380294828, "lat": 54.9520122, "lon": 73.3870005, "tags": {"addr:flats": "1-20", "entrance": "staircase", "ref": "1"}}, {"type": "node", "id": 4380294829, "lat": 54.9520204, "lon": 73.3867687, "tags": {"addr:flats": "21-40", "entrance": "staircase", "ref": "2"}}, {"type": "node", "id": 4380294830, "lat": 54.9520344, "lon": 73.3863751, "tags": {"access": "private", "addr:flats": "1-10", "entrance": "staircase", "ref": "1"}}, {"type": "node", "id": 4380294831, "lat": 54.9520418, "lon": 73.3861666, "tags": {"access": "private", "addr:flats": "12-20", "entrance": "staircase", "ref": "2"}}, {"type": "node", "id": 4380294832, "lat": 54.9520498, "lon": 73.3859399, "tags": {"access": "private", "addr:flats": "21-30", "entrance": "staircase", "ref": "3"}}, {"type": "node", "id": 4380294833, "lat": 54.9520566, "lon": 73.385749, "tags": {"entrance": "staircase", "ref": "4"}}, {"type": "node", "id": 4380294834, "lat": 54.9520667, "lon": 73.3854627, "tags": {"addr:flats": "1-15", "entrance": "staircase", "ref": "1"}}, {"type": "node", "id": 4380294837, "lat": 54.9521849, "lon": 73.3854419, "tags": {"addr:flats": "16-30", "entrance": "staircase", "ref": "2"}}, {"type": "node", "id": 4380294838, "lat": 54.9523416, "lon": 73.3854588, "tags": {"addr:flats": "31-45", "entrance": "staircase", "ref": "3"}}, {"type": "node", "id": 4380294860, "lat": 54.9525058, "lon": 73.3854764, "tags": {"addr:flats": "56-60", "entrance": "staircase", "ref": "4"}}, {"type": "node", "id": 4380294863, "lat": 54.9526722, "lon": 73.3858594, "tags": {"addr:flats": "39-56", "entrance": "staircase", "ref": "3"}}, {"type": "node", "id": 4380294864, "lat": 54.9528908, "lon": 73.3858829, "tags": {"addr:flats": "19-38", "entrance": "staircase", "ref": "2"}}, {"type": "node", "id": 4380294865, "lat": 54.9531062, "lon": 73.3859061, "tags": {"addr:flats": "1-18", "entrance": "staircase", "ref": "1"}}, {"type": "node", "id": 4380294868, "lat": 54.9533002, "lon": 73.3856247, "tags": {"addr:flats": "271-290", "entrance": "staircase", "ref": "18"}}, {"type": "node", "id": 4380294872, "lat": 54.9534976, "lon": 73.3856402, "tags": {"addr:flats": "251-270", "entrance": "staircase", "ref": "17"}}, {"type": "node", "id": 4380294875, "lat": 54.953639, "lon": 73.3872035, "tags": {"addr:flats": "13-28", "entrance": "staircase", "ref": "2"}}, {"type": "node", "id": 4380294885, "lat": 54.953696, "lon": 73.3856558, "tags": {"addr:flats": "231-250", "entrance": "staircase", "ref": "16"}}, {"type": "node", "id": 4380294887, "lat": 54.953807, "lon": 73.3871709, "tags": {"addr:flats": "29-44", "entrance": "staircase", "ref": "3"}}, {"type": "node", "id": 4380294998, "lat": 54.9539864, "lon": 73.3856815, "tags": {"addr:flats": "215-230", "entrance": "staircase", "ref": "15"}}, {"type": "node", "id": 4380295000, "lat": 54.953998, "lon": 73.3871338, "tags": {"addr:flats": "45-58", "entrance": "staircase", "ref": "4"}}, {"type": "node", "id": 4380295009, "lat": 54.9541974, "lon": 73.385702, "tags": {"addr:flats": "195-214", "entrance": "staircase", "ref": "14"}}, {"type": "node", "id": 4380295011, "lat": 54.9542873, "lon": 73.3870777, "tags": {"addr:flats": "59-72", "entrance": "staircase", "ref": "5"}}, {"type": "node", "id": 4380295015, "lat": 54.954361, "lon": 73.3870634}, {"type": "node", "id": 4380295017, "lat": 54.9543714, "lon": 73.3857189, "tags": {"addr:flats": "176-195", "entrance": "staircase", "ref": "13"}}, {"type": "node", "id": 4380295019, "lat": 54.9543966, "lon": 73.3870565}, {"type": "node", "id": 4380295020, "lat": 54.9544776, "lon": 73.3870408, "tags": {"addr:flats": "73-88", "entrance": "staircase", "ref": "6"}}, {"type": "node", "id": 4380295023, "lat": 54.9545232, "lon": 73.3870319}, {"type": "node", "id": 4380295028, "lat": 54.9545536, "lon": 73.387026}, {"type": "node", "id": 4380295029, "lat": 54.954561, "lon": 73.3860265, "tags": {"addr:flats": "141-155", "entrance": "staircase", "ref": "11"}}, {"type": "node", "id": 4380295030, "lat": 54.9545804, "lon": 73.3863383, "tags": {"addr:flats": "126-140", "entrance": "staircase", "ref": "10"}}, {"type": "node", "id": 4380295031, "lat": 54.9545959, "lon": 73.3865867, "tags": {"addr:flats": "114-125", "entrance": "staircase", "ref": "9"}}, {"type": "node", "id": 4380295032, "lat": 54.9546111, "lon": 73.3868298, "tags": {"addr:flats": "102-113", "entrance": "staircase", "ref": "8"}}, {"type": "node", "id": 4616273576, "lat": 54.9526369, "lon": 73.3883256, "tags": {"name": "\u0424\u0430\u0440\u043c\u0430\u043a\u043e\u043f\u0435\u0439\u043a\u0430", "was:amenity": "pharmacy"}}, {"type": "node", "id": 4786727522, "lat": 54.9528148, "lon": 73.3882551, "tags": {"name": "\u0415\u0440\u043c\u043e\u043b\u0438\u043d\u043e", "shop": "convenience"}}, {"type": "node", "id": 4786727549, "lat": 54.9529315, "lon": 73.3882286, "tags": {"amenity": "atm", "indoor": "no", "opening_hours": "24/7", "operator": "\u0411\u0430\u043d\u043a \u0412\u0422\u0411 (\u041f\u0410\u041e)"}}, {"type": "node", "id": 4786727550, "lat": 54.9529743, "lon": 73.3882189, "tags": {"amenity": "atm", "indoor": "no", "opening_hours": "24/7", "operator": "\u0411\u0430\u043d\u043a \u0413\u041f\u0411 (\u0410\u041e)"}}, {"type": "node", "id": 4786727551, "lat": 54.9532039, "lon": 73.3881967, "tags": {"name": "\u0425\u043e\u0447\u0443 \u044d\u0442\u043e \u043d\u043e\u0441\u0438\u0442\u044c", "was:shop": "clothes"}}, {"type": "node", "id": 4786727552, "lat": 54.954724, "lon": 73.3865063, "tags": {"shop": "convenience"}}, {"type": "node", "id": 4786727553, "lat": 54.95462, "lon": 73.3872748, "tags": {"shop": "convenience"}}, {"type": "node", "id": 4786727554, "lat": 54.9545564, "lon": 73.387287, "tags": {"name": "\u041a\u0443\u0440\u043b\u044f\u043d\u0434\u0438\u044f", "shop": "butcher"}}, {"type": "node", "id": 4786727555, "lat": 54.9546246, "lon": 73.3882387, "tags": {"name": "\u041c\u0438\u043b\u0435\u0441\u0430", "shop": "clothes"}}, {"type": "node", "id": 4811911843, "lat": 54.9520227, "lon": 73.3883314, "tags": {"name": "Beer\u043b\u043e\u0433\u0430", "shop": "beverages"}}, {"type": "node", "id": 4811911865, "lat": 54.9541738, "lon": 73.3873613, "tags": {"name": "\u041a\u043e\u043b\u0438\u0431\u0440\u0438", "shop": "travel_agency"}}, {"type": "node", "id": 5434072693, "lat": 54.9543964, "lon": 73.3873182, "tags": {"name": "\u0417\u0430\u043f\u043e\u0432\u0435\u0434\u043d\u0438\u043a", "shop": "pet"}}, {"type": "node", "id": 7117267770, "lat": 54.9526666, "lon": 73.3883188}, {"type": "node", "id": 7117267771, "lat": 54.9526644, "lon": 73.3882893}, {"type": "node", "id": 7117267772, "lat": 54.9531625, "lon": 73.3882061}, {"type": "node", "id": 7117267773, "lat": 54.9531603, "lon": 73.3881766}, {"type": "node", "id": 7117267774, "lat": 54.9540475, "lon": 73.388005}, {"type": "node", "id": 7117267775, "lat": 54.9540453, "lon": 73.3879755}, {"type": "node", "id": 7117267776, "lat": 54.9538412, "lon": 73.3880519}, {"type": "node", "id": 7117267777, "lat": 54.953839, "lon": 73.3880224}, {"type": "node", "id": 7117267778, "lat": 54.9533543, "lon": 73.3881625}, {"type": "node", "id": 7117267779, "lat": 54.9533521, "lon": 73.388133}, {"type": "node", "id": 7463236828, "lat": 54.9544672, "lon": 73.3873044}, {"type": "node", "id": 7710806911, "lat": 54.9518948, "lon": 73.3870265, "tags": {"amenity": "post_office", "contact:email": "Ivaschenko.av@cdek.ru", "contact:phone": "+7 381 2936151", "contact:website": "https://www.cdek.ru/", "name": "\u0421\u0414\u042d\u041a", "opening_hours": "Mo-Fr 10:00-21:00; Sa-Su 10:00-20:00"}}, {"type": "node", "id": 7710806912, "lat": 54.9529113, "lon": 73.3882332, "tags": {"name": "\u0426\u0435\u043d\u0442\u0440 \u043a\u043d\u0438\u0433\u0430", "shop": "books"}}, {"type": "node", "id": 10711609468, "lat": 54.9525026, "lon": 73.3872352}, {"type": "node", "id": 10711609469, "lat": 54.9525208, "lon": 73.3875511}, {"type": "node", "id": 10711609470, "lat": 54.953245, "lon": 73.387452}, {"type": "node", "id": 10711609471, "lat": 54.9531994, "lon": 73.3864546}, {"type": "node", "id": 10711609472, "lat": 54.9530161, "lon": 73.38648}, {"type": "node", "id": 10711609473, "lat": 54.9530468, "lon": 73.3871513}, {"type": "node", "id": 10711609474, "lat": 54.9524233, "lon": 73.3872491}, {"type": "node", "id": 10711609475, "lat": 54.952386, "lon": 73.3866034}, {"type": "node", "id": 10711609476, "lat": 54.9522156, "lon": 73.3866332}, {"type": "node", "id": 10711609477, "lat": 54.9522711, "lon": 73.3875948}, {"type": "way", "id": 31641514, "nodes": [353909090, 4380294834, 353909091, 4380294837, 4380294838, 4380294860, 353909094, 353909096, 353909097, 353909099, 353909090], "tags": {"addr:housenumber": "1\u0412", "addr:postcode": "644048", "addr:street": "\u0443\u043b\u0438\u0446\u0430 \u0421\u0435\u0440\u043e\u0432\u0430", "building": "apartments", "building:levels": "5", "roof:shape": "hipped"}}, {"type": "way", "id": 31641515, "nodes": [353909101, 4380294833, 4380294832, 4380294831, 4380294830, 353909103, 353909104, 353909105, 353909101], "tags": {"addr:housenumber": "1\u0411", "addr:street": "\u0443\u043b\u0438\u0446\u0430 \u0421\u0435\u0440\u043e\u0432\u0430", "building": "apartments", "building:levels": "5"}}, {"type": "way", "id": 31641518, "nodes": [2037688808, 2037688806, 4380294865, 4380294864, 4380294863, 353909111, 353909112, 2037688808], "tags": {"addr:housenumber": "1\u0410", "addr:postcode": "644048", "addr:street": "\u0443\u043b\u0438\u0446\u0430 \u0421\u0435\u0440\u043e\u0432\u0430", "building": "apartments", "building:levels": "5"}}, {"type": "way", "id": 31641521, "nodes": [353909113, 1865341112, 1865341111, 1865341110, 1865341109, 353909116, 4161293949, 353909117, 1865341118, 1865341114, 1865341117, 1865341113, 353909120, 353909122, 4161293908, 4786727555, 4161293936, 353909125, 4161293904, 7117267775, 7117267774, 4161293913, 4102269947, 1438065307, 7117267776, 7117267777, 4161293899, 1676542098, 4161293894, 7117267779, 7117267778, 4161293925, 4161293946, 4786727551, 7117267772, 7117267773, 4161293275, 4786727550, 4786727549, 7710806912, 4786727522, 4161293891, 7117267771, 7117267770, 4616273576, 353909129, 353909131, 353909113], "tags": {"addr:housenumber": "45", "addr:street": "\u043f\u0440\u043e\u0441\u043f\u0435\u043a\u0442 \u041a\u0430\u0440\u043b\u0430 \u041c\u0430\u0440\u043a\u0441\u0430", "building": "apartments", "building:levels": "5"}}, {"type": "way", "id": 31641526, "nodes": [1527968364, 353909155, 353909140, 4380294868, 4380294872, 4380294885, 1527968361, 4380294998, 4380295009, 4380295017, 2037688826, 2037688827, 353909142, 4380295029, 4380295030, 4380295031, 1527968442, 4380295032, 353909143, 4380295028, 4380295023, 4380295020, 4380295019, 4380295015, 4380295011, 1527968399, 2321502449, 4380295000, 4380294887, 4380294875, 353909144, 353909147, 353909148, 353909150, 4161293920, 4161293933, 4161293954, 2321502450, 4161293932, 4811911865, 1527968401, 4161293928, 5434072693, 7463236828, 4786727554, 4786727553, 4161293898, 4161293958, 4161293282, 4161293959, 4161293957, 1527968443, 4786727552, 4161293890, 353909153, 1527968364], "tags": {"addr:housenumber": "38", "addr:postcode": "644048", "addr:street": "\u043f\u0440\u043e\u0441\u043f\u0435\u043a\u0442 \u041a\u0430\u0440\u043b\u0430 \u041c\u0430\u0440\u043a\u0441\u0430", "building": "apartments", "building:levels": "5"}}, {"type": "way", "id": 31645129, "nodes": [353918916, 4380294829, 4380294828, 353918922, 353918926, 7710806911, 353918928, 353918916], "tags": {"addr:housenumber": "42", "addr:street": "\u043f\u0440\u043e\u0441\u043f\u0435\u043a\u0442 \u041a\u0430\u0440\u043b\u0430 \u041c\u0430\u0440\u043a\u0441\u0430", "building": "apartments", "building:levels": "5"}}, {"type": "way", "id": 31645130, "nodes": [353918932, 353918936, 353918940, 353918942, 4342166007, 4342166009, 4342166011, 4342166013, 4342166016, 4342166018, 353918932], "tags": {"addr:housenumber": "2", "addr:street": "\u0410\u043d\u0433\u0430\u0440\u0441\u043a\u0430\u044f \u0443\u043b\u0438\u0446\u0430", "building": "apartments", "building:levels": "9"}}, {"type": "way", "id": 31645132, "nodes": [353918959, 4161293923, 353918962, 4342166019, 4342166017, 4342166015, 4342166014, 353918964, 353918969, 4161293907, 4161293893, 4811911843, 4161293288, 4161293905, 4161293931, 353918959], "tags": {"addr:housenumber": "47", "addr:street": "\u043f\u0440\u043e\u0441\u043f\u0435\u043a\u0442 \u041a\u0430\u0440\u043b\u0430 \u041c\u0430\u0440\u043a\u0441\u0430", "building": "apartments", "building:levels": "5"}}, {"type": "way", "id": 88479069, "nodes": [1027794818, 1027794668, 1027793903, 2812688600, 2812689401, 1027793316, 1027794818], "tags": {"addr:housenumber": "6", "addr:street": "\u0443\u043b\u0438\u0446\u0430 \u041a\u043e\u0442\u043e\u0432\u0441\u043a\u043e\u0433\u043e", "building": "apartments", "building:levels": "3"}}, {"type": "way", "id": 175968504, "nodes": [1865341106, 1865341103, 1865341104, 1877231919, 1865341107, 4161293938, 1865341106], "tags": {"addr:housenumber": "42/1", "addr:street": "\u043f\u0440\u043e\u0441\u043f\u0435\u043a\u0442 \u041a\u0430\u0440\u043b\u0430 \u041c\u0430\u0440\u043a\u0441\u0430", "building": "apartments", "building:levels": "9"}}, {"type": "way", "id": 1151415617, "nodes": [10711609468, 10711609469, 10711609470, 10711609471, 10711609472, 10711609473, 10711609468], "tags": {"addr:housenumber": "40", "addr:street": "\u043f\u0440\u043e\u0441\u043f\u0435\u043a\u0442 \u041a\u0430\u0440\u043b\u0430 \u041c\u0430\u0440\u043a\u0441\u0430", "building": "apartments", "building:levels": "9", "name": "\u0416\u041a \"\u0413\u0440\u0430\u0444\""}}, {"type": "way", "id": 1151415618, "nodes": [10711609468, 10711609474, 10711609475, 10711609476, 10711609477, 10711609469, 10711609468], "tags": {"addr:city": "\u041e\u043c\u0441\u043a", "addr:housenumber": "40", "addr:street": "\u043f\u0440\u043e\u0441\u043f\u0435\u043a\u0442 \u041a\u0430\u0440\u043b\u0430 \u041c\u0430\u0440\u043a\u0441\u0430", "building": "apartments", "building:levels": "5", "name": "\u0416\u041a \"\u0413\u0440\u0430\u0444\""}}]}