{"version": 0.6, "generator": "Overpass API 0.7.62.1 084b4234", "osm3s": {"timestamp_osm_base": "2024-05-17T19:34:00Z", "copyright": "The data included in this document is from www.openstreetmap.org. The data is made available under ODbL."}, "elements": [{"type": "node", "id": 633147735, "lat": 59.9334752, "lon": 30.3112091, "tags": {"air_conditioning": "yes", "alt_name": "\u0422\u043e\u043a\u0438\u043e-\u0421\u0438\u0442\u0438", "amenity": "restaurant", "brand": "\u0422\u043e\u043a\u0438\u043e-\u0421\u0438\u0442\u0438", "brand:wikidata": "Q62758690", "check_date": "2023-07-03", "contact:phone": "+7 812 6777062", "contact:vk": "https://vk.com/club10958821", "contact:website": "https://www.tokyo-city.ru", "cuisine": "asian;italian;japanese;sushi", "delivery": "yes", "diet:vegetarian": "yes", "indoor_seating": "yes", "internet_access": "wlan", "internet_access:fee": "customers", "name": "\u0422\u043e\u043a\u0438\u043e-City", "name:en": "Tokyo-City", "name:ru": "\u0422\u043e\u043a\u0438\u043e-\u0421\u0438\u0442\u0438", "opening_hours": "Fr-Sa 11:00-01:00; Mo-Th,Su 12:00-01:00", "operator": "\u041e\u041e\u041e \u00ab\u041a\u0438\u0437\u0438\u043b\u00bb", "outdoor_seating": "no", "payment:cash": "yes", "payment:contactless": "yes", "payment:credit_cards": "yes", "payment:debit_cards": "yes", "payment:mastercard": "yes", "payment:visa": "yes", "reservation": "yes", "smoking": "no", "takeaway": "yes", "wheelchair": "yes"}}, {"type": "node", "id": 633147736, "lat": 59.933103, "lon": 30.3110817, "tags": {"amenity": "restaurant", "check_date": "2023-11-23", "name": "\u041a\u0430\u043b\u0438\u043e\u0441\u0442\u0440\u043e", "opening_hours": "Mo-Th,Su 12:00-22:30; Fr-Sa 12:00-23:30"}}, {"type": "node", "id": 806509590, "lat": 59.9342883, "lon": 30.3131432, "tags": {"amenity": "restaurant", "check_date": "2023-07-03", "contact:facebook": "https://www.facebook.com/jeromerestaurant/", "contact:phone": "+7 812 3146443", "contact:website": "https://jeromerestaurant.ru/", "cuisine": "french", "indoor_seating": "yes", "name": "J\u00e9r\u00f4me", "opening_hours": "09:00-24:00", "outdoor_seating": "no"}}, {"type": "node", "id": 806724642, "lat": 59.9337304, "lon": 30.3127991, "tags": {"amenity": "restaurant", "check_date": "2023-11-23", "cuisine": "fish", "name": "Sea, Signora", "opening_hours": "Mo-Th,Su 12:00-24:00; Fr-Sa 12:00-02:00"}}, {"type": "node", "id": 918186962, "lat": 59.9340883, "lon": 30.31288, "tags": {"amenity": "restaurant", "check_date": "2023-07-03", "name": "\u0414\u043e\u043c \u043c\u044f\u0441\u043d\u0438\u043a\u0430", "name:en": "Butcher House", "name:ru": "\u0414\u043e\u043c \u043c\u044f\u0441\u043d\u0438\u043a\u0430", "opening_hours": "Mo-Th,Su 10:00-23:00; Fr-Sa 10:00-24:00"}}, {"type": "node", "id": 2266978106, "lat": 59.933651, "lon": 30.3140922, "tags": {"amenity": "restaurant", "check_date": "2022-10-26", "contact:vk": "https://vk.com/cleanplates", "email": "gorohovaya13@gmail.com", "internet_access": "wlan", "internet_access:fee": "customers", "name": "\u041e\u0431\u0449\u0435\u0441\u0442\u0432\u043e \u0447\u0438\u0441\u0442\u044b\u0445 \u0442\u0430\u0440\u0435\u043b\u043e\u043a", "name:en": "Clean plates society", "opening_hours": "11:00-23:00", "payment:credit_cards": "yes", "payment:debit_cards": "yes", "phone": "+7 812 9349764", "website": "https://www.cleanplatescafe.com/", "wheelchair": "no"}}, {"type": "node", "id": 2407188221, "lat": 59.9333692, "lon": 30.3118102, "tags": {"amenity": "restaurant", "check_date": "2023-11-23", "name": "Da Manu", "opening_hours": "12:00-24:00"}}, {"type": "node", "id": 2407215419, "lat": 59.9339028, "lon": 30.3123739, "tags": {"amenity": "restaurant", "check_date": "2023-07-03", "check_date:opening_hours": "2022-05-14", "contact:vk": "https://vk.com/phalihinkali", "cuisine": "georgian", "name": "\u041f\u0445\u0430\u043b\u0438-\u0425\u0438\u043d\u043a\u0430\u043b\u0438", "opening_hours": "Mo-Th,Su 11:00-23:00; Fr-Sa 11:00-01:00", "phone": "+7 812 9200012", "website": "https://phali-hinkali.ru/restoran/morskaya", "wheelchair": "yes"}}, {"type": "node", "id": 2407215424, "lat": 59.9334875, "lon": 30.3121339, "tags": {"amenity": "restaurant", "check_date": "2023-11-23", "contact:instagram": "https://www.instagram.com/allseasonsrest/", "contact:vk": "https://vk.com/allseasonsrest", "cuisine": "fine_dining", "internet_access": "wlan", "level": "0", "name": "All Seasons", "opening_hours": "Mo-Th,Su 12:00-23:00; Fr-Sa 12:00-01:00", "phone": "+7 812 2400508"}}]}