{"version": 0.6, "generator": "Overpass API 0.7.62.1 084b4234", "osm3s": {"timestamp_osm_base": "2024-05-17T10:49:59Z", "copyright": "The data included in this document is from www.openstreetmap.org. The data is made available under ODbL."}, "elements": [{"type": "node", "id": 4400513190, "lat": 52.2883095, "lon": 104.282111, "tags": {"amenity": "restaurant", "name": "\u041f\u043e\u0437\u043d\u0430\u044f 38", "name:en": "Poznaya 38", "name:ru": "\u041f\u043e\u0437\u043d\u0430\u044f 38", "opening_hours": "24/7"}}, {"type": "node", "id": 5367323621, "lat": 52.287587, "lon": 104.2822718, "tags": {"amenity": "restaurant", "contact:email": "puangara@mail.ru", "contact:phone": "+7 395 2736665;+7 908 7736665", "contact:website": "https://pekin-utka.ru", "cuisine": "chinese", "name": "\u041f\u0435\u043a\u0438\u043d\u0441\u043a\u0430\u044f \u0443\u0442\u043a\u0430", "opening_hours": "Fr-Sa 12:00-02:00; Mo-Th,Su 12:00-24:00"}}, {"type": "node", "id": 11169440237, "lat": 52.2871977, "lon": 104.2832255, "tags": {"amenity": "restaurant", "name:en": "Thirty Nine Fifty Two 3952"}}, {"type": "node", "id": 11175912337, "lat": 52.2871548, "lon": 104.2831567, "tags": {"amenity": "restaurant", "name:es": "3952"}}]}