{"version": 0.6, "generator": "Overpass API 0.7.62.1 084b4234", "osm3s": {"timestamp_osm_base": "2024-05-14T16:36:46Z", "copyright": "The data included in this document is from www.openstreetmap.org. The data is made available under ODbL."}, "elements": [{"type": "node", "id": 477004122, "lat": 53.1913505, "lon": 50.1891979, "tags": {"addr:floor": "4", "amenity": "restaurant", "check_date": "2023-07-29", "cuisine": "japanese", "name": "\u0422\u043e \u0421\u0451", "opening_hours": "10:00-22:00", "phone": "+7 846 205-52-15", "website": "https://toce.ru/"}}, {"type": "node", "id": 7568756128, "lat": 53.1913996, "lon": 50.1890775, "tags": {"addr:floor": "4", "amenity": "restaurant", "check_date": "2023-07-29", "contact:phone": "+7 846 2052325", "contact:website": "https://luigi.ru/", "cuisine": "italian", "name": "\u041b\u0443\u0438\u0434\u0436\u0438", "opening_hours": "Mo-Su 10:00-22:00"}}, {"type": "node", "id": 7568808003, "lat": 53.1913595, "lon": 50.1889451, "tags": {"addr:floor": "4", "amenity": "restaurant", "check_date": "2023-07-29", "cuisine": "georgian", "name": "\u041c\u0443\u0448\u043c\u0443\u043b\u0430", "opening_hours": "Mo-Su 10:00-23:00", "phone": "+7 846 2055363", "website": "https://mushmula.ru/"}}, {"type": "node", "id": 11074945023, "lat": 53.1901399, "lon": 50.189757, "tags": {"addr:floor": "4", "amenity": "restaurant", "check_date": "2023-07-29", "cuisine": "vietnamese", "name": "Pro king good"}}, {"type": "node", "id": 11075324858, "lat": 53.1906333, "lon": 50.1905771, "tags": {"addr:floor": "4", "amenity": "restaurant", "check_date": "2023-07-29", "name": "\u0421\u043c\u043e\u0420\u043e\u0434\u0438\u043d\u0430", "opening_hours": "12:00-22:00", "payment:credit_cards": "yes", "payment:debit_cards": "yes", "payment:maestro": "yes", "payment:mastercard": "yes", "payment:visa": "yes", "phone": "+7 939 700-30-03", "wheelchair": "yes"}}]}