{"version": 0.6, "generator": "Overpass API 0.7.62.1 084b4234", "osm3s": {"timestamp_osm_base": "2024-05-13T21:50:59Z", "copyright": "The data included in this document is from www.openstreetmap.org. The data is made available under ODbL."}, "elements": [{"type": "node", "id": 1101780403, "lat": 55.7968995, "lon": 37.4864329, "tags": {"addr:postcode": "123060", "amenity": "bank", "atm": "yes", "name": "\u0421\u041c\u041f \u0411\u0430\u043d\u043a", "name:en": "SMP Bank", "opening_hours": "Mo-Fr 10:00-17:00", "operator": "\u0421\u041c\u041f \u0411\u0430\u043d\u043a", "website": "https://smpbank.ru/"}}, {"type": "node", "id": 1245467881, "lat": 55.7966748, "lon": 37.4868619, "tags": {"amenity": "bank", "brand": "\u0420\u043e\u0441\u0441\u0435\u043b\u044c\u0445\u043e\u0437\u0431\u0430\u043d\u043a", "brand:en": "Rosselkhozbank", "brand:ru": "\u0420\u043e\u0441\u0441\u0435\u043b\u044c\u0445\u043e\u0437\u0431\u0430\u043d\u043a", "brand:wikidata": "Q3920226", "brand:wikipedia": "en:Russian Agricultural Bank", "name": "\u0420\u043e\u0441\u0441\u0435\u043b\u044c\u0445\u043e\u0437\u0431\u0430\u043d\u043a", "name:en": "Rosselkhozbank"}}, {"type": "node", "id": 1257008189, "lat": 55.7963412, "lon": 37.4874832, "tags": {"amenity": "bank", "atm": "yes", "name": "\u041c\u0435\u0442\u0430\u043b\u043b\u0438\u043d\u0432\u0435\u0441\u0442\u0431\u0430\u043d\u043a", "name:en": "Metallinvestbank", "opening_hours": "Mo-Fr 09:00-20:00; Sa-Su 10:00-17:00"}}]}