{"version": 0.6, "generator": "Overpass API 0.7.62.1 084b4234", "osm3s": {"timestamp_osm_base": "2024-05-14T03:32:02Z", "copyright": "The data included in this document is from www.openstreetmap.org. The data is made available under ODbL."}, "elements": [{"type": "node", "id": 8065721265, "lat": 53.2200645, "lon": 50.2625424, "tags": {"amenity": "fast_food", "contact:phone": "+7 927 2080119", "contact:website": "https://shaurmaniasamara.2gis.biz", "name": "\u0428\u0430\u0443\u0440\u043c\u0430\u043d\u0438\u044f", "opening_hours": "24/7", "operator": "\u0428\u0430\u0443\u0440\u043c\u0430\u043d\u0438\u044f"}}, {"type": "node", "id": 9992574824, "lat": 53.220177, "lon": 50.262923, "tags": {"amenity": "fast_food", "contact:phone": "+7 341 2908292;+7 800 3334130", "contact:website": "https://coffee-like.com/", "cuisine": "coffee_shop", "name": "Coffee Like", "opening_hours": "Mo-Su 08:00-21:00"}}, {"type": "node", "id": 10046748246, "lat": 53.220399, "lon": 50.262999, "tags": {"amenity": "fast_food", "contact:email": "FeedBack@burgerking.ru", "contact:phone": "+7 495 5445000", "contact:website": "https://burgerkingrus.ru/", "name": "\u0411\u0443\u0440\u0433\u0435\u0440 \u041a\u0438\u043d\u0433", "opening_hours": "Mo-Su 10:00-22:00"}}, {"type": "node", "id": 11185621595, "lat": 53.2204146, "lon": 50.2626898, "tags": {"amenity": "fast_food", "contact:phone": "+7 800 3508418", "contact:website": "https://cofix.global", "cuisine": "coffee_shop", "name": "Cofix", "opening_hours": "Mo-Fr 07:00-21:00; Sa-Su 09:00-20:00"}}]}