{"version": 0.6, "generator": "Overpass API 0.7.62.1 084b4234", "osm3s": {"timestamp_osm_base": "2024-05-14T00:58:30Z", "copyright": "The data included in this document is from www.openstreetmap.org. The data is made available under ODbL."}, "elements": [{"type": "node", "id": 1354130634, "lat": 55.7440106, "lon": 52.4334959, "tags": {"amenity": "atm", "brand": "\u0421\u0431\u0435\u0440\u0431\u0430\u043d\u043a", "brand:en": "Sberbank", "brand:ru": "\u0421\u0431\u0435\u0440\u0431\u0430\u043d\u043a", "brand:wikidata": "Q205012", "brand:wikipedia": "ru:\u0421\u0431\u0435\u0440\u0431\u0430\u043d\u043a \u0420\u043e\u0441\u0441\u0438\u0438", "operator": "\u041f\u0410\u041e \u0421\u0431\u0435\u0440\u0431\u0430\u043d\u043a", "operator:wikidata": "Q205012", "website": "https://www.sberbank.ru/"}}, {"type": "node", "id": 4189701226, "lat": 55.7433561, "lon": 52.4322324, "tags": {"amenity": "atm", "brand": "\u0410\u043a \u0411\u0430\u0440\u0441 \u0411\u0430\u043d\u043a", "brand:en": "Ak Bars Bank", "brand:ru": "\u0410\u043a \u0411\u0430\u0440\u0441 \u0411\u0430\u043d\u043a", "brand:wikidata": "Q4059103", "brand:wikipedia": "ru:\u0410\u043a \u0411\u0430\u0440\u0441 (\u0431\u0430\u043d\u043a)", "contact:email": "kanc@akbars.ru", "contact:facebook": "https://www.facebook.com/akbarsbank", "contact:instagram": "https://www.instagram.com/akbars_bank/", "contact:ok": "https://ok.ru/akbarsbank", "contact:phone": "+7 800 2005303", "contact:twitter": "https://twitter.com/akbars_ru", "contact:vk": "https://vk.com/akbars_ru", "contact:website": "https://akbars.ru/", "opening_hours": "Mo-Su 09:00-20:00", "operator": "\u041f\u0410\u041e \"\u0410\u041a \u0411\u0410\u0420\u0421\" \u0411\u0410\u041d\u041a", "operator:wikidata": "Q4059103", "telegram": "https://t.me/akbars_ru"}}, {"type": "node", "id": 4189701227, "lat": 55.7434914, "lon": 52.4325282, "tags": {"amenity": "atm", "operator": "\u041f\u0410\u041e \u00ab\u0411\u0430\u043d\u043a \u0417\u0435\u043d\u0438\u0442\u00bb"}}, {"type": "node", "id": 4189701228, "lat": 55.7437273, "lon": 52.4329103, "tags": {"amenity": "atm", "drive_through": "no", "operator": "\u0411\u0430\u043d\u043a \u0412\u0422\u0411 (\u041f\u0410\u041e)"}}]}