{"version": 0.6, "generator": "Overpass API 0.7.62.1 084b4234", "osm3s": {"timestamp_osm_base": "2024-05-14T02:37:30Z", "copyright": "The data included in this document is from www.openstreetmap.org. The data is made available under ODbL."}, "elements": [{"type": "node", "id": 610304028, "lat": 56.3207817, "lon": 43.9475744, "tags": {"amenity": "cafe", "description": "\u041a\u0430\u0444\u0435 \u043d\u0430 4-\u043e\u043c \u044d\u0442\u0430\u0436\u0435 \u0422\u0426 \u00ab\u0420\u0435\u0441\u043f\u0443\u0431\u043b\u0438\u043a\u0430\u00bb", "name": "\u0415\u0434\u043e\u043a"}}, {"type": "node", "id": 2198083172, "lat": 56.3194427, "lon": 43.9477292, "tags": {"addr:floor": "1", "amenity": "cafe", "check_date": "2023-10-29", "level": "0", "name": "\u0417\u043e\u043b\u043e\u0442\u0430\u044f \u0440\u044b\u0431\u043a\u0430 \u21161", "wheelchair": "no"}}, {"type": "node", "id": 6536736816, "lat": 56.3204552, "lon": 43.9478874, "tags": {"amenity": "cafe", "brand": "Coffee Like", "brand:wikidata": "Q55662627", "contact:email": "hotline@coffee-like.com", "contact:phone": "+7 341 2908292;+7 800 3334130", "contact:website": "https://coffee-like.com/", "cuisine": "coffee_shop", "name": "Coffee Like", "opening_hours": "Mo-Su 09:00-21:00", "operator": "\u0421\u0435\u043c\u0438\u043b\u0430\u0440\u0441\u043a\u0438\u0439 \u041d\u0438\u043a\u0438\u0442\u0430 \u0421\u0435\u0440\u0433\u0435\u0435\u0432\u0438\u0447", "takeaway": "yes"}}, {"type": "node", "id": 11482378457, "lat": 56.3205262, "lon": 43.9465946, "tags": {"amenity": "cafe", "contact:email": "460482@mail.ru", "contact:phone": "+7 930 7067197", "contact:website": "https://domakaron.ru/", "name": "\u0414\u043e\u041c\u0430\u043a\u0430\u0440\u043e\u043d", "opening_hours": "Mo-Su 09:00-21:00"}}]}