{"version": 0.6, "generator": "Overpass API 0.7.62.1 084b4234", "osm3s": {"timestamp_osm_base": "2024-05-18T00:46:51Z", "copyright": "The data included in this document is from www.openstreetmap.org. The data is made available under ODbL."}, "elements": [{"type": "node", "id": 690364385, "lat": 55.0305976, "lon": 73.2504378}, {"type": "node", "id": 690364401, "lat": 55.029865, "lon": 73.2509067}, {"type": "node", "id": 690364403, "lat": 55.0299842, "lon": 73.2509008}, {"type": "node", "id": 690364405, "lat": 55.030516, "lon": 73.2503128}, {"type": "node", "id": 690364406, "lat": 55.0305134, "lon": 73.2500969}, {"type": "node", "id": 690364408, "lat": 55.029454, "lon": 73.250383}, {"type": "node", "id": 690364411, "lat": 55.0294575, "lon": 73.2505673}, {"type": "node", "id": 690364413, "lat": 55.0297056, "lon": 73.2505585}, {"type": "node", "id": 690364415, "lat": 55.029702, "lon": 73.2503696}, {"type": "node", "id": 690364416, "lat": 55.0292161, "lon": 73.25039}, {"type": "node", "id": 690364419, "lat": 55.0292141, "lon": 73.2501362}, {"type": "node", "id": 690364421, "lat": 55.0293426, "lon": 73.2505749}, {"type": "node", "id": 690364422, "lat": 55.0292292, "lon": 73.2505792}, {"type": "node", "id": 690364453, "lat": 55.029174, "lon": 73.2539024}, {"type": "node", "id": 690364455, "lat": 55.0291472, "lon": 73.2517989}, {"type": "node", "id": 690364457, "lat": 55.0290617, "lon": 73.2539068}, {"type": "node", "id": 690364459, "lat": 55.0290348, "lon": 73.2518033}, {"type": "node", "id": 690364461, "lat": 55.0293565, "lon": 73.2517277}, {"type": "node", "id": 690364463, "lat": 55.0292431, "lon": 73.251732}, {"type": "node", "id": 690364469, "lat": 55.0298878, "lon": 73.2523094}, {"type": "node", "id": 690364471, "lat": 55.030007, "lon": 73.2523035}, {"type": "node", "id": 690364628, "lat": 55.0307231, "lon": 73.2504331}, {"type": "node", "id": 690364630, "lat": 55.0307461, "lon": 73.252301}, {"type": "node", "id": 690364632, "lat": 55.0306206, "lon": 73.2523057}, {"type": "node", "id": 690364633, "lat": 55.0308973, "lon": 73.2533242}, {"type": "node", "id": 690364635, "lat": 55.0310167, "lon": 73.2533196}, {"type": "node", "id": 690364639, "lat": 55.0309109, "lon": 73.2544049}, {"type": "node", "id": 690364641, "lat": 55.0310303, "lon": 73.2544003}, {"type": "node", "id": 691197155, "lat": 55.0310245, "lon": 73.2522925}, {"type": "node", "id": 691197156, "lat": 55.0309751, "lon": 73.2521104}, {"type": "node", "id": 691197159, "lat": 55.0312529, "lon": 73.2526903}, {"type": "node", "id": 691197163, "lat": 55.031604, "lon": 73.2518134}, {"type": "node", "id": 691197164, "lat": 55.0315546, "lon": 73.2516313}, {"type": "node", "id": 691197165, "lat": 55.0311441, "lon": 73.2527771}, {"type": "node", "id": 691197182, "lat": 55.0315809, "lon": 73.2544438}, {"type": "node", "id": 691197183, "lat": 55.0316897, "lon": 73.254357}, {"type": "node", "id": 691532160, "lat": 55.0290699, "lon": 73.2458897}, {"type": "node", "id": 691532162, "lat": 55.0289514, "lon": 73.2458958}, {"type": "node", "id": 691532165, "lat": 55.0290875, "lon": 73.2485177}, {"type": "node", "id": 691532166, "lat": 55.0290853, "lon": 73.2483468}, {"type": "node", "id": 691532167, "lat": 55.0291056, "lon": 73.2479857}, {"type": "node", "id": 691532168, "lat": 55.0289871, "lon": 73.2479918}, {"type": "node", "id": 691532186, "lat": 55.0293993, "lon": 73.2475277}, {"type": "node", "id": 691532187, "lat": 55.0293965, "lon": 73.2473306}, {"type": "node", "id": 691532188, "lat": 55.0293121, "lon": 73.2482192}, {"type": "node", "id": 691532189, "lat": 55.0291983, "lon": 73.2482236}, {"type": "node", "id": 691532190, "lat": 55.0291998, "lon": 73.2483424}, {"type": "node", "id": 691532191, "lat": 55.0293141, "lon": 73.2483779}, {"type": "node", "id": 691532192, "lat": 55.0293234, "lon": 73.2485786}, {"type": "node", "id": 691532193, "lat": 55.029449, "lon": 73.2483727}, {"type": "node", "id": 691532194, "lat": 55.0294516, "lon": 73.2485737}, {"type": "node", "id": 691532195, "lat": 55.0292178, "lon": 73.2485126}, {"type": "node", "id": 691532204, "lat": 55.0304466, "lon": 73.2474831}, {"type": "node", "id": 691532205, "lat": 55.0304438, "lon": 73.2472861}, {"type": "node", "id": 691532227, "lat": 55.0293794, "lon": 73.2492374}, {"type": "node", "id": 691532229, "lat": 55.0296984, "lon": 73.2492238}, {"type": "node", "id": 691532233, "lat": 55.0293724, "lon": 73.2487389}, {"type": "node", "id": 691532234, "lat": 55.0296914, "lon": 73.2487253}, {"type": "node", "id": 691532235, "lat": 55.0293248, "lon": 73.2486882}, {"type": "node", "id": 691532236, "lat": 55.0292201, "lon": 73.2486923}, {"type": "node", "id": 691532438, "lat": 55.0306903, "lon": 73.2485345}, {"type": "node", "id": 691532439, "lat": 55.0305678, "lon": 73.2485406}, {"type": "node", "id": 691532441, "lat": 55.0305496, "lon": 73.2474472}, {"type": "node", "id": 691532443, "lat": 55.0306722, "lon": 73.247441}, {"type": "node", "id": 1487221150, "lat": 55.0293771, "lon": 73.2490672, "tags": {"brand": "\u041f\u044f\u0442\u0451\u0440\u043e\u0447\u043a\u0430", "brand:wikidata": "Q1768969", "brand:wikipedia": "ru:\u041f\u044f\u0442\u0451\u0440\u043e\u0447\u043a\u0430", "contact:phone": "+7 800 555-55-05", "contact:website": "https://5ka.ru", "name": "\u041f\u044f\u0442\u0451\u0440\u043e\u0447\u043a\u0430", "name:en": "Pyaterochka", "name:ru": "\u041f\u044f\u0442\u0451\u0440\u043e\u0447\u043a\u0430", "opening_hours": "08:00-22:00", "operator": "\u041e\u041e\u041e \"\u0410\u0433\u0440\u043e\u0442\u043e\u0440\u0433\"", "ref": "16953", "shop": "convenience"}}, {"type": "node", "id": 1487221235, "lat": 55.0291867, "lon": 73.2485138, "tags": {"addr:housenumber": "100", "addr:street": "\u043f\u0440\u043e\u0441\u043f\u0435\u043a\u0442 \u041c\u0438\u0440\u0430", "amenity": "pharmacy", "contact:vk": "club96398900", "dispensing": "yes", "email": "semeynay@bk.ru", "healthcare": "pharmacy", "level": "1", "name": "\u0421\u0435\u043c\u0435\u0439\u043d\u0430\u044f", "opening_hours": "08:00-22:00", "phone": "+7 3812 64 33 51", "website": "https://apteka-omsk.ru", "wheelchair": "no"}}, {"type": "node", "id": 1543776135, "lat": 55.0298264, "lon": 73.2501214}, {"type": "node", "id": 1543776137, "lat": 55.0298289, "lon": 73.2503373}, {"type": "node", "id": 1543776139, "lat": 55.0298289, "lon": 73.2503684}, {"type": "node", "id": 1923255340, "lat": 55.0306201, "lon": 73.248538, "tags": {"contact:phone": "+7 495 232-10-00", "contact:website": "https://www.ozon.ru/", "level": "1", "name": "Ozon", "opening_hours": "Mo-Su 09:00-21:00", "shop": "outpost", "wheelchair": "no"}}, {"type": "node", "id": 3240570353, "lat": 55.0290729, "lon": 73.2460668, "tags": {"addr:flats": "181-216", "entrance": "staircase", "ref": "6"}}, {"type": "node", "id": 3240570355, "lat": 55.0290787, "lon": 73.2464072, "tags": {"addr:flats": "145-180", "entrance": "staircase", "ref": "5"}}, {"type": "node", "id": 3240570356, "lat": 55.0290847, "lon": 73.2467588, "tags": {"addr:flats": "109-144", "entrance": "staircase", "ref": "4"}}, {"type": "node", "id": 3240570357, "lat": 55.0290905, "lon": 73.2471014, "tags": {"addr:flats": "73-108", "entrance": "staircase", "ref": "3"}}, {"type": "node", "id": 3240570358, "lat": 55.0290964, "lon": 73.247448, "tags": {"addr:flats": "37-72", "entrance": "staircase", "ref": "2"}}, {"type": "node", "id": 3240570359, "lat": 55.0291024, "lon": 73.2477969, "tags": {"addr:flats": "1-36", "entrance": "staircase", "ref": "1"}}, {"type": "node", "id": 3240571366, "lat": 55.0294753, "lon": 73.2475244, "tags": {"entrance": "yes"}}, {"type": "node", "id": 3240571368, "lat": 55.0296009, "lon": 73.2475191, "tags": {"entrance": "yes"}}, {"type": "node", "id": 3240571370, "lat": 55.0297238, "lon": 73.2475139, "tags": {"entrance": "yes"}}, {"type": "node", "id": 3240571372, "lat": 55.029854, "lon": 73.2475083, "tags": {"entrance": "yes"}}, {"type": "node", "id": 3240571374, "lat": 55.0299815, "lon": 73.2475029, "tags": {"entrance": "yes"}}, {"type": "node", "id": 3240571376, "lat": 55.0301105, "lon": 73.2474974, "tags": {"entrance": "yes"}}, {"type": "node", "id": 3240571378, "lat": 55.0302387, "lon": 73.247492, "tags": {"entrance": "yes"}}, {"type": "node", "id": 3240571380, "lat": 55.0303689, "lon": 73.2474864, "tags": {"entrance": "yes"}}, {"type": "node", "id": 3240571381, "lat": 55.0306751, "lon": 73.247616, "tags": {"entrance": "yes"}}, {"type": "node", "id": 3240571382, "lat": 55.0306795, "lon": 73.2478791, "tags": {"entrance": "yes"}}, {"type": "node", "id": 3240571383, "lat": 55.0306831, "lon": 73.2480997, "tags": {"entrance": "yes"}}, {"type": "node", "id": 3240571384, "lat": 55.0306874, "lon": 73.2483575, "tags": {"entrance": "yes"}}, {"type": "node", "id": 3363765396, "lat": 55.0289521, "lon": 73.2459357, "tags": {"name": "\u041e\u0432\u043e\u0449\u0438-\u0424\u0440\u0443\u043a\u0442\u044b", "opening_hours": "09:00-21:00", "shop": "greengrocer"}}, {"type": "node", "id": 3363765399, "lat": 55.0289717, "lon": 73.2470881, "tags": {"name": "\u041f\u0447\u0435\u043b\u043a\u0430", "opening_hours": "09:00-19:00", "shop": "honey"}}, {"type": "node", "id": 3878467668, "lat": 55.0292592, "lon": 73.2501351, "tags": {"level": "-1", "name": "\u041a\u0440\u0430\u0441\u043d\u043e\u0435 & \u0411\u0435\u043b\u043e\u0435", "shop": "alcohol", "website": "https://krasnoeibeloe.ru/"}}, {"type": "node", "id": 3878467671, "lat": 55.0296855, "lon": 73.2501245, "tags": {"name": "\u041c\u0430\u0433\u043d\u0438\u0442 \u041a\u043e\u0441\u043c\u0435\u0442\u0438\u043a", "shop": "chemist"}}, {"type": "node", "id": 3878467674, "lat": 55.0297783, "lon": 73.2501222, "tags": {"brand:wikidata": "Q940518", "brand:wikipedia": "ru:\u041c\u0430\u0433\u043d\u0438\u0442 (\u0441\u0435\u0442\u044c \u043c\u0430\u0433\u0430\u0437\u0438\u043d\u043e\u0432)", "contact:phone": "+7 800 2009002", "contact:website": "http://magnit-info.ru", "name": "\u041c\u0430\u0433\u043d\u0438\u0442", "name:en": "Magnit", "name:ru": "\u041c\u0430\u0433\u043d\u0438\u0442", "opening_hours": "09:00-22:00", "operator": "\u0410\u041e \u0422\u0430\u043d\u0434\u0435\u0440", "ref": "20630268", "shop": "convenience"}}, {"type": "node", "id": 3878467680, "lat": 55.0292375, "lon": 73.2512844, "tags": {"name": "\u041f\u043e \u043a\u0430\u0440\u043c\u0430\u043d\u0443", "shop": "clothes"}}, {"type": "node", "id": 3878467702, "lat": 55.0292396, "lon": 73.251444, "tags": {"name": "\u0425\u043e\u043b\u0434\u0438", "opening_hours": "09:00-22:00", "was:shop": "supermarket"}}, {"type": "node", "id": 3878467723, "lat": 55.0290486, "lon": 73.2528848, "tags": {"opening_hours": "10:00-21:00", "shop": "hairdresser"}}, {"type": "node", "id": 3885089544, "lat": 55.0294654, "lon": 73.25013, "tags": {"name": "\u0412\u0435\u0441\u043d\u0430", "shop": "mall"}}, {"type": "node", "id": 3923476562, "lat": 55.0292196, "lon": 73.2486511, "tags": {"level": "1", "name": "\u0412\u0438\u043a\u0442\u043e\u0440\u0438\u044f", "opening_hours": "09:00-20:00", "shop": "hairdresser", "wheelchair": "no"}}, {"type": "node", "id": 3923476590, "lat": 55.0290933, "lon": 73.251801, "tags": {"brand": "\u0421\u0414\u042d\u041a", "brand:wikidata": "Q28665980", "brand:wikipedia": "ru:\u0421\u0414\u042d\u041a", "contact:email": "o.pekney@cdek.ru", "contact:phone": "+7 904 588-47-77", "contact:website": "https://www.cdek.ru/", "name": "\u0421\u0414\u042d\u041a", "opening_hours": "Mo-Fr 10:00-20:00; Sa-Su 10:00-18:00", "shop": "outpost"}}, {"type": "node", "id": 3923476658, "lat": 55.0301787, "lon": 73.2501088, "tags": {"name": "\u0425\u043e\u0437\u0442\u043e\u0432\u0430\u0440\u044b", "shop": "hardware"}}, {"type": "node", "id": 4019343853, "lat": 55.0296992, "lon": 73.2491675, "tags": {"craft": "tailor", "noname": "yes", "opening_hours": "Mo-Fr 10:00-20:00; Sa-Su 10:00-19:00", "wheelchair": "no"}}, {"type": "node", "id": 4019343866, "lat": 55.0309996, "lon": 73.2522008, "tags": {"level": "1", "name": "Grimerka", "opening_hours": "09:00-19:00", "shop": "hairdresser", "wheelchair": "no"}}, {"type": "node", "id": 4019343870, "lat": 55.0296278, "lon": 73.2492268, "tags": {"amenity": "pharmacy", "contact:vk": "farmakopeika", "healthcare": "pharmacy", "level": "-1", "name": "\u0424\u0430\u0440\u043c\u0430\u043a\u043e\u043f\u0435\u0439\u043a\u0430", "opening_hours": "09:00-21:00", "phone": "+7 800 200 97 07", "website": "https://farmakopeika.ru/", "wheelchair": "no"}}, {"type": "node", "id": 4019344509, "lat": 55.0310253, "lon": 73.2520689, "tags": {"craft": "tailor"}}, {"type": "node", "id": 4079812777, "lat": 55.0294621, "lon": 73.2492339, "tags": {"level": "-1", "name": "Marafett", "opening_hours": "10:00-20:00", "shop": "chemist", "wheelchair": "no"}}, {"type": "node", "id": 4079812927, "lat": 55.0294306, "lon": 73.2492352, "tags": {"amenity": "atm", "indoor": "no", "opening_hours": "24/7", "operator": "\u041f\u0410\u041e \u0421\u0431\u0435\u0440\u0431\u0430\u043d\u043a"}}, {"type": "node", "id": 4104100144, "lat": 55.0299892, "lon": 73.2501156, "tags": {"amenity": "atm", "indoor": "no", "opening_hours": "24/7", "operator": "\u041f\u043b\u044e\u0441 \u0411\u0430\u043d\u043a"}}, {"type": "node", "id": 4125934230, "lat": 55.0292326, "lon": 73.2509115, "tags": {"brand": "\u042f\u0440\u0447\u0435!", "brand:en": "Yarche!", "level": "1", "name": "\u042f\u0440\u0447\u0435!", "name:en": "Yarche!", "shop": "convenience", "wheelchair": "yes"}}, {"type": "node", "id": 4172962838, "lat": 55.028966, "lon": 73.246751, "tags": {"name": "\u0421\u0435\u043c\u0435\u0439\u043d\u0430\u044f", "opening_hours": "09:00-20:00", "shop": "hairdresser"}}, {"type": "node", "id": 4237238020, "lat": 55.0290363, "lon": 73.2519153, "tags": {"clothes": "wedding", "name": "\u0424\u0435\u044f", "opening_hours": "10:00-19:00", "shop": "clothes"}}, {"type": "node", "id": 4298897456, "lat": 55.029365, "lon": 73.2501325, "tags": {"name": "Fix price", "shop": "variety_store"}}, {"type": "node", "id": 4298899509, "lat": 55.0300323, "lon": 73.250114, "tags": {"amenity": "atm", "indoor": "no", "opening_hours": "24/7", "operator": "\u0411\u0430\u043d\u043a \u0413\u041f\u0411 (\u0410\u041e)"}}, {"type": "node", "id": 5065938041, "lat": 55.0291493, "lon": 73.2519667, "tags": {"addr:flats": "181-216", "entrance": "staircase", "ref": "6"}}, {"type": "node", "id": 5065938042, "lat": 55.0291538, "lon": 73.2523146, "tags": {"addr:flats": "145-180", "entrance": "staircase", "ref": "5"}}, {"type": "node", "id": 5065938043, "lat": 55.0291582, "lon": 73.2526627, "tags": {"addr:flats": "109-144", "entrance": "staircase", "ref": "4"}}, {"type": "node", "id": 5065938044, "lat": 55.0291625, "lon": 73.2529997, "tags": {"addr:flats": "73-108", "entrance": "staircase", "ref": "3"}}, {"type": "node", "id": 5065938045, "lat": 55.029167, "lon": 73.2533508, "tags": {"addr:flats": "37-72", "entrance": "staircase", "ref": "2"}}, {"type": "node", "id": 5065938046, "lat": 55.0291713, "lon": 73.2536896, "tags": {"addr:flats": "1-36", "entrance": "staircase", "ref": "1"}}, {"type": "node", "id": 5320725669, "lat": 55.0291643, "lon": 73.2485147}, {"type": "node", "id": 5777310747, "lat": 55.0293735, "lon": 73.2488121, "tags": {"level": "-1", "shop": "hairdresser"}}, {"type": "node", "id": 8016242746, "lat": 55.0307237, "lon": 73.2504802}, {"type": "node", "id": 8040338286, "lat": 55.0316557, "lon": 73.2542273, "tags": {"addr:flats": "1-15", "entrance": "staircase", "ref": "1"}}, {"type": "node", "id": 8040338287, "lat": 55.0316031, "lon": 73.2540266, "tags": {"addr:flats": "16-30", "entrance": "staircase", "ref": "2"}}, {"type": "node", "id": 8040338288, "lat": 55.0315502, "lon": 73.2538246, "tags": {"addr:flats": "31-45", "entrance": "staircase", "ref": "3"}}, {"type": "node", "id": 8040338289, "lat": 55.0314999, "lon": 73.2536326, "tags": {"addr:flats": "46-55", "entrance": "staircase", "ref": "4"}}, {"type": "node", "id": 8040338290, "lat": 55.0314468, "lon": 73.2534301, "tags": {"addr:flats": "56-70", "entrance": "staircase", "ref": "5"}}, {"type": "node", "id": 8040338291, "lat": 55.0313941, "lon": 73.2532292, "tags": {"addr:flats": "71-85", "entrance": "staircase", "ref": "6"}}, {"type": "node", "id": 8040338292, "lat": 55.031338, "lon": 73.2530152, "tags": {"addr:flats": "86-100", "entrance": "staircase", "ref": "7"}}, {"type": "node", "id": 8040338293, "lat": 55.0312863, "lon": 73.2528176, "tags": {"addr:flats": "101-115", "entrance": "staircase", "ref": "8"}}, {"type": "node", "id": 11228830241, "lat": 55.0292786, "lon": 73.2505773, "tags": {"level": "-1", "name": "Birli Mag", "shop": "beverages", "wheelchair": "no"}}, {"type": "node", "id": 11295269046, "lat": 55.0296972, "lon": 73.2490556, "tags": {"brand": "Wildberries", "level": "-1", "name": "Wildberries", "opening_hours": "10:00-21:00", "shop": "outpost", "wheelchair": "no"}}, {"type": "way", "id": 54846811, "nodes": [690364628, 8016242746, 690364630, 690364632, 690364385, 690364628], "tags": {"addr:housenumber": "98\u0410", "addr:street": "\u043f\u0440\u043e\u0441\u043f\u0435\u043a\u0442 \u041c\u0438\u0440\u0430", "building": "apartments", "building:levels": "5"}}, {"type": "way", "id": 54846821, "nodes": [690364403, 690364471, 690364469, 690364401, 690364403], "tags": {"addr:housenumber": "96\u0410", "addr:street": "\u043f\u0440\u043e\u0441\u043f\u0435\u043a\u0442 \u041c\u0438\u0440\u0430", "building": "apartments", "building:levels": "5"}}, {"type": "way", "id": 54846822, "nodes": [690364415, 690364413, 690364411, 690364408]}, {"type": "way", "id": 54846823, "nodes": [1543776135, 4104100144, 4298899509, 3923476658, 690364406, 690364405, 1543776137, 1543776135], "tags": {"addr:housenumber": "98\u0411", "addr:postcode": "644089", "addr:street": "\u043f\u0440\u043e\u0441\u043f\u0435\u043a\u0442 \u041c\u0438\u0440\u0430", "building": "apartments"}}, {"type": "way", "id": 54846824, "nodes": [690364421, 690364461, 690364463, 3878467702, 3878467680, 4125934230, 690364422, 11228830241, 690364421], "tags": {"addr:housenumber": "96", "addr:postcode": "644089", "addr:street": "\u043f\u0440\u043e\u0441\u043f\u0435\u043a\u0442 \u041c\u0438\u0440\u0430", "building": "apartments", "building:levels": "5"}}, {"type": "way", "id": 54846825, "nodes": [690364455, 5065938041, 5065938042, 5065938043, 5065938044, 5065938045, 5065938046, 690364453, 690364457, 3878467723, 4237238020, 690364459, 3923476590, 690364455], "tags": {"addr:housenumber": "92", "addr:street": "\u043f\u0440\u043e\u0441\u043f\u0435\u043a\u0442 \u041c\u0438\u0440\u0430", "building": "apartments", "building:levels": "9"}}, {"type": "way", "id": 54846829, "nodes": [690364635, 690364641, 690364639, 690364633, 690364635], "tags": {"addr:housenumber": "81", "addr:street": "\u041c\u0430\u0433\u0438\u0441\u0442\u0440\u0430\u043b\u044c\u043d\u0430\u044f \u0443\u043b\u0438\u0446\u0430", "building": "apartments"}}, {"type": "way", "id": 54931467, "nodes": [691197159, 8040338293, 8040338292, 8040338291, 8040338290, 8040338289, 8040338288, 8040338287, 8040338286, 691197183, 691197182, 691197165, 691197159], "tags": {"addr:housenumber": "82", "addr:postcode": "644089", "addr:street": "\u041c\u0430\u0433\u0438\u0441\u0442\u0440\u0430\u043b\u044c\u043d\u0430\u044f \u0443\u043b\u0438\u0446\u0430", "building": "apartments"}}, {"type": "way", "id": 54931474, "nodes": [691197164, 691197163, 691197155, 4019343866, 691197156, 4019344509, 691197164], "tags": {"addr:housenumber": "109\u0410", "addr:postcode": "644089", "addr:street": "\u0443\u043b\u0438\u0446\u0430 50 \u043b\u0435\u0442 \u041f\u0440\u043e\u0444\u0441\u043e\u044e\u0437\u043e\u0432", "building": "apartments"}}, {"type": "way", "id": 54965123, "nodes": [691532205, 691532204, 3240571380, 3240571378, 3240571376, 3240571374, 3240571372, 3240571370, 3240571368, 3240571366, 691532186, 691532187, 691532205], "tags": {"addr:housenumber": "100\u0412", "addr:street": "\u043f\u0440\u043e\u0441\u043f\u0435\u043a\u0442 \u041c\u0438\u0440\u0430", "building": "apartments"}}, {"type": "way", "id": 54965126, "nodes": [691532234, 691532233, 5777310747, 1487221150, 691532227, 4079812927, 4079812777, 4019343870, 691532229, 4019343853, 11295269046, 691532234], "tags": {"building:levels": "2", "building:part": "retail", "name": "\u0410\u043b\u043b\u0430\u0434\u0438\u043d", "shop": "mall"}}, {"type": "way", "id": 54965127, "nodes": [691532191, 691532193, 691532194, 691532192, 691532235, 691532236, 3923476562, 691532195, 1487221235, 5320725669, 691532165, 691532166, 691532190, 691532189, 691532188, 691532191], "tags": {"building:levels": "16", "building:part": "apartments"}}, {"type": "way", "id": 54965128, "nodes": [691532160, 3240570353, 3240570355, 3240570356, 3240570357, 3240570358, 3240570359, 691532167, 691532168, 3363765399, 4172962838, 3363765396, 691532162, 691532160], "tags": {"addr:housenumber": "102", "addr:street": "\u043f\u0440\u043e\u0441\u043f\u0435\u043a\u0442 \u041c\u0438\u0440\u0430", "building": "apartments", "building:levels": "9"}}, {"type": "way", "id": 54965145, "nodes": [691532443, 3240571381, 3240571382, 3240571383, 3240571384, 691532438, 1923255340, 691532439, 691532441, 691532443], "tags": {"addr:housenumber": "100\u0411", "addr:street": "\u043f\u0440\u043e\u0441\u043f\u0435\u043a\u0442 \u041c\u0438\u0440\u0430", "building": "apartments"}}, {"type": "way", "id": 141022264, "nodes": [690364408, 690364416, 690364419, 3878467668, 4298897456, 3885089544, 3878467671, 3878467674, 1543776135, 1543776137, 1543776139, 690364415]}, {"type": "relation", "id": 5730658, "members": [{"type": "way", "ref": 54846822, "role": "outer"}, {"type": "way", "ref": 141022264, "role": "outer"}], "tags": {"addr:housenumber": "98", "addr:postcode": "644089", "addr:street": "\u043f\u0440\u043e\u0441\u043f\u0435\u043a\u0442 \u041c\u0438\u0440\u0430", "building": "apartments", "building:levels": "9", "building:parts": "horizontal", "type": "multipolygon"}}, {"type": "relation", "id": 6162923, "members": [{"type": "way", "ref": 54965127, "role": "outer"}, {"type": "way", "ref": 54965126, "role": "outer"}], "tags": {"addr:housenumber": "100", "addr:street": "\u043f\u0440\u043e\u0441\u043f\u0435\u043a\u0442 \u041c\u0438\u0440\u0430", "building": "apartments", "building:levels": "16", "building:parts": "horizontal", "type": "multipolygon"}}]}