{"version": 0.6, "generator": "Overpass API 0.7.62.1 084b4234", "osm3s": {"timestamp_osm_base": "2024-05-14T13:47:15Z", "copyright": "The data included in this document is from www.openstreetmap.org. The data is made available under ODbL."}, "elements": [{"type": "node", "id": 2681652221, "lat": 59.56578, "lon": 30.126817, "tags": {"amenity": "fast_food", "name": "Happy chicken", "opening_hours": "Mo-Su 10:00-23:59"}}, {"type": "node", "id": 4190772617, "lat": 59.5657445, "lon": 30.1268623, "tags": {"amenity": "fast_food", "cuisine": "kebab", "opening_hours": "24/7", "operator": "Happy chicken"}}, {"type": "node", "id": 8318588289, "lat": 59.5652559, "lon": 30.1287427, "tags": {"amenity": "fast_food", "brand": "\u0414\u043e\u0434\u043e \u041f\u0438\u0446\u0446\u0430", "brand:en": "Dodo Pizza", "brand:ru": "\u0414\u043e\u0434\u043e \u041f\u0438\u0446\u0446\u0430", "brand:wikidata": "Q61949318", "brand:wikipedia": "ru:\u0414\u043e\u0434\u043e \u041f\u0438\u0446\u0446\u0430", "cuisine": "pizza", "name": "\u0414\u043e\u0434\u043e \u041f\u0438\u0446\u0446\u0430", "name:en": "Dodo Pizza", "name:ru": "\u0414\u043e\u0434\u043e \u041f\u0438\u0446\u0446\u0430", "opening_hours": "Mo-Su 12:00-22:00", "takeaway": "yes"}}]}