{"version": 0.6, "generator": "Overpass API 0.7.62.1 084b4234", "osm3s": {"timestamp_osm_base": "2024-05-18T00:34:30Z", "copyright": "The data included in this document is from www.openstreetmap.org. The data is made available under ODbL."}, "elements": [{"type": "node", "id": 421984993, "lat": 54.983749, "lon": 82.896797}, {"type": "node", "id": 421984994, "lat": 54.9841854, "lon": 82.8975307}, {"type": "node", "id": 421984995, "lat": 54.9842664, "lon": 82.8973843}, {"type": "node", "id": 421984996, "lat": 54.9838301, "lon": 82.8966506}, {"type": "node", "id": 421984997, "lat": 54.9842432, "lon": 82.8958782}, {"type": "node", "id": 421984998, "lat": 54.9847606, "lon": 82.8964654}, {"type": "node", "id": 421984999, "lat": 54.9846795, "lon": 82.8966119}, {"type": "node", "id": 421985000, "lat": 54.9843243, "lon": 82.8957317}, {"type": "node", "id": 421985001, "lat": 54.9847927, "lon": 82.8967987}, {"type": "node", "id": 421985002, "lat": 54.9853101, "lon": 82.8973859}, {"type": "node", "id": 421985003, "lat": 54.9848738, "lon": 82.8966522}, {"type": "node", "id": 421985006, "lat": 54.985229, "lon": 82.8975324}, {"type": "node", "id": 421985007, "lat": 54.9855841, "lon": 82.8953896}, {"type": "node", "id": 421985008, "lat": 54.9856652, "lon": 82.8952432}, {"type": "node", "id": 421985010, "lat": 54.9860204, "lon": 82.8961234}, {"type": "node", "id": 421985011, "lat": 54.9861015, "lon": 82.8959769}, {"type": "node", "id": 421985012, "lat": 54.985111, "lon": 82.8943261}, {"type": "node", "id": 421985013, "lat": 54.9854662, "lon": 82.8952062}, {"type": "node", "id": 421985015, "lat": 54.9855473, "lon": 82.8950598}, {"type": "node", "id": 421985017, "lat": 54.9850299, "lon": 82.8944725}, {"type": "node", "id": 421985070, "lat": 54.9861515, "lon": 82.8943799}, {"type": "node", "id": 421985072, "lat": 54.9865878, "lon": 82.8951136}, {"type": "node", "id": 421985074, "lat": 54.9865067, "lon": 82.8952601}, {"type": "node", "id": 421985075, "lat": 54.9860704, "lon": 82.8945264}, {"type": "node", "id": 421985190, "lat": 54.9864413, "lon": 82.8938088}, {"type": "node", "id": 421985192, "lat": 54.9865224, "lon": 82.8936623}, {"type": "node", "id": 421985193, "lat": 54.9868776, "lon": 82.8945425}, {"type": "node", "id": 421985194, "lat": 54.9869587, "lon": 82.894396}, {"type": "node", "id": 421985195, "lat": 54.9866457, "lon": 82.8954238}, {"type": "node", "id": 421985196, "lat": 54.9867297, "lon": 82.8955651}, {"type": "node", "id": 421985197, "lat": 54.9862167, "lon": 82.8961986}, {"type": "node", "id": 421985198, "lat": 54.9863008, "lon": 82.8963399}, {"type": "node", "id": 421985199, "lat": 54.9869607, "lon": 82.8959682}, {"type": "node", "id": 421985200, "lat": 54.9865317, "lon": 82.896743}, {"type": "node", "id": 421985201, "lat": 54.9870447, "lon": 82.8961095}, {"type": "node", "id": 421985202, "lat": 54.9866158, "lon": 82.8968843}, {"type": "node", "id": 421985309, "lat": 54.9848462, "lon": 82.894359}, {"type": "node", "id": 421985312, "lat": 54.9847621, "lon": 82.8942177}, {"type": "node", "id": 421985314, "lat": 54.9844172, "lon": 82.8951338}, {"type": "node", "id": 421985316, "lat": 54.9843332, "lon": 82.8949925}, {"type": "node", "id": 421985318, "lat": 54.9841588, "lon": 82.8952997}, {"type": "node", "id": 421985320, "lat": 54.9842453, "lon": 82.8954446}, {"type": "node", "id": 421985484, "lat": 54.9868935, "lon": 82.8928225}, {"type": "node", "id": 421985486, "lat": 54.9865521, "lon": 82.8934392}, {"type": "node", "id": 421985488, "lat": 54.9864681, "lon": 82.8932979}, {"type": "node", "id": 421985490, "lat": 54.9868095, "lon": 82.8926812}, {"type": "node", "id": 426938728, "lat": 54.9852367, "lon": 82.8917313}, {"type": "node", "id": 426938729, "lat": 54.9848003, "lon": 82.8909855}, {"type": "node", "id": 426938730, "lat": 54.9848849, "lon": 82.890835}, {"type": "node", "id": 426938731, "lat": 54.9853214, "lon": 82.8915808}, {"type": "node", "id": 1038105678, "lat": 54.9837671, "lon": 82.8963123}, {"type": "node", "id": 4684580107, "lat": 54.9836805, "lon": 82.8961674}, {"type": "node", "id": 6161844729, "lat": 54.9839437, "lon": 82.8956898, "tags": {"shop": "erotic"}}, {"type": "node", "id": 6161844730, "lat": 54.9841623, "lon": 82.8955952, "tags": {"addr:city": "\u041d\u043e\u0432\u043e\u0441\u0438\u0431\u0438\u0440\u0441\u043a", "addr:housenumber": "27", "addr:street": "\u0443\u043b\u0438\u0446\u0430 \u0412\u0430\u0442\u0443\u0442\u0438\u043d\u0430", "description": "\u041f\u0440\u043e\u0434\u0430\u0436\u0430 \u0438 \u043e\u0431\u0441\u043b\u0443\u0436\u0438\u0432\u0430\u043d\u0438\u0435 \u0441\u043b\u0443\u0445\u043e\u0432\u044b\u0445 \u0430\u043f\u043f\u0430\u0440\u0430\u0442\u043e\u0432.", "email": "mirsluharf@gmail.com", "name": "\u041c\u0438\u0440 \u0421\u043b\u0443\u0445\u0430", "note": "\u0412\u0445\u043e\u0434 \u0441\u043e \u0434\u0432\u043e\u0440\u0430, \u0446\u043e\u043a\u043e\u043b\u044c\u043d\u044b\u0439 \u044d\u0442\u0430\u0436", "payment:cash": "yes", "payment:mastercard": "yes", "payment:visa": "yes", "phone": "+7 383 3805087", "start_date": "2013", "website": "http://\u043c\u0438\u0440\u0441\u043b\u0443\u0445\u0430.\u0440\u0444"}}, {"type": "node", "id": 6642570350, "lat": 54.9840855, "lon": 82.8954327, "tags": {"amenity": "pharmacy", "name": "\u042d\u0432\u0430\u043b\u0430\u0440", "opening_hours": "Mo-Fr 09:00-22:00; Sa,Su 09:00-21:00"}}, {"type": "node", "id": 6642570352, "lat": 54.984114, "lon": 82.8953809}, {"type": "node", "id": 6642570355, "lat": 54.9843682, "lon": 82.8949293, "tags": {"amenity": "bank", "atm": "yes", "name": "\u0412\u0437\u0430\u0438\u043c\u043e\u0434\u0435\u0439\u0441\u0442\u0432\u0438\u0435"}}, {"type": "way", "id": 36136788, "nodes": [421984994, 421984993, 421984996, 421984995, 421984994], "tags": {"addr:housenumber": "3", "addr:street": "\u043f\u0440\u043e\u0441\u043f\u0435\u043a\u0442 \u041a\u0430\u0440\u043b\u0430 \u041c\u0430\u0440\u043a\u0441\u0430", "building": "apartments", "building:levels": "5"}}, {"type": "way", "id": 36136789, "nodes": [421984999, 421984997, 421985000, 421984998, 421984999], "tags": {"addr:city": "\u041d\u043e\u0432\u043e\u0441\u0438\u0431\u0438\u0440\u0441\u043a", "addr:country": "RU", "addr:housenumber": "3\u0410", "addr:street": "\u043f\u0440\u043e\u0441\u043f\u0435\u043a\u0442 \u041a\u0430\u0440\u043b\u0430 \u041c\u0430\u0440\u043a\u0441\u0430", "building": "apartments", "building:levels": "5"}}, {"type": "way", "id": 36136790, "nodes": [421985006, 421985001, 421985003, 421985002, 421985006], "tags": {"addr:city": "\u041d\u043e\u0432\u043e\u0441\u0438\u0431\u0438\u0440\u0441\u043a", "addr:housenumber": "7", "addr:street": "\u043f\u0440\u043e\u0441\u043f\u0435\u043a\u0442 \u041a\u0430\u0440\u043b\u0430 \u041c\u0430\u0440\u043a\u0441\u0430", "building": "apartments", "building:levels": "5"}}, {"type": "way", "id": 36136791, "nodes": [421985010, 421985007, 421985008, 421985011, 421985010], "tags": {"addr:housenumber": "10", "addr:street": "\u0443\u043b\u0438\u0446\u0430 \u0411\u043b\u044e\u0445\u0435\u0440\u0430", "building": "apartments", "building:levels": "5"}}, {"type": "way", "id": 36136792, "nodes": [421985013, 421985017, 421985012, 421985015, 421985013], "tags": {"addr:housenumber": "6", "addr:street": "\u0443\u043b\u0438\u0446\u0430 \u0411\u043b\u044e\u0445\u0435\u0440\u0430", "building": "apartments", "building:levels": "5"}}, {"type": "way", "id": 36136801, "nodes": [421985074, 421985075, 421985070, 421985072, 421985074], "tags": {"addr:housenumber": "8", "addr:street": "\u0443\u043b\u0438\u0446\u0430 \u0411\u043b\u044e\u0445\u0435\u0440\u0430", "building": "apartments", "building:levels": "5"}}, {"type": "way", "id": 36136823, "nodes": [421985193, 421985190, 421985192, 421985194, 421985193], "tags": {"addr:housenumber": "31", "addr:street": "\u0443\u043b\u0438\u0446\u0430 \u0411\u043b\u044e\u0445\u0435\u0440\u0430", "building": "apartments", "building:levels": "5"}}, {"type": "way", "id": 36136824, "nodes": [421985196, 421985198, 421985197, 421985195, 421985196], "tags": {"addr:housenumber": "14", "addr:street": "\u0443\u043b\u0438\u0446\u0430 \u0411\u043b\u044e\u0445\u0435\u0440\u0430", "building": "apartments", "building:levels": "5"}}, {"type": "way", "id": 36136825, "nodes": [421985201, 421985202, 421985200, 421985199, 421985201], "tags": {"addr:housenumber": "16", "addr:street": "\u0443\u043b\u0438\u0446\u0430 \u0411\u043b\u044e\u0445\u0435\u0440\u0430", "building": "apartments", "building:levels": "5"}}, {"type": "way", "id": 36136835, "nodes": [421985309, 421985314, 421985316, 6642570355, 421985312, 421985309], "tags": {"addr:city": "\u041d\u043e\u0432\u043e\u0441\u0438\u0431\u0438\u0440\u0441\u043a", "addr:housenumber": "23", "addr:street": "\u0443\u043b\u0438\u0446\u0430 \u0412\u0430\u0442\u0443\u0442\u0438\u043d\u0430", "building": "apartments", "building:levels": "5"}}, {"type": "way", "id": 36136836, "nodes": [421985320, 6161844730, 1038105678, 4684580107, 6161844729, 6642570350, 6642570352, 421985318, 421985320], "tags": {"addr:housenumber": "27", "addr:street": "\u0443\u043b\u0438\u0446\u0430 \u0412\u0430\u0442\u0443\u0442\u0438\u043d\u0430", "building": "apartments", "building:levels": "5"}}, {"type": "way", "id": 36136854, "nodes": [421985484, 421985486, 421985488, 421985490, 421985484], "tags": {"addr:housenumber": "29", "addr:street": "\u0443\u043b\u0438\u0446\u0430 \u0411\u043b\u044e\u0445\u0435\u0440\u0430", "building": "apartments", "building:levels": "5"}}, {"type": "way", "id": 36731822, "nodes": [426938728, 426938729, 426938730, 426938731, 426938728], "tags": {"addr:housenumber": "19", "addr:street": "\u0443\u043b\u0438\u0446\u0430 \u0411\u043b\u044e\u0445\u0435\u0440\u0430", "building": "apartments", "building:levels": "5"}}]}