{"version": 0.6, "generator": "Overpass API 0.7.62.1 084b4234", "osm3s": {"timestamp_osm_base": "2024-05-14T12:43:00Z", "copyright": "The data included in this document is from www.openstreetmap.org. The data is made available under ODbL."}, "elements": [{"type": "node", "id": 1362100553, "lat": 55.8630298, "lon": 37.6010518, "tags": {"amenity": "fast_food", "brand": "\u0422\u0435\u0440\u0435\u043c\u043e\u043a", "brand:en": "Teremok", "brand:ru": "\u0422\u0435\u0440\u0435\u043c\u043e\u043a", "brand:wikidata": "Q4455593", "brand:wikipedia": "ru:\u0422\u0435\u0440\u0435\u043c\u043e\u043a (\u0441\u0435\u0442\u044c \u0431\u044b\u0441\u0442\u0440\u043e\u0433\u043e \u043f\u0438\u0442\u0430\u043d\u0438\u044f)", "contact:email": "office@teremok.ru", "contact:facebook": "https://www.facebook.com/teremok", "contact:instagram": "https://www.instagram.com/teremok_ru", "contact:line": "http://line.me/ti/p/%40teremok", "contact:twitter": "https://twitter.com/teremok_ru", "contact:vk": "https://vk.com/teremok", "contact:website": "http://www.teremok.ru", "cuisine": "crepe;russian", "diet:vegetarian": "yes", "name": "\u0422\u0435\u0440\u0435\u043c\u043e\u043a", "name:en": "Teremok", "opening_hours": "Mo-Su 09:00-23:00", "takeaway": "yes"}}, {"type": "node", "id": 1362100559, "lat": 55.8631171, "lon": 37.6011162, "tags": {"amenity": "fast_food", "brand": "Sbarro", "brand:wikidata": "Q2589409", "brand:wikipedia": "en:Sbarro", "cuisine": "pizza", "int_name": "Sbarro", "name": "Sbarro", "name:en": "Sbarro", "operator": "\u0421\u0431\u0430\u0440\u0440\u043e", "operator:en": "Sbarro", "takeaway": "yes", "website": "http://www.sbarro.ru/"}}, {"type": "node", "id": 1362100583, "lat": 55.8630359, "lon": 37.6006548, "tags": {"addr:country": "RU", "alt_name": "Kentucky Fried Chicken", "amenity": "fast_food", "brand": "KFC", "brand:wikidata": "Q524757", "brand:wikipedia": "en:KFC", "contact:email": "yum-press@spncomms.com", "contact:facebook": "https://www.facebook.com/kfcrussia", "contact:instagram": "https://instagram.com/kfcrussia", "contact:ok": "https://ok.ru/kfcrussia", "contact:tumblr": "https://www.tumblr.com/blog/kfcrussia", "contact:twitter": "https://twitter.com/#!/kfcrussia", "contact:vk": "https://vk.com/kfcrussia", "contact:website": "https://www.kfc.ru", "contact:youtube": "https://www.youtube.com/KFCRussia", "cuisine": "chicken", "diet:vegetarian": "no", "int_name": "KFC", "level": "1", "name": "KFC", "name:de": "KFC", "name:en": "KFC", "old_name": "\u0420\u043e\u0441\u0442\u0438\u043a\u2019\u0441-KFC / \u0420\u043e\u0441\u0442\u0438\u043a\u0441", "operator": "\u0420\u043e\u0441\u0442\u0438\u043a\u2019\u0441-KFC", "takeaway": "yes"}}, {"type": "node", "id": 1362100586, "lat": 55.8630027, "lon": 37.6007567, "tags": {"addr:country": "RU", "amenity": "fast_food", "brand": "\u041a\u0440\u043e\u0448\u043a\u0430 \u041a\u0430\u0440\u0442\u043e\u0448\u043a\u0430", "brand:en": "Kroshka Kartoshka", "brand:ru": "\u041a\u0440\u043e\u0448\u043a\u0430 \u041a\u0430\u0440\u0442\u043e\u0448\u043a\u0430", "brand:wikidata": "Q4241838", "brand:wikipedia": "ru:\u041a\u0440\u043e\u0448\u043a\u0430 \u041a\u0430\u0440\u0442\u043e\u0448\u043a\u0430", "contact:email": "kroshka@kartoshka.com", "contact:ok": "https://ok.ru/group/52818779832389", "contact:phone": "+7 916 0690036", "contact:vk": "https://vk.com/kartoshka_moscow", "contact:website": "https://www.kartoshka.com", "cuisine": "potato", "diet:vegetarian": "no", "level": "1", "name": "\u041a\u0440\u043e\u0448\u043a\u0430 \u041a\u0430\u0440\u0442\u043e\u0448\u043a\u0430", "name:en": "Kroshka Kartoshka", "opening_hours": "Mo-Su 09:00-23:00", "operator": "\u041a\u0440\u043e\u0448\u043a\u0430-\u043a\u0430\u0440\u0442\u043e\u0448\u043a\u0430", "operator:wikidata": "Q4241838", "operator:wikipedia": "ru:\u041a\u0440\u043e\u0448\u043a\u0430-\u043a\u0430\u0440\u0442\u043e\u0448\u043a\u0430", "takeaway": "yes"}}, {"type": "node", "id": 1362100593, "lat": 55.8629606, "lon": 37.600864, "tags": {"addr:country": "RU", "amenity": "fast_food", "contact:email": "info@qsrsystem.ru", "contact:website": "https://vkusnoitochka.ru/", "cuisine": "burger", "diet:vegetarian": "no", "level": "1", "name": "\u0412\u043a\u0443\u0441\u043d\u043e \u2014 \u0438 \u0442\u043e\u0447\u043a\u0430", "old_name": "\u041c\u0430\u043a\u0434\u043e\u043d\u0430\u043b\u0434\u0441", "old_name:en": "McDonald\u2019s", "smoking": "no", "takeaway": "yes"}}, {"type": "node", "id": 5151926930, "lat": 55.8628727, "lon": 37.6012309, "tags": {"amenity": "fast_food", "brand": "\u0411\u0443\u0440\u0433\u0435\u0440 \u041a\u0438\u043d\u0433", "brand:en": "Burger King", "brand:ru": "\u0411\u0443\u0440\u0433\u0435\u0440 \u041a\u0438\u043d\u0433", "brand:wikidata": "Q177054", "brand:wikipedia": "en:Burger King", "contact:email": "FeedBack@burgerking.ru", "contact:phone": "+7 495 5445000", "contact:website": "https://burgerkingrus.ru/", "cuisine": "burger", "internet_access": "wlan", "internet_access:fee": "no", "name": "\u0411\u0443\u0440\u0433\u0435\u0440 \u041a\u0438\u043d\u0433", "name:en": "Burger King", "opening_hours": "Mo-Su 10:00-21:40", "ref": "423", "takeaway": "yes"}}]}