{"version": 0.6, "generator": "Overpass API 0.7.62.1 084b4234", "osm3s": {"timestamp_osm_base": "2024-05-16T18:54:20Z", "copyright": "The data included in this document is from www.openstreetmap.org. The data is made available under ODbL."}, "elements": [{"type": "node", "id": 4512025489, "lat": 55.7328982, "lon": 37.5921305, "tags": {"amenity": "fast_food", "brand": "\u041f\u0430\u043f\u0430 \u0414\u0436\u043e\u043d\u0441", "brand:en": "Papa John's", "brand:ru": "\u041f\u0430\u043f\u0430 \u0414\u0436\u043e\u043d\u0441", "brand:wikidata": "Q2759586", "brand:wikipedia": "ru:Papa John\u2019s", "contact:facebook": "https://www.facebook.com/papajohnsru", "contact:instagram": "https://www.instagram.com/papajohnsru", "contact:phone": "+7 495 2874356", "contact:vk": "https://vk.com/papajohnsru", "contact:website": "https://www.papajohns.ru", "cuisine": "pizza", "delivery": "yes", "diet:vegetarian": "no", "name": "\u041f\u0430\u043f\u0430 \u0414\u0436\u043e\u043d\u0441", "name:en": "Papa John's", "opening_hours": "Mo-Su 10:00-23:00", "takeaway": "yes"}}, {"type": "node", "id": 4786529032, "lat": 55.7328316, "lon": 37.5921417, "tags": {"amenity": "fast_food", "contact:facebook": "https://www.facebook.com/grekagyros", "contact:phone": "+7 925 7168720", "cuisine": "greek", "name": "Greka Gyros", "opening_hours": "Mo-Fr 08:00-22:00; Sa,Su 10:00-22:00"}}]}