{"version": 0.6, "generator": "Overpass API 0.7.62.1 084b4234", "osm3s": {"timestamp_osm_base": "2024-05-18T01:17:29Z", "copyright": "The data included in this document is from www.openstreetmap.org. The data is made available under ODbL."}, "elements": [{"type": "node", "id": 530354494, "lat": 51.7921993, "lon": 55.1374631}, {"type": "node", "id": 530355020, "lat": 51.792294, "lon": 55.1375599}, {"type": "node", "id": 530355882, "lat": 51.7924593, "lon": 55.1367984}, {"type": "node", "id": 530356302, "lat": 51.792554, "lon": 55.1368952}, {"type": "node", "id": 530356973, "lat": 51.7925368, "lon": 55.1376236}, {"type": "node", "id": 530357287, "lat": 51.7926041, "lon": 55.1374501}, {"type": "node", "id": 530358692, "lat": 51.7930628, "lon": 55.1381566}, {"type": "node", "id": 530358874, "lat": 51.7931301, "lon": 55.1379831}, {"type": "node", "id": 530359003, "lat": 51.7932231, "lon": 55.1385459}, {"type": "node", "id": 530359167, "lat": 51.7932892, "lon": 55.1383694}, {"type": "node", "id": 530359312, "lat": 51.7932346, "lon": 55.1400058}, {"type": "node", "id": 530359587, "lat": 51.7932701, "lon": 55.1399029}, {"type": "node", "id": 530359751, "lat": 51.7935879, "lon": 55.1375908}, {"type": "node", "id": 530359787, "lat": 51.7934107, "lon": 55.1401647}, {"type": "node", "id": 530359937, "lat": 51.7936494, "lon": 55.1374299}, {"type": "node", "id": 530360059, "lat": 51.7934462, "lon": 55.1400617}, {"type": "node", "id": 530360524, "lat": 51.7937676, "lon": 55.1403122}, {"type": "node", "id": 530360594, "lat": 51.7937503, "lon": 55.1390618}, {"type": "node", "id": 530360747, "lat": 51.7938164, "lon": 55.1388852}, {"type": "node", "id": 530360761, "lat": 51.793855, "lon": 55.1400796}, {"type": "node", "id": 530361005, "lat": 51.7942263, "lon": 55.1385739}, {"type": "node", "id": 530361155, "lat": 51.7940138, "lon": 55.1405541}, {"type": "node", "id": 530361248, "lat": 51.7940907, "lon": 55.13934}, {"type": "node", "id": 530361263, "lat": 51.7940748, "lon": 55.1410469}, {"type": "node", "id": 530361404, "lat": 51.7941129, "lon": 55.1381152}, {"type": "node", "id": 530361472, "lat": 51.7941012, "lon": 55.1403215}, {"type": "node", "id": 530361480, "lat": 51.7941744, "lon": 55.1379543}, {"type": "node", "id": 530361482, "lat": 51.7941337, "lon": 55.140902}, {"type": "node", "id": 530361497, "lat": 51.7942488, "lon": 55.1374049}, {"type": "node", "id": 530361498, "lat": 51.7942395, "lon": 55.1405221}, {"type": "node", "id": 530361505, "lat": 51.7943284, "lon": 55.1383171}, {"type": "node", "id": 530361516, "lat": 51.7943087, "lon": 55.1403475}, {"type": "node", "id": 530361518, "lat": 51.7943527, "lon": 55.1375086}, {"type": "node", "id": 530361527, "lat": 51.7944372, "lon": 55.1384309}, {"type": "node", "id": 530361535, "lat": 51.7943083, "lon": 55.1412951}, {"type": "node", "id": 530361560, "lat": 51.7945654, "lon": 55.136575}, {"type": "node", "id": 530361561, "lat": 51.7943672, "lon": 55.1411503}, {"type": "node", "id": 530361562, "lat": 51.7944045, "lon": 55.1425499}, {"type": "node", "id": 530361566, "lat": 51.7944026, "lon": 55.1397302}, {"type": "node", "id": 530361567, "lat": 51.7944421, "lon": 55.1392676}, {"type": "node", "id": 530361570, "lat": 51.794662, "lon": 55.1374842}, {"type": "node", "id": 530361572, "lat": 51.7946694, "lon": 55.1366787}, {"type": "node", "id": 530361574, "lat": 51.7944624, "lon": 55.1395672}, {"type": "node", "id": 530361575, "lat": 51.7945017, "lon": 55.142651}, {"type": "node", "id": 530361576, "lat": 51.7947707, "lon": 55.137598}, {"type": "node", "id": 530361580, "lat": 51.7945504, "lon": 55.1393766}, {"type": "node", "id": 530361584, "lat": 51.7947921, "lon": 55.141094}, {"type": "node", "id": 530361588, "lat": 51.7948613, "lon": 55.1409194}, {"type": "node", "id": 530361594, "lat": 51.7947653, "lon": 55.1384284}, {"type": "node", "id": 530361596, "lat": 51.7949308, "lon": 55.1402371}, {"type": "node", "id": 530361598, "lat": 51.7948476, "lon": 55.1381933}, {"type": "node", "id": 530361602, "lat": 51.7949113, "lon": 55.1380375}, {"type": "node", "id": 530361603, "lat": 51.7948736, "lon": 55.1385374}, {"type": "node", "id": 530361604, "lat": 51.7949906, "lon": 55.1400741}, {"type": "node", "id": 530361606, "lat": 51.794985, "lon": 55.141075}, {"type": "node", "id": 530361609, "lat": 51.795049, "lon": 55.1399287}, {"type": "node", "id": 530361615, "lat": 51.7951371, "lon": 55.1404378}, {"type": "node", "id": 530361617, "lat": 51.7950595, "lon": 55.137657}, {"type": "node", "id": 530361618, "lat": 51.7950822, "lon": 55.141171}, {"type": "node", "id": 530361622, "lat": 51.7951506, "lon": 55.140032}, {"type": "node", "id": 530361626, "lat": 51.7952056, "lon": 55.1402654}, {"type": "node", "id": 530361629, "lat": 51.7951247, "lon": 55.137494}, {"type": "node", "id": 530361638, "lat": 51.7953018, "lon": 55.1370528}, {"type": "node", "id": 530361641, "lat": 51.7953675, "lon": 55.1368861}, {"type": "node", "id": 530361643, "lat": 51.7953335, "lon": 55.1391973}, {"type": "node", "id": 530361651, "lat": 51.7954967, "lon": 55.1381147}, {"type": "node", "id": 530361654, "lat": 51.7954352, "lon": 55.1393006}, {"type": "node", "id": 530361656, "lat": 51.7955446, "lon": 55.1389385}, {"type": "node", "id": 530361661, "lat": 51.7956083, "lon": 55.1387828}, {"type": "node", "id": 530361663, "lat": 51.7955619, "lon": 55.1379517}, {"type": "node", "id": 530361664, "lat": 51.7957023, "lon": 55.1387578}, {"type": "node", "id": 530361673, "lat": 51.7958734, "lon": 55.1412031}, {"type": "node", "id": 530361677, "lat": 51.795814, "lon": 55.1388724}, {"type": "node", "id": 530361683, "lat": 51.7959419, "lon": 55.1410306}, {"type": "node", "id": 530361688, "lat": 51.7960482, "lon": 55.1378758}, {"type": "node", "id": 530361696, "lat": 51.796, "lon": 55.1377722}, {"type": "node", "id": 530361704, "lat": 51.79616, "lon": 55.1379904}, {"type": "node", "id": 530361709, "lat": 51.7960657, "lon": 55.1376055}, {"type": "node", "id": 849546466, "lat": 51.7925744, "lon": 55.1393415}, {"type": "node", "id": 849547184, "lat": 51.792499, "lon": 55.1390331}, {"type": "node", "id": 849547480, "lat": 51.7924346, "lon": 55.1392037}, {"type": "node", "id": 849548017, "lat": 51.7926388, "lon": 55.1391709}, {"type": "node", "id": 1325475304, "lat": 51.7928948, "lon": 55.1379864, "tags": {"brand": "\u041c\u0430\u0433\u043d\u0438\u0442", "brand:en": "Magnit", "brand:wikidata": "Q940518", "brand:wikipedia": "ru:\u041c\u0430\u0433\u043d\u0438\u0442 (\u0441\u0435\u0442\u044c \u043c\u0430\u0433\u0430\u0437\u0438\u043d\u043e\u0432)", "contact:website": "https://magnit.ru", "name": "\u041c\u0430\u0433\u043d\u0438\u0442", "name:en": "Magnit", "name:ru": "\u041c\u0430\u0433\u043d\u0438\u0442", "shop": "convenience", "website": "https://magnit.ru"}}, {"type": "node", "id": 1612744015, "lat": 51.7941444, "lon": 55.1434917}, {"type": "node", "id": 1612744016, "lat": 51.794293, "lon": 55.1436492}, {"type": "node", "id": 1612744017, "lat": 51.7943709, "lon": 55.1429326}, {"type": "node", "id": 1612744018, "lat": 51.7945196, "lon": 55.1430901}, {"type": "node", "id": 2296453516, "lat": 51.7959831, "lon": 55.1384413, "tags": {"entrance": "yes", "name": "\u043f0"}}, {"type": "node", "id": 3152426543, "lat": 51.7936221, "lon": 55.1375014, "tags": {"shop": "convenience"}}, {"type": "node", "id": 3301619294, "lat": 51.7939751, "lon": 55.139223}, {"type": "node", "id": 5725198047, "lat": 51.7919508, "lon": 55.1387161}, {"type": "node", "id": 5725198048, "lat": 51.7921058, "lon": 55.1388681}, {"type": "node", "id": 5725198049, "lat": 51.7921514, "lon": 55.1387465}, {"type": "node", "id": 5725198050, "lat": 51.7919963, "lon": 55.1385945}, {"type": "node", "id": 7018523613, "lat": 51.794342, "lon": 55.1386909}, {"type": "way", "id": 42476266, "nodes": [530361606, 530361562, 530361575, 530361618, 530361606], "tags": {"addr:city": "\u041e\u0440\u0435\u043d\u0431\u0443\u0440\u0433", "addr:housenumber": "144", "addr:street": "\u041e\u0434\u0435\u0441\u0441\u043a\u0430\u044f \u0443\u043b\u0438\u0446\u0430", "building": "apartments", "building:levels": "5", "start_date": "1970"}}, {"type": "way", "id": 42476268, "nodes": [530361584, 530361498, 530361516, 530361588, 530361584], "tags": {"addr:city": "\u041e\u0440\u0435\u043d\u0431\u0443\u0440\u0433", "addr:housenumber": "142", "addr:street": "\u041e\u0434\u0435\u0441\u0441\u043a\u0430\u044f \u0443\u043b\u0438\u0446\u0430", "building": "apartments", "building:levels": "5", "start_date": "1976"}}, {"type": "way", "id": 42476269, "nodes": [530361155, 530360524, 530360761, 530361472, 530361155], "tags": {"addr:city": "\u041e\u0440\u0435\u043d\u0431\u0443\u0440\u0433", "addr:housenumber": "140", "addr:street": "\u041e\u0434\u0435\u0441\u0441\u043a\u0430\u044f \u0443\u043b\u0438\u0446\u0430", "building": "apartments", "building:levels": "9", "start_date": "1978"}}, {"type": "way", "id": 42476271, "nodes": [530361535, 530361263, 530361482, 530361561, 530361535], "tags": {"addr:city": "\u041e\u0440\u0435\u043d\u0431\u0443\u0440\u0433", "addr:housenumber": "142/1", "addr:street": "\u041e\u0434\u0435\u0441\u0441\u043a\u0430\u044f \u0443\u043b\u0438\u0446\u0430", "building": "apartments", "building:levels": "5", "start_date": "1997"}}, {"type": "way", "id": 42476294, "nodes": [530359787, 530359312, 530359587, 530360059, 530359787], "tags": {"addr:city": "\u041e\u0440\u0435\u043d\u0431\u0443\u0440\u0433", "addr:housenumber": "76", "addr:street": "\u0420\u0443\u0441\u0441\u043a\u0438\u0439 \u043f\u0435\u0440\u0435\u0443\u043b\u043e\u043a", "building": "apartments", "start_date": "1958"}}, {"type": "way", "id": 42476307, "nodes": [530361673, 530361615, 530361626, 530361683, 530361673], "tags": {"addr:city": "\u041e\u0440\u0435\u043d\u0431\u0443\u0440\u0433", "addr:housenumber": "125", "addr:street": "\u041e\u0434\u0435\u0441\u0441\u043a\u0430\u044f \u0443\u043b\u0438\u0446\u0430", "building": "apartments", "building:levels": "5", "start_date": "1966"}}, {"type": "way", "id": 42476308, "nodes": [530361596, 530361566, 530361574, 530361604, 530361596], "tags": {"addr:city": "\u041e\u0440\u0435\u043d\u0431\u0443\u0440\u0433", "addr:housenumber": "121", "addr:street": "\u041e\u0434\u0435\u0441\u0441\u043a\u0430\u044f \u0443\u043b\u0438\u0446\u0430", "building": "apartments", "building:levels": "5", "start_date": "1968"}}, {"type": "way", "id": 42476310, "nodes": [530361688, 530361664, 530361677, 2296453516, 530361704, 530361688], "tags": {"addr:city": "\u041e\u0440\u0435\u043d\u0431\u0443\u0440\u0433", "addr:housenumber": "246\u0410", "addr:street": "\u0422\u043e\u043c\u0438\u043b\u0438\u043d\u0441\u043a\u0430\u044f \u0443\u043b\u0438\u0446\u0430", "building": "apartments", "building:levels": "5", "start_date": "1966"}}, {"type": "way", "id": 42476311, "nodes": [530361661, 530361602, 530361598, 530361656, 530361661], "tags": {"addr:city": "\u041e\u0440\u0435\u043d\u0431\u0443\u0440\u0433", "addr:housenumber": "248", "addr:street": "\u0422\u043e\u043c\u0438\u043b\u0438\u043d\u0441\u043a\u0430\u044f \u0443\u043b\u0438\u0446\u0430", "building": "apartments", "building:levels": "5", "start_date": "1967"}}, {"type": "way", "id": 42476313, "nodes": [530361651, 530361617, 530361629, 530361663, 530361651], "tags": {"addr:city": "\u041e\u0440\u0435\u043d\u0431\u0443\u0440\u0433", "addr:housenumber": "246", "addr:street": "\u0422\u043e\u043c\u0438\u043b\u0438\u043d\u0441\u043a\u0430\u044f \u0443\u043b\u0438\u0446\u0430", "building": "apartments", "building:levels": "5", "start_date": "1968"}}, {"type": "way", "id": 42476316, "nodes": [530361609, 530361643, 530361654, 530361622, 530361609], "tags": {"addr:city": "\u041e\u0440\u0435\u043d\u0431\u0443\u0440\u0433", "addr:housenumber": "123", "addr:street": "\u041e\u0434\u0435\u0441\u0441\u043a\u0430\u044f \u0443\u043b\u0438\u0446\u0430", "building": "apartments", "building:levels": "5", "building:material": "brick", "start_date": "1966"}}, {"type": "way", "id": 42476320, "nodes": [530361709, 530361641, 530361638, 530361696, 530361709], "tags": {"addr:city": "\u041e\u0440\u0435\u043d\u0431\u0443\u0440\u0433", "addr:housenumber": "244", "addr:street": "\u0422\u043e\u043c\u0438\u043b\u0438\u043d\u0441\u043a\u0430\u044f \u0443\u043b\u0438\u0446\u0430", "building": "apartments", "building:levels": "5", "start_date": "1968"}}, {"type": "way", "id": 42476330, "nodes": [530361567, 530361594, 530361603, 530361580, 530361567], "tags": {"addr:city": "\u041e\u0440\u0435\u043d\u0431\u0443\u0440\u0433", "addr:housenumber": "250", "addr:street": "\u0422\u043e\u043c\u0438\u043b\u0438\u043d\u0441\u043a\u0430\u044f \u0443\u043b\u0438\u0446\u0430", "building": "apartments", "building:levels": "5", "start_date": "1967"}}, {"type": "way", "id": 42476338, "nodes": [530361572, 530361518, 530361497, 530361560, 530361572], "tags": {"addr:city": "\u041e\u0440\u0435\u043d\u0431\u0443\u0440\u0433", "addr:housenumber": "253\u0410", "addr:street": "\u0422\u043e\u043c\u0438\u043b\u0438\u043d\u0441\u043a\u0430\u044f \u0443\u043b\u0438\u0446\u0430", "building": "apartments", "building:levels": "5", "start_date": "1965"}}, {"type": "way", "id": 42476339, "nodes": [530361576, 530361527, 530361505, 530361570, 530361576], "tags": {"addr:city": "\u041e\u0440\u0435\u043d\u0431\u0443\u0440\u0433", "addr:housenumber": "255", "addr:street": "\u0422\u043e\u043c\u0438\u043b\u0438\u043d\u0441\u043a\u0430\u044f \u0443\u043b\u0438\u0446\u0430", "building": "apartments", "building:levels": "5", "start_date": "1964"}}, {"type": "way", "id": 42476353, "nodes": [530356302, 530355020, 530354494, 530355882, 530356302], "tags": {"addr:housenumber": "10", "addr:street": "\u042f\u043b\u0442\u0438\u043d\u0441\u043a\u0430\u044f \u0443\u043b\u0438\u0446\u0430", "building": "apartments", "building:levels": "5", "start_date": "1966"}}, {"type": "way", "id": 42476359, "nodes": [530361404, 530359751, 3152426543, 530359937, 530361480, 530361404], "tags": {"addr:city": "\u041e\u0440\u0435\u043d\u0431\u0443\u0440\u0433", "addr:housenumber": "115", "addr:street": "\u041e\u0434\u0435\u0441\u0441\u043a\u0430\u044f \u0443\u043b\u0438\u0446\u0430", "building": "apartments", "building:levels": "5", "start_date": "1965"}}, {"type": "way", "id": 42476361, "nodes": [530358692, 1325475304, 530356973, 530357287, 530358874, 530358692], "tags": {"addr:city": "\u041e\u0440\u0435\u043d\u0431\u0443\u0440\u0433", "addr:housenumber": "111", "addr:street": "\u041e\u0434\u0435\u0441\u0441\u043a\u0430\u044f \u0443\u043b\u0438\u0446\u0430", "building": "apartments", "building:levels": "5", "start_date": "1966"}}, {"type": "way", "id": 42476362, "nodes": [530360594, 530359003, 530359167, 530360747, 530360594], "tags": {"addr:city": "\u041e\u0440\u0435\u043d\u0431\u0443\u0440\u0433", "addr:housenumber": "117", "addr:street": "\u041e\u0434\u0435\u0441\u0441\u043a\u0430\u044f \u0443\u043b\u0438\u0446\u0430", "building": "apartments", "building:levels": "4", "start_date": "1964"}}, {"type": "way", "id": 71396091, "nodes": [849548017, 849547184, 849547480, 849546466, 849548017], "tags": {"addr:city": "\u041e\u0440\u0435\u043d\u0431\u0443\u0440\u0433", "addr:housenumber": "72", "addr:street": "\u0420\u0443\u0441\u0441\u043a\u0438\u0439 \u043f\u0435\u0440\u0435\u0443\u043b\u043e\u043a", "building": "apartments", "building:levels": "2", "start_date": "1960"}}, {"type": "way", "id": 148172633, "nodes": [1612744017, 1612744018, 1612744016, 1612744015, 1612744017], "tags": {"addr:city": "\u041e\u0440\u0435\u043d\u0431\u0443\u0440\u0433", "addr:housenumber": "249/2", "addr:street": "\u0443\u043b\u0438\u0446\u0430 \u0428\u0435\u0432\u0447\u0435\u043d\u043a\u043e", "building": "apartments", "building:levels": "10", "start_date": "2008"}}, {"type": "way", "id": 323359844, "nodes": [530361005, 3301619294, 530361248, 7018523613, 530361005], "tags": {"addr2:housenumber": "257", "addr2:street": "\u0422\u043e\u043c\u0438\u043b\u0438\u043d\u0441\u043a\u0430\u044f \u0443\u043b\u0438\u0446\u0430", "addr:city": "\u041e\u0440\u0435\u043d\u0431\u0443\u0440\u0433", "addr:housenumber": "119", "addr:street": "\u041e\u0434\u0435\u0441\u0441\u043a\u0430\u044f \u0443\u043b\u0438\u0446\u0430", "building": "apartments", "start_date": "1963"}}, {"type": "way", "id": 602918350, "nodes": [5725198050, 5725198049, 5725198048, 5725198047, 5725198050], "tags": {"addr:city": "\u041e\u0440\u0435\u043d\u0431\u0443\u0440\u0433", "addr:housenumber": "68", "addr:street": "\u0420\u0443\u0441\u0441\u043a\u0438\u0439 \u043f\u0435\u0440\u0435\u0443\u043b\u043e\u043a", "building": "apartments", "start_date": "1958"}}]}