{"version": 0.6, "generator": "Overpass API 0.7.62.1 084b4234", "osm3s": {"timestamp_osm_base": "2024-05-17T04:53:00Z", "copyright": "The data included in this document is from www.openstreetmap.org. The data is made available under ODbL."}, "elements": [{"type": "node", "id": 5124241193, "lat": 55.7407047, "lon": 37.6584962, "tags": {"addr:city": "\u041c\u043e\u0441\u043a\u0432\u0430", "addr:housenumber": "1 \u043a1", "addr:postcode": "109147", "addr:street": "\u041c\u0430\u0440\u043a\u0441\u0438\u0441\u0442\u0441\u043a\u0430\u044f \u0443\u043b\u0438\u0446\u0430", "amenity": "cafe", "check_date": "2022-12-16", "cuisine": "international", "level": "0", "name": "Kombinat Deli", "name:uk": "Kombinat Deli", "opening_hours": "Mo-Fr 08:00-22:00; Su 10:00-22:00", "phone": "+7 495 9388205", "shop": "convenience"}}, {"type": "node", "id": 5412755022, "lat": 55.7409514, "lon": 37.6579123, "tags": {"addr:city": "\u041c\u043e\u0441\u043a\u0432\u0430", "addr:housenumber": "2", "addr:postcode": "109147", "addr:street": "\u0422\u0430\u0433\u0430\u043d\u0441\u043a\u0430\u044f \u0443\u043b\u0438\u0446\u0430", "amenity": "cafe", "brand": "Cofix", "brand:en": "Cofix", "brand:he": "\u05e7\u05e4\u05d5\u05d9\u05e7\u05e1", "brand:wikidata": "Q16132717", "brand:wikipedia": "he:\u05e7\u05d5\u05e4\u05d9\u05e7\u05e1", "contact:email": "info@cofix.ru", "contact:facebook": "https://www.facebook.com/cofixrussia", "contact:instagram": "https://www.instagram.com/cofixrussia", "contact:phone": "+7 800 3508418", "contact:vk": "https://vk.com/cofixrussia", "contact:website": "https://www.cofix.global", "cuisine": "coffee_shop", "delivery": "no", "name": "Cofix", "name:en": "Cofix", "name:he": "\u05e7\u05d5\u05e4\u05d9\u05e7\u05e1", "opening_hours": "Mo-Fr 07:00-22:30; Sa 08:00-22:30; Su 09:00-22:30", "takeaway": "yes", "wheelchair": "no"}}, {"type": "node", "id": 8758277928, "lat": 55.7404193, "lon": 37.6581352, "tags": {"addr:city": "\u041c\u043e\u0441\u043a\u0432\u0430", "addr:housenumber": "1 \u043a1", "addr:postcode": "109147", "addr:street": "\u041c\u0430\u0440\u043a\u0441\u0438\u0441\u0442\u0441\u043a\u0430\u044f \u0443\u043b\u0438\u0446\u0430", "amenity": "cafe", "level": "0", "name": "\u0426\u0432\u0435\u0442\u044b \u0438 \u041a\u043e\u0444\u0435", "shop": "florist", "takeaway": "only", "wheelchair": "yes"}}]}