{"version": 0.6, "generator": "Overpass API 0.7.62.1 084b4234", "osm3s": {"timestamp_osm_base": "2024-05-16T22:39:12Z", "copyright": "The data included in this document is from www.openstreetmap.org. The data is made available under ODbL."}, "elements": [{"type": "node", "id": 265770343, "lat": 56.3021734, "lon": 38.1371689, "tags": {"esr:user": "236305", "name": "\u0421\u0435\u0440\u0433\u0438\u0435\u0432 \u041f\u043e\u0441\u0430\u0434", "name:de": "Sergijew Possad", "name:en": "Sergiyev Posad", "name:et": "Sergijev Possad", "name:fr": "Serguiev Possad", "name:hr": "Sergiyev Posad", "name:ru": "\u0421\u0435\u0440\u0433\u0438\u0435\u0432 \u041f\u043e\u0441\u0430\u0434", "name:sr": "\u0421\u0435\u0440\u0433\u0438\u0458\u0435\u0432 \u041f\u043e\u0441\u0430\u0434", "old_name": "\u0417\u0430\u0433\u043e\u0440\u0441\u043a", "operator": "\u041e\u0410\u041e \u00ab\u0420\u0416\u0414\u00bb", "operator:branch": "\u041c\u043e\u0441\u043a\u043e\u0432\u0441\u043a\u0430\u044f \u0436\u0435\u043b\u0435\u0437\u043d\u0430\u044f \u0434\u043e\u0440\u043e\u0433\u0430", "public_transport": "station", "railway": "station", "train": "yes", "uic_name": "Sergiev posad", "uic_ref": "2000753", "wikidata": "Q4417039"}}]}