{"version": 0.6, "generator": "Overpass API 0.7.62.1 084b4234", "osm3s": {"timestamp_osm_base": "2024-05-17T19:26:45Z", "copyright": "The data included in this document is from www.openstreetmap.org. The data is made available under ODbL."}, "elements": [{"type": "node", "id": 498861258, "lat": 56.4605591, "lon": 84.9900111, "tags": {"bench": "yes", "bus": "yes", "highway": "bus_stop", "name": "\u0412\u043e\u043a\u0437\u0430\u043b \u0422\u043e\u043c\u0441\u043a I", "name:en": "Tomsk I station", "name:eo": "Tomsk I", "name:ru": "\u0412\u043e\u043a\u0437\u0430\u043b \u0422\u043e\u043c\u0441\u043a I", "public_transport": "platform", "shelter": "no", "source_ref": "http://tomsk.gov.ru/tomsk?doc&nd=951825037", "tactile_paving": "no", "trolleybus": "yes"}}, {"type": "node", "id": 642896864, "lat": 56.4614667, "lon": 84.9871742, "tags": {"bench": "yes", "bus": "yes", "highway": "bus_stop", "name": "\u041c\u0430\u0433\u0430\u0437\u0438\u043d \u042e\u0431\u0438\u043b\u0435\u0439\u043d\u044b\u0439", "name:en": "Yubileynyy store", "name:ru": "\u041c\u0430\u0433\u0430\u0437\u0438\u043d \u042e\u0431\u0438\u043b\u0435\u0439\u043d\u044b\u0439", "network": "\u043c\u0430\u0440\u0448\u0440\u0443\u0442\u043d\u044b\u0439 \u0430\u0432\u0442\u043e\u0431\u0443\u0441 4, 36 ,37, 112, 112 \u0421\u0435\u0432\u0435\u0440\u043d\u044b\u0439 \u043f\u0430\u0440\u043a", "operator": "\u0421\u0431\u0435\u0440\u0431\u0430\u043d\u043a", "public_transport": "platform", "shelter": "yes", "source_ref": "t", "tactile_paving": "no"}}, {"type": "node", "id": 10752412542, "lat": 56.4614228, "lon": 84.9878901, "tags": {"name": "\u0412\u043e\u043a\u0437\u0430\u043b \u0422\u043e\u043c\u0441\u043a I", "name:en": "Vokzal Tomsk Pervy", "name:ru": "\u0412\u043e\u043a\u0437\u0430\u043b \u0422\u043e\u043c\u0441\u043a I", "public_transport": "platform", "railway": "platform"}}, {"type": "node", "id": 10752412543, "lat": 56.4615228, "lon": 84.9883434, "tags": {"bench": "yes", "bin": "yes", "lit": "no", "name": "\u0412\u043e\u043a\u0437\u0430\u043b \u0422\u043e\u043c\u0441\u043a I", "name:en": "Vokzal Tomsk Pervy", "name:ru": "\u0412\u043e\u043a\u0437\u0430\u043b \u0422\u043e\u043c\u0441\u043a I", "public_transport": "platform", "railway": "platform", "shelter": "yes", "tactile_paving": "no"}}]}