{"version": 0.6, "generator": "Overpass API 0.7.62.1 084b4234", "osm3s": {"timestamp_osm_base": "2024-05-18T00:20:20Z", "copyright": "The data included in this document is from www.openstreetmap.org. The data is made available under ODbL."}, "elements": [{"type": "node", "id": 1368861461, "lat": 57.7578863, "lon": 40.9754823}, {"type": "node", "id": 1368861503, "lat": 57.7577682, "lon": 40.9755706}, {"type": "node", "id": 1368861552, "lat": 57.7580855, "lon": 40.9764192}, {"type": "node", "id": 1368861561, "lat": 57.7579674, "lon": 40.9765075}, {"type": "node", "id": 1859795756, "lat": 57.7589591, "lon": 40.9751571}, {"type": "node", "id": 1859795780, "lat": 57.7590741, "lon": 40.9752725}, {"type": "node", "id": 1859795858, "lat": 57.7591903, "lon": 40.974393}, {"type": "node", "id": 1859795887, "lat": 57.7593031, "lon": 40.9745169}, {"type": "node", "id": 1859795988, "lat": 57.7602245, "lon": 40.9777687}, {"type": "node", "id": 1859795990, "lat": 57.7602353, "lon": 40.9775432}, {"type": "node", "id": 1859796067, "lat": 57.7608336, "lon": 40.9768813}, {"type": "node", "id": 1859796068, "lat": 57.7608476, "lon": 40.9766634}, {"type": "node", "id": 1859796069, "lat": 57.7608692, "lon": 40.977877}, {"type": "node", "id": 1859796071, "lat": 57.7609023, "lon": 40.9758215}, {"type": "node", "id": 1859796072, "lat": 57.7608799, "lon": 40.9776515}, {"type": "node", "id": 1859796074, "lat": 57.7609164, "lon": 40.97557}, {"type": "node", "id": 1859796088, "lat": 57.7613751, "lon": 40.9786588}, {"type": "node", "id": 1859796090, "lat": 57.7614127, "lon": 40.9780768}, {"type": "node", "id": 1859796092, "lat": 57.7614534, "lon": 40.9770211}, {"type": "node", "id": 1859796094, "lat": 57.7614761, "lon": 40.97622}, {"type": "node", "id": 1859796095, "lat": 57.7614612, "lon": 40.9767938}, {"type": "node", "id": 1859796100, "lat": 57.7615194, "lon": 40.9759431}, {"type": "node", "id": 1859796102, "lat": 57.7615335, "lon": 40.9756916}, {"type": "node", "id": 1859796103, "lat": 57.7614892, "lon": 40.9786847}, {"type": "node", "id": 1859796104, "lat": 57.7615268, "lon": 40.9781028}, {"type": "node", "id": 1859796106, "lat": 57.7615865, "lon": 40.9768052}, {"type": "node", "id": 1859796108, "lat": 57.7616013, "lon": 40.9762313}, {"type": "node", "id": 1864635487, "lat": 57.7580173, "lon": 40.9782378}, {"type": "node", "id": 1864635489, "lat": 57.7580525, "lon": 40.9776407}, {"type": "node", "id": 1864635490, "lat": 57.758126, "lon": 40.9782603}, {"type": "node", "id": 1864635492, "lat": 57.7581612, "lon": 40.9776632}, {"type": "node", "id": 3543477918, "lat": 57.7609178, "lon": 40.9774315}, {"type": "node", "id": 3543477919, "lat": 57.760904, "lon": 40.9775829}, {"type": "node", "id": 3543477920, "lat": 57.7612386, "lon": 40.9775346}, {"type": "node", "id": 3543477921, "lat": 57.7612247, "lon": 40.9776861}, {"type": "node", "id": 5331455589, "lat": 57.758995, "lon": 40.9751956}, {"type": "way", "id": 122521727, "nodes": [1368861461, 1368861552, 1368861561, 1368861503, 1368861461], "tags": {"addr:city": "\u041a\u043e\u0441\u0442\u0440\u043e\u043c\u0430", "addr:country": "RU", "addr:housenumber": "3", "addr:street": "\u0443\u043b\u0438\u0446\u0430 \u0422\u0438\u0442\u043e\u0432\u0430", "building": "apartments", "building:colour": "yellow", "building:levels": "4"}}, {"type": "way", "id": 175381159, "nodes": [1859795988, 1859796069, 1859796072, 1859795990, 1859795988], "tags": {"addr:city": "\u041a\u043e\u0441\u0442\u0440\u043e\u043c\u0430", "addr:housenumber": "138", "addr:street": "\u041d\u0438\u043a\u0438\u0442\u0441\u043a\u0430\u044f \u0443\u043b\u0438\u0446\u0430", "building": "apartments", "building:levels": "5"}}, {"type": "way", "id": 175381171, "nodes": [1859796104, 1859796090, 1859796088, 1859796103, 1859796104], "tags": {"addr:city": "\u041a\u043e\u0441\u0442\u0440\u043e\u043c\u0430", "addr:housenumber": "55", "addr:street": "\u041d\u0438\u043a\u0438\u0442\u0441\u043a\u0430\u044f \u0443\u043b\u0438\u0446\u0430", "building": "apartments", "building:levels": "5"}}, {"type": "way", "id": 175381179, "nodes": [1859795756, 5331455589, 1859795780, 1859795887, 1859795858, 1859795756], "tags": {"addr:city": "\u041a\u043e\u0441\u0442\u0440\u043e\u043c\u0430", "addr:housenumber": "14", "addr:street": "\u0443\u043b\u0438\u0446\u0430 \u0411\u0435\u0440\u0451\u0437\u043e\u0432\u0430\u044f \u0420\u043e\u0449\u0430", "building": "apartments", "building:levels": "5"}}, {"type": "way", "id": 175381190, "nodes": [1859796108, 1859796094, 1859796095, 1859796106, 1859796108], "tags": {"addr:city": "\u041a\u043e\u0441\u0442\u0440\u043e\u043c\u0430", "addr:housenumber": "132", "addr:street": "\u041d\u0438\u043a\u0438\u0442\u0441\u043a\u0430\u044f \u0443\u043b\u0438\u0446\u0430", "building": "apartments", "building:levels": "5"}}, {"type": "way", "id": 175381194, "nodes": [1859796071, 1859796100, 1859796102, 1859796074, 1859796071], "tags": {"addr:city": "\u041a\u043e\u0441\u0442\u0440\u043e\u043c\u0430", "addr:housenumber": "128", "addr:street": "\u041d\u0438\u043a\u0438\u0442\u0441\u043a\u0430\u044f \u0443\u043b\u0438\u0446\u0430", "building": "apartments", "building:levels": "5"}}, {"type": "way", "id": 175381209, "nodes": [1859796067, 1859796092, 1859796095, 1859796068, 1859796067], "tags": {"addr:city": "\u041a\u043e\u0441\u0442\u0440\u043e\u043c\u0430", "addr:housenumber": "134", "addr:street": "\u041d\u0438\u043a\u0438\u0442\u0441\u043a\u0430\u044f \u0443\u043b\u0438\u0446\u0430", "building": "apartments", "building:levels": "5"}}, {"type": "way", "id": 175904971, "nodes": [1864635487, 1864635490, 1864635492, 1864635489, 1864635487], "tags": {"addr:city": "\u041a\u043e\u0441\u0442\u0440\u043e\u043c\u0430", "addr:country": "RU", "addr:housenumber": "1", "addr:street": "\u0443\u043b\u0438\u0446\u0430 \u0422\u0438\u0442\u043e\u0432\u0430", "building": "apartments", "building:levels": "5"}}, {"type": "way", "id": 348158503, "nodes": [3543477920, 3543477921, 3543477919, 3543477918, 3543477920], "tags": {"addr:housenumber": "134\u0410", "addr:street": "\u041d\u0438\u043a\u0438\u0442\u0441\u043a\u0430\u044f \u0443\u043b\u0438\u0446\u0430", "building": "apartments", "building:colour": "green", "building:levels": "2"}}]}