{"version": 0.6, "generator": "Overpass API 0.7.62.1 084b4234", "osm3s": {"timestamp_osm_base": "2024-05-17T06:47:40Z", "copyright": "The data included in this document is from www.openstreetmap.org. The data is made available under ODbL."}, "elements": [{"type": "node", "id": 5720245365, "lat": 55.6119989, "lon": 37.6066625, "tags": {"amenity": "cafe", "contact:phone": "+7 915 1305649", "contact:website": "https://shoko.ru/", "cuisine": "coffee_shop", "name": "\u0428\u043e\u043a\u043e\u043b\u0430\u0434\u043d\u0438\u0446\u0430", "name:en": "Shokoladnitsa", "opening_hours": "Mo-Su 10:00-22:00"}}, {"type": "node", "id": 6536736861, "lat": 55.6122793, "lon": 37.6069468, "tags": {"amenity": "cafe", "contact:email": "hotline@coffee-like.com", "contact:phone": "+7 341 2908292;+7 800 3334130", "contact:website": "https://coffee-like.com/", "name": "Coffee Like", "opening_hours": "Mo-Su 10:00-22:00", "operator": "\u041a\u043b\u0435\u0431\u043b\u0435\u0435\u0432 \u0420\u0443\u0441\u0442\u0430\u043c \u0425\u0430\u043b\u0438\u0442\u043e\u0432\u0438\u0447"}}, {"type": "node", "id": 7020679687, "lat": 55.6114948, "lon": 37.6074738, "tags": {"amenity": "cafe", "contact:email": "info@milanofood.ru", "contact:phone": "+7 800 3503355", "contact:website": "https://milanofood.ru", "cuisine": "pizza", "name": "\u041c\u0438\u043b\u0430\u043d\u043e", "name:it": "Milano", "opening_hours": "Mo-Su 09:00-22:00"}}, {"type": "node", "id": 7437460033, "lat": 55.612499, "lon": 37.6085401, "tags": {"amenity": "cafe", "contact:email": "team@jeffreys.ru", "contact:phone": "+7 915 3399175", "contact:website": "https://jeffreys.ru/", "name": "Jeffreys coffeeshop", "opening_hours": "09:00-23:00", "operator": "\u041a\u043e\u043d\u0446\u0435\u043f\u0442 \u041a\u043e\u0444\u0438"}}, {"type": "node", "id": 7437473683, "lat": 55.6118077, "lon": 37.6073062, "tags": {"amenity": "cafe", "contact:email": "team@jeffreys.ru", "contact:phone": "+7 915 3399175", "contact:website": "https://jeffreys.ru/", "name": "Jeffrey's Coffee", "opening_hours": "09:00-23:00", "operator": "\u041a\u043e\u043d\u0446\u0435\u043f\u0442 \u041a\u043e\u0444\u0438"}}, {"type": "node", "id": 7832267260, "lat": 55.6118229, "lon": 37.6076496, "tags": {"amenity": "cafe", "contact:email": "102311@cinnabon.me", "contact:facebook": "https://www.facebook.com/cinnabon.russia", "contact:instagram": "https://instagram.com/cinnabon_russia", "contact:phone": "+7 925 2618586", "contact:vk": "https://vk.com/cinnabon_rus", "contact:website": "https://cinnabonrussia.com/", "name": "Cinnabon", "opening_hours": "Mo-Su 10:00-22:00", "operator": "\u0413\u0410\u0420\u0414\u0410"}}, {"type": "node", "id": 8839111687, "lat": 55.6122201, "lon": 37.6067188, "tags": {"amenity": "cafe", "contact:email": "1012.Columbus@gagawa.ru", "contact:phone": "+7 903 5623510", "contact:website": "https://www.gagawa.ru/", "name": "Gagawa", "opening_hours": "Mo-Su 10:00-22:00"}}]}