{"version": 0.6, "generator": "Overpass API 0.7.62.1 084b4234", "osm3s": {"timestamp_osm_base": "2024-05-18T01:06:17Z", "copyright": "The data included in this document is from www.openstreetmap.org. The data is made available under ODbL."}, "elements": [{"type": "node", "id": 292788407, "lat": 57.1325828, "lon": 65.5808124}, {"type": "node", "id": 292788408, "lat": 57.1324918, "lon": 65.5806496}, {"type": "node", "id": 292788409, "lat": 57.131601, "lon": 65.582337}, {"type": "node", "id": 292788410, "lat": 57.131692, "lon": 65.5824999}, {"type": "node", "id": 292788415, "lat": 57.1317837, "lon": 65.5830225}, {"type": "node", "id": 292788416, "lat": 57.1316811, "lon": 65.5828382}, {"type": "node", "id": 292788417, "lat": 57.1312566, "lon": 65.5836407}, {"type": "node", "id": 292788418, "lat": 57.131532, "lon": 65.5841979}, {"type": "node", "id": 292788420, "lat": 57.1314514, "lon": 65.5836506}, {"type": "node", "id": 292788435, "lat": 57.1310232, "lon": 65.5837495}, {"type": "node", "id": 292788436, "lat": 57.1309309, "lon": 65.5835843}, {"type": "node", "id": 292788437, "lat": 57.1300567, "lon": 65.5852432}, {"type": "node", "id": 292788438, "lat": 57.130149, "lon": 65.5854084}, {"type": "node", "id": 292788443, "lat": 57.1312568, "lon": 65.5870759}, {"type": "node", "id": 292788445, "lat": 57.1302613, "lon": 65.5856311}, {"type": "node", "id": 292788453, "lat": 57.1303524, "lon": 65.5854581}, {"type": "node", "id": 292788461, "lat": 57.1311656, "lon": 65.5872489}, {"type": "node", "id": 292788464, "lat": 57.132299, "lon": 65.585377}, {"type": "node", "id": 292788465, "lat": 57.132217, "lon": 65.5852317}, {"type": "node", "id": 292788466, "lat": 57.1313203, "lon": 65.5869508}, {"type": "node", "id": 292788467, "lat": 57.1314023, "lon": 65.5870961}, {"type": "node", "id": 293826574, "lat": 57.1333953, "lon": 65.5789947}, {"type": "node", "id": 293826589, "lat": 57.13347, "lon": 65.5791284}, {"type": "node", "id": 293826591, "lat": 57.1329801, "lon": 65.5797823}, {"type": "node", "id": 293826604, "lat": 57.1336335, "lon": 65.5796112}, {"type": "node", "id": 293826606, "lat": 57.1338915, "lon": 65.5804114}, {"type": "node", "id": 293826617, "lat": 57.1332217, "lon": 65.5799448}, {"type": "node", "id": 293826620, "lat": 57.1334781, "lon": 65.5807122}, {"type": "node", "id": 293826650, "lat": 57.133683, "lon": 65.5807742}, {"type": "node", "id": 293826705, "lat": 57.1330548, "lon": 65.5799161}, {"type": "node", "id": 293826719, "lat": 57.1335609, "lon": 65.5805561}, {"type": "node", "id": 293826722, "lat": 57.1331389, "lon": 65.580101}, {"type": "node", "id": 293826732, "lat": 57.1339833, "lon": 65.5802372}, {"type": "node", "id": 293826733, "lat": 57.1335416, "lon": 65.5797854}, {"type": "node", "id": 293826763, "lat": 57.1341237, "lon": 65.5815629}, {"type": "node", "id": 293826765, "lat": 57.1335982, "lon": 65.5809351, "tags": {"addr:city": "\u0422\u044e\u043c\u0435\u043d\u044c", "addr:housenumber": "13", "addr:street": "\u0422\u0443\u043b\u044c\u0441\u043a\u0430\u044f \u0443\u043b\u0438\u0446\u0430"}}, {"type": "node", "id": 304705449, "lat": 57.1331366, "lon": 65.5817877}, {"type": "node", "id": 304705450, "lat": 57.1335936, "lon": 65.5826034}, {"type": "node", "id": 304705451, "lat": 57.1335167, "lon": 65.5827498}, {"type": "node", "id": 304705452, "lat": 57.1330596, "lon": 65.5819341}, {"type": "node", "id": 304705460, "lat": 57.1337222, "lon": 65.5827114}, {"type": "node", "id": 304705462, "lat": 57.1335093, "lon": 65.5827638}, {"type": "node", "id": 304705492, "lat": 57.1331251, "lon": 65.5838101}, {"type": "node", "id": 304705493, "lat": 57.1330396, "lon": 65.5836575}, {"type": "node", "id": 304705524, "lat": 57.1330042, "lon": 65.5837376}, {"type": "node", "id": 304705525, "lat": 57.1325646, "lon": 65.582951}, {"type": "node", "id": 304705526, "lat": 57.1324775, "lon": 65.5831164}, {"type": "node", "id": 304705527, "lat": 57.1329171, "lon": 65.583903}, {"type": "node", "id": 304705545, "lat": 57.1323674, "lon": 65.582299}, {"type": "node", "id": 304705546, "lat": 57.1322665, "lon": 65.5821183}, {"type": "node", "id": 304705547, "lat": 57.1319552, "lon": 65.582709}, {"type": "node", "id": 304705548, "lat": 57.1322237, "lon": 65.5831895}, {"type": "node", "id": 304705549, "lat": 57.1323729, "lon": 65.5829624}, {"type": "node", "id": 304705550, "lat": 57.1322772, "lon": 65.5827911}, {"type": "node", "id": 304705551, "lat": 57.1322231, "lon": 65.5829222}, {"type": "node", "id": 304705552, "lat": 57.1321283, "lon": 65.5827527}, {"type": "node", "id": 304705554, "lat": 57.1329127, "lon": 65.5841842}, {"type": "node", "id": 304705555, "lat": 57.1328325, "lon": 65.5840404}, {"type": "node", "id": 304705556, "lat": 57.1324093, "lon": 65.5848422}, {"type": "node", "id": 304705557, "lat": 57.1325063, "lon": 65.5849541}, {"type": "node", "id": 304705559, "lat": 57.1320515, "lon": 65.5837025}, {"type": "node", "id": 304705560, "lat": 57.1319195, "lon": 65.5834653}, {"type": "node", "id": 304705562, "lat": 57.1316686, "lon": 65.5842777}, {"type": "node", "id": 304706177, "lat": 57.1315813, "lon": 65.5795196}, {"type": "node", "id": 304706178, "lat": 57.1314556, "lon": 65.5792928}, {"type": "node", "id": 304706179, "lat": 57.131336, "lon": 65.5795178}, {"type": "node", "id": 304706180, "lat": 57.1314618, "lon": 65.5797446}, {"type": "node", "id": 304706185, "lat": 57.1317469, "lon": 65.5794359}, {"type": "node", "id": 304706186, "lat": 57.1319612, "lon": 65.5798224}, {"type": "node", "id": 304706187, "lat": 57.1318806, "lon": 65.5799742}, {"type": "node", "id": 304706188, "lat": 57.1316663, "lon": 65.5795877}, {"type": "node", "id": 304706209, "lat": 57.1318928, "lon": 65.5801686}, {"type": "node", "id": 304706210, "lat": 57.1314676, "lon": 65.580969}, {"type": "node", "id": 304706211, "lat": 57.1313911, "lon": 65.5808309}, {"type": "node", "id": 304706212, "lat": 57.1318162, "lon": 65.5800306}, {"type": "node", "id": 304706218, "lat": 57.1314183, "lon": 65.5810601}, {"type": "node", "id": 304706219, "lat": 57.1305311, "lon": 65.58273}, {"type": "node", "id": 304706220, "lat": 57.1304558, "lon": 65.5825941}, {"type": "node", "id": 304706221, "lat": 57.1313429, "lon": 65.5809242}, {"type": "node", "id": 304706223, "lat": 57.1311214, "lon": 65.5805711}, {"type": "node", "id": 304706224, "lat": 57.1311218, "lon": 65.5807726}, {"type": "node", "id": 304706225, "lat": 57.1306163, "lon": 65.5807766}, {"type": "node", "id": 304706226, "lat": 57.1306158, "lon": 65.5805751}, {"type": "node", "id": 304706270, "lat": 57.1304608, "lon": 65.5828766}, {"type": "node", "id": 304706271, "lat": 57.1298167, "lon": 65.5840889}, {"type": "node", "id": 304706272, "lat": 57.1297401, "lon": 65.5839507}, {"type": "node", "id": 304706273, "lat": 57.1303841, "lon": 65.5827384}, {"type": "node", "id": 348245234, "lat": 57.1325516, "lon": 65.5857279}, {"type": "node", "id": 348245236, "lat": 57.1320927, "lon": 65.5866031}, {"type": "node", "id": 348245237, "lat": 57.1321715, "lon": 65.5867433}, {"type": "node", "id": 348245238, "lat": 57.1326304, "lon": 65.5858682}, {"type": "node", "id": 348245247, "lat": 57.1331575, "lon": 65.5865877}, {"type": "node", "id": 348245248, "lat": 57.1326991, "lon": 65.5857625}, {"type": "node", "id": 348245250, "lat": 57.132772, "lon": 65.585625}, {"type": "node", "id": 348245266, "lat": 57.1332303, "lon": 65.5864502}, {"type": "node", "id": 517420565, "lat": 57.1305187, "lon": 65.5802038}, {"type": "node", "id": 517420566, "lat": 57.1298524, "lon": 65.580209}, {"type": "node", "id": 517420567, "lat": 57.1298529, "lon": 65.5803979}, {"type": "node", "id": 517420570, "lat": 57.1305191, "lon": 65.5803927}, {"type": "node", "id": 517420855, "lat": 57.1305185, "lon": 65.5795106}, {"type": "node", "id": 517420858, "lat": 57.1298476, "lon": 65.5795159}, {"type": "node", "id": 517420861, "lat": 57.129848, "lon": 65.5797219}, {"type": "node", "id": 517420864, "lat": 57.1305189, "lon": 65.5797166}, {"type": "node", "id": 613345711, "lat": 57.1315769, "lon": 65.584113}, {"type": "node", "id": 613345712, "lat": 57.1316412, "lon": 65.5839914}, {"type": "node", "id": 1182594459, "lat": 57.1313568, "lon": 65.5838206}, {"type": "node", "id": 1182594485, "lat": 57.1319879, "lon": 65.5838228}, {"type": "node", "id": 1182594525, "lat": 57.1319475, "lon": 65.5837503}, {"type": "node", "id": 1182594536, "lat": 57.1340389, "lon": 65.5817238}, {"type": "node", "id": 1182594539, "lat": 57.1313398, "lon": 65.5838528}, {"type": "node", "id": 1182594543, "lat": 57.1317659, "lon": 65.5840937}, {"type": "node", "id": 1264613780, "lat": 57.1335949, "lon": 65.5829164}, {"type": "node", "id": 1264613787, "lat": 57.1336266, "lon": 65.5825407}, {"type": "node", "id": 1264613975, "lat": 57.133605, "lon": 65.5829345}, {"type": "node", "id": 1290074568, "lat": 57.1323342, "lon": 65.5829816}, {"type": "node", "id": 1290074624, "lat": 57.1322523, "lon": 65.5831352}, {"type": "node", "id": 1290074638, "lat": 57.1324747, "lon": 65.5849594}, {"type": "node", "id": 1290074659, "lat": 57.1322377, "lon": 65.583109}, {"type": "node", "id": 1290074718, "lat": 57.1322562, "lon": 65.5828593}, {"type": "node", "id": 1290074748, "lat": 57.1322914, "lon": 65.5830628}, {"type": "node", "id": 1290074769, "lat": 57.1324915, "lon": 65.5849275}, {"type": "node", "id": 1290074816, "lat": 57.1322485, "lon": 65.5828455}, {"type": "node", "id": 1290074848, "lat": 57.132349, "lon": 65.5830079}, {"type": "node", "id": 1290074918, "lat": 57.1322763, "lon": 65.5830358}, {"type": "node", "id": 1682771235, "lat": 57.1308988, "lon": 65.5817602}, {"type": "node", "id": 1682771236, "lat": 57.1309745, "lon": 65.5818955}, {"type": "node", "id": 3360997065, "lat": 57.1314706, "lon": 65.583236, "tags": {"amenity": "clock", "display": "analog", "support": "wall_mounted"}}, {"type": "node", "id": 4725249781, "lat": 57.1317632, "lon": 65.5861018}, {"type": "node", "id": 4725249782, "lat": 57.1318448, "lon": 65.5862478}, {"type": "node", "id": 9447170058, "lat": 57.1331172, "lon": 65.5797976, "tags": {"entrance": "staircase", "ref": "1"}}, {"type": "node", "id": 9447170059, "lat": 57.1332083, "lon": 65.5796248, "tags": {"entrance": "staircase", "ref": "2+7 (3452) 20\u201219\u201205"}}, {"type": "node", "id": 9447170060, "lat": 57.1333019, "lon": 65.5794473, "tags": {"entrance": "staircase", "ref": "3"}}, {"type": "node", "id": 9447170061, "lat": 57.1333922, "lon": 65.579276, "tags": {"entrance": "staircase", "ref": "4"}}, {"type": "node", "id": 10961028533, "lat": 57.130809, "lon": 65.5862748}, {"type": "node", "id": 10961028534, "lat": 57.1307231, "lon": 65.5864572}, {"type": "node", "id": 10961028538, "lat": 57.1304748, "lon": 65.5844497}, {"type": "node", "id": 10961028539, "lat": 57.1305634, "lon": 65.584622}, {"type": "node", "id": 11765214951, "lat": 57.1327023, "lon": 65.5842871, "tags": {"access": "private", "addr:flats": "14-29", "entrance": "staircase", "ref": "2"}}, {"type": "node", "id": 11765214952, "lat": 57.1327965, "lon": 65.5841085, "tags": {"access": "private", "addr:flats": "1-13", "entrance": "staircase", "ref": "1"}}, {"type": "node", "id": 11869229098, "lat": 57.1317425, "lon": 65.5824043, "tags": {"access": "private", "addr:flats": "1-16", "entrance": "staircase", "ref": "1"}}, {"type": "node", "id": 11869229099, "lat": 57.1318468, "lon": 65.5822066, "tags": {"access": "private", "addr:flats": "17-32", "entrance": "staircase", "ref": "2"}}, {"type": "node", "id": 11869229100, "lat": 57.1319747, "lon": 65.5819644, "tags": {"access": "private", "addr:flats": "33-48", "entrance": "staircase", "ref": "3"}}, {"type": "node", "id": 11869229101, "lat": 57.1321066, "lon": 65.5817145, "tags": {"access": "private", "addr:flats": "49-64", "entrance": "staircase", "ref": "4"}}, {"type": "node", "id": 11869229102, "lat": 57.1322242, "lon": 65.5814916, "tags": {"access": "private", "addr:flats": "65-80", "entrance": "staircase", "ref": "5"}}, {"type": "node", "id": 11869229103, "lat": 57.1323588, "lon": 65.5812367, "tags": {"access": "private", "addr:flats": "81-96", "entrance": "staircase", "ref": "6"}}, {"type": "node", "id": 11869229104, "lat": 57.1324669, "lon": 65.581032, "tags": {"access": "private", "addr:flats": "97-112", "entrance": "staircase", "ref": "7"}}, {"type": "node", "id": 11869229105, "lat": 57.1325335, "lon": 65.5809057, "tags": {"access": "private", "addr:flats": "113-128", "entrance": "staircase", "ref": "8"}}, {"type": "way", "id": 26697606, "nodes": [292788407, 292788408, 292788409, 292788410, 11869229098, 11869229099, 11869229100, 11869229101, 11869229102, 11869229103, 11869229104, 11869229105, 292788407], "tags": {"addr:city": "\u0422\u044e\u043c\u0435\u043d\u044c", "addr:country": "RU", "addr:housenumber": "171", "addr:street": "\u0443\u043b\u0438\u0446\u0430 \u0420\u0435\u0441\u043f\u0443\u0431\u043b\u0438\u043a\u0438", "building": "apartments", "building:levels": "5"}}, {"type": "way", "id": 26697609, "nodes": [292788415, 292788416, 3360997065, 292788417, 1182594459, 1182594539, 292788418, 613345711, 613345712, 292788420, 292788415], "tags": {"addr:city": "\u0422\u044e\u043c\u0435\u043d\u044c", "addr:country": "RU", "addr:housenumber": "173", "addr:street": "\u0443\u043b\u0438\u0446\u0430 \u0420\u0435\u0441\u043f\u0443\u0431\u043b\u0438\u043a\u0438", "building": "apartments", "building:levels": "5"}}, {"type": "way", "id": 26697613, "nodes": [292788435, 292788436, 10961028538, 292788437, 292788438, 10961028539, 292788435], "tags": {"addr:city": "\u0422\u044e\u043c\u0435\u043d\u044c", "addr:country": "RU", "addr:housenumber": "175", "addr:street": "\u0443\u043b\u0438\u0446\u0430 \u0420\u0435\u0441\u043f\u0443\u0431\u043b\u0438\u043a\u0438", "building": "apartments", "building:levels": "5"}}, {"type": "way", "id": 26697614, "nodes": [292788443, 10961028533, 292788453, 292788445, 10961028534, 292788461, 292788443], "tags": {"addr:city": "\u0422\u044e\u043c\u0435\u043d\u044c", "addr:country": "RU", "addr:housenumber": "40", "addr:street": "\u0443\u043b\u0438\u0446\u0430 \u041f\u0430\u0440\u0444\u0451\u043d\u043e\u0432\u0430", "building": "apartments", "building:levels": "5"}}, {"type": "way", "id": 26697619, "nodes": [292788464, 292788465, 4725249781, 292788466, 292788467, 4725249782, 292788464], "tags": {"addr:city": "\u0422\u044e\u043c\u0435\u043d\u044c", "addr:country": "RU", "addr:housenumber": "78", "addr:street": "\u0420\u0438\u0436\u0441\u043a\u0430\u044f \u0443\u043b\u0438\u0446\u0430", "building": "apartments", "building:levels": "5"}}, {"type": "way", "id": 26786954, "nodes": [293826589, 293826574, 293826591, 293826705, 9447170058, 9447170059, 9447170060, 9447170061, 293826589], "tags": {"addr:city": "\u0422\u044e\u043c\u0435\u043d\u044c", "addr:country": "RU", "addr:housenumber": "169", "addr:street": "\u0443\u043b\u0438\u0446\u0430 \u0420\u0435\u0441\u043f\u0443\u0431\u043b\u0438\u043a\u0438", "building": "apartments", "building:levels": "5"}}, {"type": "way", "id": 26786956, "nodes": [293826604, 293826732, 293826606, 293826733, 293826604], "tags": {"addr:city": "\u0422\u044e\u043c\u0435\u043d\u044c", "addr:country": "RU", "addr:housenumber": "167\u0410", "addr:street": "\u0443\u043b\u0438\u0446\u0430 \u0420\u0435\u0441\u043f\u0443\u0431\u043b\u0438\u043a\u0438", "building": "apartments", "building:levels": "5"}}, {"type": "way", "id": 26786957, "nodes": [293826719, 293826617, 293826722, 293826620, 293826719], "tags": {"addr:city": "\u0422\u044e\u043c\u0435\u043d\u044c", "addr:country": "RU", "addr:housenumber": "11", "addr:street": "\u0422\u0443\u043b\u044c\u0441\u043a\u0430\u044f \u0443\u043b\u0438\u0446\u0430", "building": "apartments", "building:levels": "5"}}, {"type": "way", "id": 26786960, "nodes": [293826650, 293826763, 1182594536, 293826765, 293826650], "tags": {"addr:city": "\u0422\u044e\u043c\u0435\u043d\u044c", "addr:country": "RU", "addr:housenumber": "66", "addr:street": "\u0420\u0438\u0436\u0441\u043a\u0430\u044f \u0443\u043b\u0438\u0446\u0430", "building": "apartments", "building:levels": "5"}}, {"type": "way", "id": 27749410, "nodes": [304705449, 304705450, 304705451, 304705452, 304705449], "tags": {"addr:city": "\u0422\u044e\u043c\u0435\u043d\u044c", "addr:country": "RU", "addr:housenumber": "12", "addr:street": "\u0422\u0443\u043b\u044c\u0441\u043a\u0430\u044f \u0443\u043b\u0438\u0446\u0430", "building": "apartments", "building:levels": "5"}}, {"type": "way", "id": 27749412, "nodes": [304705450, 1264613787, 304705460, 1264613975, 1264613780, 304705462, 304705451, 304705450], "tags": {"addr:city": "\u0422\u044e\u043c\u0435\u043d\u044c", "addr:country": "RU", "addr:housenumber": "12/2", "addr:street": "\u0422\u0443\u043b\u044c\u0441\u043a\u0430\u044f \u0443\u043b\u0438\u0446\u0430", "building": "apartments", "building:levels": "10"}}, {"type": "way", "id": 27749415, "nodes": [1264613780, 304705492, 304705493, 304705462, 1264613780], "tags": {"addr:city": "\u0422\u044e\u043c\u0435\u043d\u044c", "addr:country": "RU", "addr:housenumber": "70", "addr:street": "\u0420\u0438\u0436\u0441\u043a\u0430\u044f \u0443\u043b\u0438\u0446\u0430", "building": "apartments", "building:levels": "5"}}, {"type": "way", "id": 27749418, "nodes": [304705524, 304705525, 304705526, 304705527, 304705524], "tags": {"addr:city": "\u0422\u044e\u043c\u0435\u043d\u044c", "addr:country": "RU", "addr:housenumber": "72", "addr:street": "\u0420\u0438\u0436\u0441\u043a\u0430\u044f \u0443\u043b\u0438\u0446\u0430", "building": "apartments", "building:levels": "5"}}, {"type": "way", "id": 27749422, "nodes": [304705545, 304705546, 304705547, 304705548, 1290074624, 1290074659, 1290074918, 1290074748, 1290074568, 1290074848, 304705549, 304705550, 1290074816, 1290074718, 304705551, 304705552, 304705545], "tags": {"addr:city": "\u0422\u044e\u043c\u0435\u043d\u044c", "addr:country": "RU", "addr:housenumber": "171/2", "addr:street": "\u0443\u043b\u0438\u0446\u0430 \u0420\u0435\u0441\u043f\u0443\u0431\u043b\u0438\u043a\u0438", "building": "apartments", "building:levels": "6"}}, {"type": "way", "id": 27749424, "nodes": [304705554, 304705555, 11765214952, 11765214951, 304705556, 1290074638, 1290074769, 304705557, 304705554], "tags": {"addr:city": "\u0422\u044e\u043c\u0435\u043d\u044c", "addr:country": "RU", "addr:housenumber": "74", "addr:street": "\u0420\u0438\u0436\u0441\u043a\u0430\u044f \u0443\u043b\u0438\u0446\u0430", "building": "apartments", "building:levels": "5"}}, {"type": "way", "id": 27749425, "nodes": [304705559, 304705560, 613345712, 613345711, 304705562, 1182594543, 1182594525, 1182594485, 304705559], "tags": {"addr:city": "\u0422\u044e\u043c\u0435\u043d\u044c", "addr:country": "RU", "addr:housenumber": "173", "addr:street": "\u0443\u043b\u0438\u0446\u0430 \u0420\u0435\u0441\u043f\u0443\u0431\u043b\u0438\u043a\u0438", "building": "apartments", "building:levels": "5"}}, {"type": "way", "id": 27749449, "nodes": [304706177, 304706178, 304706179, 304706180, 304706177], "tags": {"addr:city": "\u0422\u044e\u043c\u0435\u043d\u044c", "addr:country": "RU", "addr:housenumber": "6", "addr:street": "\u0422\u0443\u043b\u044c\u0441\u043a\u0430\u044f \u0443\u043b\u0438\u0446\u0430", "building": "apartments", "building:levels": "9"}}, {"type": "way", "id": 27749452, "nodes": [304706185, 304706186, 304706187, 304706188, 304706185], "tags": {"addr:city": "\u0422\u044e\u043c\u0435\u043d\u044c", "addr:country": "RU", "addr:housenumber": "172", "addr:street": "\u0443\u043b\u0438\u0446\u0430 \u0420\u0435\u0441\u043f\u0443\u0431\u043b\u0438\u043a\u0438", "building": "apartments", "building:levels": "5"}}, {"type": "way", "id": 27749454, "nodes": [304706209, 304706210, 304706211, 304706212, 304706209], "tags": {"addr:city": "\u0422\u044e\u043c\u0435\u043d\u044c", "addr:country": "RU", "addr:housenumber": "174", "addr:street": "\u0443\u043b\u0438\u0446\u0430 \u0420\u0435\u0441\u043f\u0443\u0431\u043b\u0438\u043a\u0438", "building": "apartments", "building:levels": "5"}}, {"type": "way", "id": 27749456, "nodes": [304706218, 1682771236, 304706219, 304706220, 1682771235, 304706221, 304706218], "tags": {"addr:city": "\u0422\u044e\u043c\u0435\u043d\u044c", "addr:country": "RU", "addr:housenumber": "176", "addr:street": "\u0443\u043b\u0438\u0446\u0430 \u0420\u0435\u0441\u043f\u0443\u0431\u043b\u0438\u043a\u0438", "building": "apartments", "building:levels": "5"}}, {"type": "way", "id": 27749457, "nodes": [304706223, 304706224, 304706225, 304706226, 304706223], "tags": {"addr:city": "\u0422\u044e\u043c\u0435\u043d\u044c", "addr:country": "RU", "addr:housenumber": "178", "addr:street": "\u0443\u043b\u0438\u0446\u0430 \u0420\u0435\u0441\u043f\u0443\u0431\u043b\u0438\u043a\u0438", "building": "apartments", "building:levels": "5"}}, {"type": "way", "id": 27749468, "nodes": [304706270, 304706271, 304706272, 304706273, 304706270], "tags": {"addr:city": "\u0422\u044e\u043c\u0435\u043d\u044c", "addr:country": "RU", "addr:housenumber": "186", "addr:street": "\u0443\u043b\u0438\u0446\u0430 \u0420\u0435\u0441\u043f\u0443\u0431\u043b\u0438\u043a\u0438", "building": "apartments", "building:levels": "5"}}, {"type": "way", "id": 31302022, "nodes": [348245248, 348245247, 348245266, 348245250, 348245248], "tags": {"addr:city": "\u0422\u044e\u043c\u0435\u043d\u044c", "addr:country": "RU", "addr:housenumber": "39", "addr:street": "\u0421\u0435\u0432\u0430\u0441\u0442\u043e\u043f\u043e\u043b\u044c\u0441\u043a\u0430\u044f \u0443\u043b\u0438\u0446\u0430", "building": "apartments", "building:levels": "5"}}, {"type": "way", "id": 31302037, "nodes": [348245234, 348245236, 348245237, 348245238, 348245234], "tags": {"addr:city": "\u0422\u044e\u043c\u0435\u043d\u044c", "addr:country": "RU", "addr:housenumber": "65", "addr:street": "\u0420\u0438\u0436\u0441\u043a\u0430\u044f \u0443\u043b\u0438\u0446\u0430", "building": "apartments", "building:levels": "5"}}, {"type": "way", "id": 41852409, "nodes": [517420565, 517420566, 517420567, 517420570, 517420565], "tags": {"addr:city": "\u0422\u044e\u043c\u0435\u043d\u044c", "addr:country": "RU", "addr:housenumber": "182", "addr:street": "\u0443\u043b\u0438\u0446\u0430 \u0420\u0435\u0441\u043f\u0443\u0431\u043b\u0438\u043a\u0438", "building": "apartments", "building:levels": "5"}}, {"type": "way", "id": 41852423, "nodes": [517420855, 517420858, 517420861, 517420864, 517420855], "tags": {"addr:city": "\u0422\u044e\u043c\u0435\u043d\u044c", "addr:country": "RU", "addr:housenumber": "180", "addr:street": "\u0443\u043b\u0438\u0446\u0430 \u0420\u0435\u0441\u043f\u0443\u0431\u043b\u0438\u043a\u0438", "building": "apartments", "building:levels": "5"}}]}