{"version": 0.6, "generator": "Overpass API 0.7.62.1 084b4234", "osm3s": {"timestamp_osm_base": "2024-05-18T01:25:44Z", "copyright": "The data included in this document is from www.openstreetmap.org. The data is made available under ODbL."}, "elements": [{"type": "node", "id": 730568710, "lat": 54.6288439, "lon": 39.7089702}, {"type": "node", "id": 730568714, "lat": 54.6289002, "lon": 39.7089802}, {"type": "node", "id": 730568718, "lat": 54.6293984, "lon": 39.7081915}, {"type": "node", "id": 730568733, "lat": 54.6288444, "lon": 39.7064743}, {"type": "node", "id": 730568743, "lat": 54.6296238, "lon": 39.7074725}, {"type": "node", "id": 730568748, "lat": 54.6288324, "lon": 39.7091917}, {"type": "node", "id": 730568749, "lat": 54.6294585, "lon": 39.708516}, {"type": "node", "id": 730568754, "lat": 54.6298119, "lon": 39.7073871}, {"type": "node", "id": 730568756, "lat": 54.6291461, "lon": 39.7094915}, {"type": "node", "id": 730568761, "lat": 54.6287813, "lon": 39.709178}, {"type": "node", "id": 730568763, "lat": 54.6287681, "lon": 39.7067099}, {"type": "node", "id": 730568772, "lat": 54.6295485, "lon": 39.7074642}, {"type": "node", "id": 730568775, "lat": 54.6291016, "lon": 39.7091727}, {"type": "node", "id": 730568778, "lat": 54.6297474, "lon": 39.7075881}, {"type": "node", "id": 730568785, "lat": 54.6296247, "lon": 39.7072287}, {"type": "node", "id": 730568793, "lat": 54.6296919, "lon": 39.7072752}, {"type": "node", "id": 730568796, "lat": 54.6293462, "lon": 39.7084088}, {"type": "node", "id": 730568801, "lat": 54.6300364, "lon": 39.7066688}, {"type": "node", "id": 730568804, "lat": 54.6284951, "lon": 39.7089205}, {"type": "node", "id": 730568805, "lat": 54.6299165, "lon": 39.7065569}, {"type": "node", "id": 730568825, "lat": 54.6295219, "lon": 39.7083071}, {"type": "node", "id": 730591447, "lat": 54.6273431, "lon": 39.707995}, {"type": "node", "id": 730591464, "lat": 54.6275463, "lon": 39.7078208}, {"type": "node", "id": 730591467, "lat": 54.6273997, "lon": 39.7081922}, {"type": "node", "id": 730591468, "lat": 54.6276029, "lon": 39.708018}, {"type": "node", "id": 1104778293, "lat": 54.6283906, "lon": 39.7116489}, {"type": "node", "id": 1104778300, "lat": 54.6287844, "lon": 39.7116193}, {"type": "node", "id": 1104778318, "lat": 54.6288197, "lon": 39.7130243}, {"type": "node", "id": 1104778322, "lat": 54.6286852, "lon": 39.7130344}, {"type": "node", "id": 1104778327, "lat": 54.6286564, "lon": 39.7118846}, {"type": "node", "id": 1104778333, "lat": 54.628397, "lon": 39.7119039}, {"type": "node", "id": 1106327948, "lat": 54.6293879, "lon": 39.7100812}, {"type": "node", "id": 1106327949, "lat": 54.6296762, "lon": 39.7103497}, {"type": "node", "id": 1106327951, "lat": 54.629733, "lon": 39.7101679}, {"type": "node", "id": 1106327953, "lat": 54.6295453, "lon": 39.7099932}, {"type": "node", "id": 1106327964, "lat": 54.6297548, "lon": 39.7093218}, {"type": "node", "id": 1106327965, "lat": 54.6296541, "lon": 39.709228}, {"type": "node", "id": 1106328007, "lat": 54.6298262, "lon": 39.7090915}, {"type": "node", "id": 1106328009, "lat": 54.6300368, "lon": 39.7084167}, {"type": "node", "id": 1106328012, "lat": 54.6302119, "lon": 39.7085798}, {"type": "node", "id": 1106328013, "lat": 54.6302641, "lon": 39.7084125}, {"type": "node", "id": 1106328015, "lat": 54.6299854, "lon": 39.7081531}, {"type": "node", "id": 1106328017, "lat": 54.6297227, "lon": 39.7089951}, {"type": "node", "id": 1167780188, "lat": 54.6309308, "lon": 39.7079112}, {"type": "node", "id": 1167780190, "lat": 54.6307964, "lon": 39.7077858}, {"type": "node", "id": 1167780192, "lat": 54.6304904, "lon": 39.7087529}, {"type": "node", "id": 1167780195, "lat": 54.6306213, "lon": 39.7088786}, {"type": "node", "id": 1167780206, "lat": 54.6307711, "lon": 39.7070475}, {"type": "node", "id": 1167780208, "lat": 54.6309606, "lon": 39.707227}, {"type": "node", "id": 1167780210, "lat": 54.6308927, "lon": 39.707441}, {"type": "node", "id": 1167780213, "lat": 54.6310315, "lon": 39.7075724}, {"type": "node", "id": 1167780216, "lat": 54.6311804, "lon": 39.707103}, {"type": "node", "id": 1167780227, "lat": 54.6308521, "lon": 39.7067921}, {"type": "node", "id": 1168011198, "lat": 54.6282161, "lon": 39.7091698}, {"type": "node", "id": 1168011200, "lat": 54.6289219, "lon": 39.7097058}, {"type": "node", "id": 1168011202, "lat": 54.6288253, "lon": 39.7100853}, {"type": "node", "id": 1168011212, "lat": 54.6281195, "lon": 39.7095492}, {"type": "node", "id": 1437895029, "lat": 54.6285578, "lon": 39.7087127}, {"type": "node", "id": 2056143660, "lat": 54.6311835, "lon": 39.7063185}, {"type": "node", "id": 2056143670, "lat": 54.6311208, "lon": 39.7065483}, {"type": "node", "id": 2056143673, "lat": 54.6310108, "lon": 39.7061777}, {"type": "node", "id": 2056143676, "lat": 54.630948, "lon": 39.7064074}, {"type": "node", "id": 3736260296, "lat": 54.6310867, "lon": 39.7111989}, {"type": "node", "id": 3736262668, "lat": 54.6307193, "lon": 39.7108817}, {"type": "node", "id": 3736262669, "lat": 54.6309941, "lon": 39.7099313}, {"type": "node", "id": 3736262670, "lat": 54.6312204, "lon": 39.7101266}, {"type": "node", "id": 3736262671, "lat": 54.6309338, "lon": 39.7106939}, {"type": "node", "id": 3736262672, "lat": 54.6311731, "lon": 39.7109004}, {"type": "node", "id": 3736262673, "lat": 54.6310555, "lon": 39.7102732}, {"type": "node", "id": 3736262674, "lat": 54.6311535, "lon": 39.7103578}, {"type": "node", "id": 4387227191, "lat": 54.6289276, "lon": 39.7090064}, {"type": "node", "id": 8074747079, "lat": 54.6298878, "lon": 39.7066489, "tags": {"addr:flats": "22-30", "entrance": "staircase", "ref": "3"}}, {"type": "node", "id": 8074747080, "lat": 54.6297379, "lon": 39.7071282, "tags": {"addr:flats": "4-12", "entrance": "staircase", "ref": "1"}}, {"type": "node", "id": 8074747081, "lat": 54.6298128, "lon": 39.7068885, "tags": {"addr:flats": "13-18", "entrance": "staircase", "ref": "2"}}, {"type": "node", "id": 8074747082, "lat": 54.6295903, "lon": 39.7075792, "tags": {"addr:flats": "22-30", "entrance": "staircase", "ref": "3"}}, {"type": "node", "id": 8074747083, "lat": 54.6294357, "lon": 39.7080725, "tags": {"addr:flats": "4-12", "entrance": "staircase", "ref": "1"}}, {"type": "node", "id": 8074747084, "lat": 54.6295095, "lon": 39.707837, "tags": {"addr:flats": "13-18", "entrance": "staircase", "ref": "2"}}, {"type": "node", "id": 8074747085, "lat": 54.6294617, "lon": 39.7073803, "tags": {"addr:flats": "81-100", "entrance": "staircase", "ref": "6"}}, {"type": "node", "id": 8074747086, "lat": 54.6293377, "lon": 39.7072604, "tags": {"addr:flats": "66-80", "entrance": "staircase", "ref": "5"}}, {"type": "node", "id": 8074747087, "lat": 54.6292115, "lon": 39.7071385, "tags": {"addr:flats": "51-65", "entrance": "staircase", "ref": "4"}}, {"type": "node", "id": 8074747088, "lat": 54.629093, "lon": 39.707024, "tags": {"addr:flats": "36-50", "entrance": "staircase", "ref": "3"}}, {"type": "node", "id": 8074747089, "lat": 54.628974, "lon": 39.7069089, "tags": {"addr:flats": "21-35", "entrance": "staircase", "ref": "2"}}, {"type": "node", "id": 8074747090, "lat": 54.6288475, "lon": 39.7067866, "tags": {"addr:flats": "1-20", "entrance": "staircase", "ref": "1"}}, {"type": "node", "id": 9028371504, "lat": 54.6288132, "lon": 39.7127647, "tags": {"historic": "memorial", "inscription": "\u0412 \u044d\u0442\u043e\u043c \u0434\u043e\u043c\u0435 \u0441 1962 \u043f\u043e 2015 \u0433\u0433. \u0436\u0438\u043b \u0410\u043b\u0435\u043a\u0441\u0435\u0439 \u0410\u043d\u0433\u0435\u043b\u043e\u0432\u0438\u0447 \u0412\u0430\u0439\u0446\u0435\u043d (1922-2015), \u0432\u0435\u0442\u0435\u0440\u0430\u043d \u0412\u0435\u043b\u0438\u043a\u043e\u0439 \u041e\u0442\u0435\u0447\u0435\u0441\u0442\u0432\u0435\u043d\u043d\u043e\u0439 \u0432\u043e\u0439\u043d\u044b, \u0443\u0447\u0430\u0441\u0442\u043d\u0438\u043a \u0432\u043e\u0441\u0441\u0442\u0430\u043d\u0438\u044f \u0432 \u043b\u0430\u0433\u0435\u0440\u0435 \u0441\u043c\u0435\u0440\u0442\u0438 \u00ab\u0421\u043e\u0431\u0438\u0431\u043e\u0440\u00bb 14 \u043e\u043a\u0442\u044f\u0431\u0440\u044f 1943\u0433.", "material": "stone", "memorial": "plaque", "start_date": "2018"}}, {"type": "way", "id": 58947004, "nodes": [730568785, 730568772, 8074747085, 8074747086, 8074747087, 8074747088, 8074747089, 8074747090, 730568763, 730568733, 730568785], "tags": {"addr:city": "\u0420\u044f\u0437\u0430\u043d\u044c", "addr:country": "RU", "addr:housenumber": "57 \u043a1", "addr:street": "\u041f\u0435\u0440\u0432\u043e\u043c\u0430\u0439\u0441\u043a\u0438\u0439 \u043f\u0440\u043e\u0441\u043f\u0435\u043a\u0442", "building": "apartments", "building:levels": "5"}}, {"type": "way", "id": 58947008, "nodes": [730568778, 730568825, 730568718, 8074747083, 8074747084, 8074747082, 730568743, 730568778], "tags": {"addr:city": "\u0420\u044f\u0437\u0430\u043d\u044c", "addr:country": "RU", "addr:housenumber": "57", "addr:street": "\u041f\u0435\u0440\u0432\u043e\u043c\u0430\u0439\u0441\u043a\u0438\u0439 \u043f\u0440\u043e\u0441\u043f\u0435\u043a\u0442", "building": "apartments", "building:levels": "4"}}, {"type": "way", "id": 58947012, "nodes": [730568748, 730568756, 730568749, 730568796, 730568775, 4387227191, 730568714, 730568748], "tags": {"addr:city": "\u0420\u044f\u0437\u0430\u043d\u044c", "addr:country": "RU", "addr:housenumber": "53/2", "addr:street": "\u041f\u0435\u0440\u0432\u043e\u043c\u0430\u0439\u0441\u043a\u0438\u0439 \u043f\u0440\u043e\u0441\u043f\u0435\u043a\u0442", "building": "apartments", "building:levels": "4"}}, {"type": "way", "id": 58947017, "nodes": [1437895029, 730568710, 730568761, 730568804, 1437895029], "tags": {"addr:city": "\u0420\u044f\u0437\u0430\u043d\u044c", "addr:country": "RU", "addr:housenumber": "4", "addr:street": "\u0443\u043b\u0438\u0446\u0430 \u0427\u043a\u0430\u043b\u043e\u0432\u0430", "building": "apartments"}}, {"type": "way", "id": 58947025, "nodes": [730568801, 730568754, 730568793, 8074747080, 8074747081, 8074747079, 730568805, 730568801], "tags": {"addr:city": "\u0420\u044f\u0437\u0430\u043d\u044c", "addr:country": "RU", "addr:housenumber": "59", "addr:street": "\u041f\u0435\u0440\u0432\u043e\u043c\u0430\u0439\u0441\u043a\u0438\u0439 \u043f\u0440\u043e\u0441\u043f\u0435\u043a\u0442", "building": "apartments", "building:levels": "4", "roof:shape": "hipped"}}, {"type": "way", "id": 58948079, "nodes": [730591467, 730591447, 730591464, 730591468, 730591467], "tags": {"addr:city": "\u0420\u044f\u0437\u0430\u043d\u044c", "addr:country": "RU", "addr:housenumber": "1 \u043a1", "addr:street": "\u0443\u043b\u0438\u0446\u0430 \u0427\u043a\u0430\u043b\u043e\u0432\u0430", "building": "apartments"}}, {"type": "way", "id": 95242757, "nodes": [1104778293, 1104778300, 9028371504, 1104778318, 1104778322, 1104778327, 1104778333, 1104778293], "tags": {"addr:city": "\u0420\u044f\u0437\u0430\u043d\u044c", "addr:country": "RU", "addr:housenumber": "47", "addr:street": "\u041f\u0435\u0440\u0432\u043e\u043c\u0430\u0439\u0441\u043a\u0438\u0439 \u043f\u0440\u043e\u0441\u043f\u0435\u043a\u0442", "building": "apartments", "building:levels": "5"}}, {"type": "way", "id": 95408024, "nodes": [1106327948, 1106327949, 1106327951, 1106327953, 1106327964, 1106327965, 1106327948], "tags": {"addr:city": "\u0420\u044f\u0437\u0430\u043d\u044c", "addr:country": "RU", "addr:housenumber": "70/1", "addr:street": "\u041f\u0435\u0440\u0432\u043e\u043c\u0430\u0439\u0441\u043a\u0438\u0439 \u043f\u0440\u043e\u0441\u043f\u0435\u043a\u0442", "building": "apartments"}}, {"type": "way", "id": 95408026, "nodes": [1106328007, 1106328009, 1106328012, 1106328013, 1106328015, 1106328017, 1106328007], "tags": {"addr:city": "\u0420\u044f\u0437\u0430\u043d\u044c", "addr:country": "RU", "addr:housenumber": "72", "addr:street": "\u041f\u0435\u0440\u0432\u043e\u043c\u0430\u0439\u0441\u043a\u0438\u0439 \u043f\u0440\u043e\u0441\u043f\u0435\u043a\u0442", "building": "apartments"}}, {"type": "way", "id": 101155050, "nodes": [1167780188, 1167780190, 1167780192, 1167780195, 1167780188], "tags": {"addr:city": "\u0420\u044f\u0437\u0430\u043d\u044c", "addr:country": "RU", "addr:housenumber": "74 \u043a1", "addr:street": "\u041f\u0435\u0440\u0432\u043e\u043c\u0430\u0439\u0441\u043a\u0438\u0439 \u043f\u0440\u043e\u0441\u043f\u0435\u043a\u0442", "building": "apartments"}}, {"type": "way", "id": 101155051, "nodes": [1167780206, 1167780208, 1167780210, 1167780213, 1167780216, 1167780227, 1167780206], "tags": {"addr:city": "\u0420\u044f\u0437\u0430\u043d\u044c", "addr:country": "RU", "addr:housenumber": "76 \u043a1", "addr:street": "\u041f\u0435\u0440\u0432\u043e\u043c\u0430\u0439\u0441\u043a\u0438\u0439 \u043f\u0440\u043e\u0441\u043f\u0435\u043a\u0442", "building": "apartments"}}, {"type": "way", "id": 101170501, "nodes": [1168011198, 1168011200, 1168011202, 1168011212, 1168011198], "tags": {"addr:city": "\u0420\u044f\u0437\u0430\u043d\u044c", "addr:country": "RU", "addr:housenumber": "51", "addr:street": "\u041f\u0435\u0440\u0432\u043e\u043c\u0430\u0439\u0441\u043a\u0438\u0439 \u043f\u0440\u043e\u0441\u043f\u0435\u043a\u0442", "building": "apartments"}}, {"type": "way", "id": 195133871, "nodes": [2056143673, 2056143660, 2056143670, 2056143676, 2056143673], "tags": {"addr:housenumber": "1\u0410", "addr:street": "1-\u0439 \u041f\u0438\u043e\u043d\u0435\u0440\u0441\u043a\u0438\u0439 \u043f\u0435\u0440\u0435\u0443\u043b\u043e\u043a", "building": "apartments", "building:levels": "2"}}, {"type": "way", "id": 369888172, "nodes": [3736260296, 3736262668, 3736262669, 3736262670, 3736262674, 3736262673, 3736262671, 3736262672, 3736260296], "tags": {"addr:city": "\u0420\u044f\u0437\u0430\u043d\u044c", "addr:housenumber": "3", "addr:street": "\u041c\u0430\u043b\u043e\u0435 \u0448\u043e\u0441\u0441\u0435", "building": "apartments"}}]}