{"version": 0.6, "generator": "Overpass API 0.7.62.1 084b4234", "osm3s": {"timestamp_osm_base": "2024-05-18T00:11:05Z", "copyright": "The data included in this document is from www.openstreetmap.org. The data is made available under ODbL."}, "elements": [{"type": "node", "id": 484162793, "lat": 54.9755148, "lon": 73.3990973}, {"type": "node", "id": 484162794, "lat": 54.9744344, "lon": 73.3993049}, {"type": "node", "id": 484162795, "lat": 54.9744218, "lon": 73.3991057}, {"type": "node", "id": 484162797, "lat": 54.9755022, "lon": 73.398898}, {"type": "node", "id": 484162798, "lat": 54.9754806, "lon": 73.3995142}, {"type": "node", "id": 484162799, "lat": 54.9755752, "lon": 73.4010082}, {"type": "node", "id": 484162800, "lat": 54.9754626, "lon": 73.4010299}, {"type": "node", "id": 484162801, "lat": 54.975368, "lon": 73.3995358}, {"type": "node", "id": 484162828, "lat": 54.9743214, "lon": 73.4011149}, {"type": "node", "id": 484162829, "lat": 54.97442, "lon": 73.4026657}, {"type": "node", "id": 484162830, "lat": 54.9749215, "lon": 73.4025689}, {"type": "node", "id": 484162831, "lat": 54.9747259, "lon": 73.4010369}, {"type": "node", "id": 484162832, "lat": 54.9747408, "lon": 73.401271}, {"type": "node", "id": 484162833, "lat": 54.9744564, "lon": 73.4013258, "tags": {"addr:flats": "37-81", "entrance": "staircase", "ref": "2"}}, {"type": "node", "id": 484162834, "lat": 54.974907, "lon": 73.4023405}, {"type": "node", "id": 484162835, "lat": 54.9745286, "lon": 73.4024632}, {"type": "node", "id": 598789401, "lat": 54.9760402, "lon": 73.4004317}, {"type": "node", "id": 598789402, "lat": 54.975909, "lon": 73.400456}, {"type": "node", "id": 598789403, "lat": 54.9759433, "lon": 73.4010189}, {"type": "node", "id": 598789404, "lat": 54.9760746, "lon": 73.4009946}, {"type": "node", "id": 598789417, "lat": 54.9760942, "lon": 73.4013167}, {"type": "node", "id": 598789418, "lat": 54.9759956, "lon": 73.4018758}, {"type": "node", "id": 598789419, "lat": 54.975963, "lon": 73.401341}, {"type": "node", "id": 598789420, "lat": 54.9763229, "lon": 73.4018152}, {"type": "node", "id": 598789421, "lat": 54.9761136, "lon": 73.4016338}, {"type": "node", "id": 598789422, "lat": 54.9763096, "lon": 73.4015975}, {"type": "node", "id": 710379257, "lat": 54.9758816, "lon": 73.4000069}, {"type": "node", "id": 710379272, "lat": 54.9763346, "lon": 73.399923}, {"type": "node", "id": 710379404, "lat": 54.9763493, "lon": 73.4001638}, {"type": "node", "id": 710379531, "lat": 54.9759002, "lon": 73.4003118}, {"type": "node", "id": 711387018, "lat": 54.9782023, "lon": 73.3977646}, {"type": "node", "id": 711387096, "lat": 54.9782024, "lon": 73.3970318}, {"type": "node", "id": 711387182, "lat": 54.9783748, "lon": 73.3969986}, {"type": "node", "id": 711387201, "lat": 54.9780213, "lon": 73.3970706}, {"type": "node", "id": 711387280, "lat": 54.9781617, "lon": 73.3972585}, {"type": "node", "id": 711387417, "lat": 54.9780792, "lon": 73.3977919}, {"type": "node", "id": 711387515, "lat": 54.9783885, "lon": 73.3972151}, {"type": "node", "id": 1630847661, "lat": 54.9743707, "lon": 73.4018898}, {"type": "node", "id": 1630847670, "lat": 54.9744907, "lon": 73.4018667}, {"type": "node", "id": 1630847674, "lat": 54.9746243, "lon": 73.4023951}, {"type": "node", "id": 1630847675, "lat": 54.9746274, "lon": 73.4024441}, {"type": "node", "id": 1784392903, "lat": 54.9760275, "lon": 73.4002234}, {"type": "node", "id": 1784392906, "lat": 54.9760314, "lon": 73.4002875}, {"type": "node", "id": 2041392593, "lat": 54.9781442, "lon": 73.3970406}, {"type": "node", "id": 2041392595, "lat": 54.9783485, "lon": 73.3977939}, {"type": "node", "id": 2041392596, "lat": 54.9783575, "lon": 73.3979467}, {"type": "node", "id": 2076014830, "lat": 54.9744103, "lon": 73.4025133, "tags": {"amenity": "veterinary", "contact:vk": "zoosalonomsk", "name": "\u0410\u043c\u0441\u0442\u0435\u0440\u0434\u0430\u043c", "opening_hours": "Mo-Sa 10:00-20:00; Su 11:00-18:00", "phone": "+7 3812 32 12 11;+7 983 627 65 35;+7 913 971 72 65;+7 3812 32 17 03", "shop": "pet"}}, {"type": "node", "id": 2076014832, "lat": 54.9754814, "lon": 73.398902, "tags": {"name": "\u0418\u0434\u0435\u0430\u043b\u044c\u043d\u0430\u044f \u0432\u043e\u0434\u0430", "office": "company"}}, {"type": "node", "id": 2659580216, "lat": 54.9754928, "lon": 73.3997061, "tags": {"addr:flats": "109-144", "entrance": "staircase", "ref": "4"}}, {"type": "node", "id": 2659580217, "lat": 54.9755162, "lon": 73.400077, "tags": {"addr:flats": "73-108", "entrance": "staircase", "ref": "3"}}, {"type": "node", "id": 2659580218, "lat": 54.9755391, "lon": 73.4004385, "tags": {"addr:flats": "37-72", "entrance": "staircase", "ref": "2"}}, {"type": "node", "id": 2659580219, "lat": 54.9755623, "lon": 73.4008057, "tags": {"addr:flats": "1-36", "entrance": "staircase", "ref": "1"}}, {"type": "node", "id": 4027201077, "lat": 54.9745369, "lon": 73.3992852, "tags": {"addr:flats": "1-27", "entrance": "staircase", "ref": "1"}}, {"type": "node", "id": 4027201079, "lat": 54.9747494, "lon": 73.3992444, "tags": {"addr:flats": "28-63", "entrance": "staircase", "ref": "2"}}, {"type": "node", "id": 4027201080, "lat": 54.9749639, "lon": 73.3992032, "tags": {"addr:flats": "64-99", "entrance": "staircase", "ref": "3"}}, {"type": "node", "id": 4027201083, "lat": 54.9751955, "lon": 73.3991587, "tags": {"addr:flats": "100-135", "entrance": "staircase", "ref": "4"}}, {"type": "node", "id": 4027201084, "lat": 54.9754134, "lon": 73.3991168, "tags": {"addr:flats": "136-162", "entrance": "staircase", "ref": "5"}}, {"type": "node", "id": 4212029844, "lat": 54.9748833, "lon": 73.399017, "tags": {"craft": "tailor", "name": "\u0411\u0430\u0433\u0438\u0440\u0430"}}, {"type": "node", "id": 4212029852, "lat": 54.9743248, "lon": 73.4011685, "tags": {"massage": "sexual", "name": "\u0421\u0430\u043a\u0443\u0440\u0430", "shop": "massage"}}, {"type": "node", "id": 4212029868, "lat": 54.9748875, "lon": 73.4025755, "tags": {"office": "notary"}}, {"type": "node", "id": 4219992634, "lat": 54.9743923, "lon": 73.4022306, "tags": {"amenity": "training", "name": "Comilfo", "training": "hairdressing"}}, {"type": "node", "id": 5331620645, "lat": 54.974483, "lon": 73.3990939, "tags": {"name": "Anex tour", "shop": "travel_agency"}}, {"type": "node", "id": 9737037197, "lat": 54.9782592, "lon": 73.3978099}, {"type": "node", "id": 9737037198, "lat": 54.9782683, "lon": 73.3979627}, {"type": "node", "id": 9790241092, "lat": 54.9747819, "lon": 73.4023647, "tags": {"addr:flats": "1-36", "entrance": "staircase", "ref": "1"}}, {"type": "node", "id": 9790241093, "lat": 54.974522, "lon": 73.4023595, "tags": {"addr:flats": "37-80", "entrance": "staircase", "ref": "2"}}, {"type": "node", "id": 9790241094, "lat": 54.9745015, "lon": 73.4020361, "tags": {"addr:flats": "81-116", "entrance": "staircase", "ref": "3"}}, {"type": "node", "id": 9790241095, "lat": 54.9744766, "lon": 73.4016439, "tags": {"addr:flats": "1-36", "entrance": "staircase", "ref": "1"}}, {"type": "node", "id": 9790241096, "lat": 54.9746335, "lon": 73.4012917, "tags": {"addr:flats": "82-117", "entrance": "staircase", "ref": "3"}}, {"type": "node", "id": 10826160984, "lat": 54.9758909, "lon": 73.4001594, "tags": {"shop": "pastry"}}, {"type": "way", "id": 40187591, "nodes": [484162793, 4027201084, 4027201083, 4027201080, 4027201079, 4027201077, 484162794, 484162795, 5331620645, 4212029844, 2076014832, 484162797, 484162793], "tags": {"addr:housenumber": "81", "addr:street": "\u0443\u043b\u0438\u0446\u0430 \u041a\u0443\u0439\u0431\u044b\u0448\u0435\u0432\u0430", "building": "apartments", "building:levels": "9"}}, {"type": "way", "id": 40187592, "nodes": [484162798, 2659580216, 2659580217, 2659580218, 2659580219, 484162799, 484162800, 484162801, 484162798], "tags": {"addr:housenumber": "2", "addr:street": "\u0443\u043b\u0438\u0446\u0430 20 \u043b\u0435\u0442 \u0420\u041a\u041a\u0410", "building": "apartments", "building:levels": "9"}}, {"type": "way", "id": 40187599, "nodes": [1630847670, 1630847661, 4212029852, 484162828, 484162831, 484162832, 9790241096, 484162833, 9790241095, 1630847670], "tags": {"addr:housenumber": "21", "addr:street": "\u0443\u043b\u0438\u0446\u0430 \u041c\u0430\u0441\u043b\u0435\u043d\u043d\u0438\u043a\u043e\u0432\u0430", "building": "apartments", "building:levels": "9"}}, {"type": "way", "id": 46906389, "nodes": [598789404, 598789403, 598789402, 598789401, 598789404], "tags": {"addr:housenumber": "3", "addr:street": "\u0443\u043b\u0438\u0446\u0430 20 \u043b\u0435\u0442 \u0420\u041a\u041a\u0410", "building": "apartments", "building:levels": "3"}}, {"type": "way", "id": 46906390, "nodes": [598789422, 598789420, 598789418, 598789419, 598789417, 598789421, 598789422], "tags": {"addr:housenumber": "5", "addr:street": "\u0443\u043b\u0438\u0446\u0430 20 \u043b\u0435\u0442 \u0420\u041a\u041a\u0410", "building": "apartments", "building:levels": "3"}}, {"type": "way", "id": 56753736, "nodes": [710379272, 710379404, 1784392903, 1784392906, 710379531, 10826160984, 710379257, 710379272], "tags": {"addr:housenumber": "1", "addr:street": "\u0443\u043b\u0438\u0446\u0430 20 \u043b\u0435\u0442 \u0420\u041a\u041a\u0410", "building": "apartments", "building:levels": "3"}}, {"type": "way", "id": 57007771, "nodes": [711387280, 711387515, 711387182, 711387096, 2041392593, 711387280], "tags": {"addr:housenumber": "130", "addr:street": "\u0443\u043b\u0438\u0446\u0430 \u041a\u0443\u0439\u0431\u044b\u0448\u0435\u0432\u0430", "building": "house"}}, {"type": "way", "id": 150157393, "nodes": [1630847670, 9790241094, 9790241093, 484162835, 1630847675, 1630847674, 9790241092, 484162834, 484162830, 4212029868, 484162829, 2076014830, 4219992634, 1630847661, 1630847670], "tags": {"addr:housenumber": "23", "addr:street": "\u0443\u043b\u0438\u0446\u0430 \u041c\u0430\u0441\u043b\u0435\u043d\u043d\u0438\u043a\u043e\u0432\u0430", "building": "apartments", "building:levels": "9"}}, {"type": "way", "id": 193617236, "nodes": [2041392595, 2041392596, 9737037198, 9737037197, 2041392595], "tags": {"addr:housenumber": "130/1", "addr:street": "\u0443\u043b\u0438\u0446\u0430 \u041a\u0443\u0439\u0431\u044b\u0448\u0435\u0432\u0430", "building": "detached", "building:levels": "1", "roof:shape": "hipped"}}, {"type": "way", "id": 193617237, "nodes": [711387280, 2041392593, 711387201, 711387417, 711387018, 711387280], "tags": {"addr:housenumber": "131/1", "addr:street": "\u0443\u043b\u0438\u0446\u0430 \u041a\u0443\u0439\u0431\u044b\u0448\u0435\u0432\u0430", "building": "apartments"}}]}