{"version": 0.6, "generator": "Overpass API 0.7.62.1 084b4234", "osm3s": {"timestamp_osm_base": "2024-05-18T00:51:54Z", "copyright": "The data included in this document is from www.openstreetmap.org. The data is made available under ODbL."}, "elements": [{"type": "node", "id": 568282586, "lat": 59.130311, "lon": 37.8853698}, {"type": "node", "id": 568282587, "lat": 59.130202, "lon": 37.885323}, {"type": "node", "id": 568282588, "lat": 59.1300754, "lon": 37.8862677}, {"type": "node", "id": 568282589, "lat": 59.1301838, "lon": 37.8863135}, {"type": "node", "id": 568282590, "lat": 59.1308766, "lon": 37.8868432}, {"type": "node", "id": 568282591, "lat": 59.13024, "lon": 37.886546}, {"type": "node", "id": 568282592, "lat": 59.1302655, "lon": 37.886335}, {"type": "node", "id": 568282593, "lat": 59.1309008, "lon": 37.8866277}, {"type": "node", "id": 568282594, "lat": 59.1303743, "lon": 37.8854786}, {"type": "node", "id": 568282595, "lat": 59.1304028, "lon": 37.8852576}, {"type": "node", "id": 568282599, "lat": 59.131037, "lon": 37.8855615}, {"type": "node", "id": 568282604, "lat": 59.1310086, "lon": 37.8857825}, {"type": "node", "id": 568282729, "lat": 59.1312146, "lon": 37.8842998}, {"type": "node", "id": 568282732, "lat": 59.1311827, "lon": 37.8845347}, {"type": "node", "id": 568282738, "lat": 59.1305493, "lon": 37.8842079}, {"type": "node", "id": 568282746, "lat": 59.1305812, "lon": 37.883973}, {"type": "node", "id": 568296564, "lat": 59.131404, "lon": 37.887774}, {"type": "node", "id": 568296576, "lat": 59.130759, "lon": 37.887463}, {"type": "node", "id": 568296588, "lat": 59.1307286, "lon": 37.887685}, {"type": "node", "id": 568296597, "lat": 59.1313783, "lon": 37.887992}, {"type": "node", "id": 568296623, "lat": 59.1306297, "lon": 37.8874082}, {"type": "node", "id": 568296628, "lat": 59.1306049, "lon": 37.8876249}, {"type": "node", "id": 568296637, "lat": 59.1301284, "lon": 37.8874021}, {"type": "node", "id": 568296644, "lat": 59.1301532, "lon": 37.8871855}, {"type": "node", "id": 568296657, "lat": 59.1300732, "lon": 37.887314}, {"type": "node", "id": 568296667, "lat": 59.1299607, "lon": 37.8872662}, {"type": "node", "id": 568296674, "lat": 59.129838, "lon": 37.8882169}, {"type": "node", "id": 568296679, "lat": 59.1299463, "lon": 37.8882711}, {"type": "node", "id": 568579714, "lat": 59.1299084, "lon": 37.8885817}, {"type": "node", "id": 568579719, "lat": 59.1297945, "lon": 37.888525}, {"type": "node", "id": 568579720, "lat": 59.1296455, "lon": 37.8897}, {"type": "node", "id": 568579725, "lat": 59.1297611, "lon": 37.8897489}, {"type": "node", "id": 568579726, "lat": 59.1297216, "lon": 37.8900614}, {"type": "node", "id": 568579728, "lat": 59.1296047, "lon": 37.8900046}, {"type": "node", "id": 568579729, "lat": 59.1294536, "lon": 37.8911853}, {"type": "node", "id": 568579730, "lat": 59.1295705, "lon": 37.8912421}, {"type": "node", "id": 568615546, "lat": 59.130031, "lon": 37.888311}, {"type": "node", "id": 568615552, "lat": 59.1299941, "lon": 37.8885795}, {"type": "node", "id": 568615556, "lat": 59.1306462, "lon": 37.8888878}, {"type": "node", "id": 568615563, "lat": 59.130676, "lon": 37.888622}, {"type": "node", "id": 568615620, "lat": 59.1314507, "lon": 37.8912236}, {"type": "node", "id": 568615632, "lat": 59.131429, "lon": 37.891454}, {"type": "node", "id": 568615640, "lat": 59.1307925, "lon": 37.8911644}, {"type": "node", "id": 568615647, "lat": 59.1308168, "lon": 37.8909272}, {"type": "node", "id": 568721458, "lat": 59.1298816, "lon": 37.8846977}, {"type": "node", "id": 568721459, "lat": 59.1297316, "lon": 37.8858973}, {"type": "node", "id": 568721460, "lat": 59.1296141, "lon": 37.8858415}, {"type": "node", "id": 568721461, "lat": 59.1297641, "lon": 37.8846419}, {"type": "node", "id": 568721462, "lat": 59.1293957, "lon": 37.8844614}, {"type": "node", "id": 568721463, "lat": 59.1292425, "lon": 37.8856543}, {"type": "node", "id": 568721464, "lat": 59.1291124, "lon": 37.8855909}, {"type": "node", "id": 568721465, "lat": 59.1292656, "lon": 37.884398}, {"type": "node", "id": 568721466, "lat": 59.128743, "lon": 37.885408}, {"type": "node", "id": 568721467, "lat": 59.1286104, "lon": 37.8853484}, {"type": "node", "id": 568721468, "lat": 59.128787, "lon": 37.884062}, {"type": "node", "id": 568721469, "lat": 59.1289113, "lon": 37.8841207}, {"type": "node", "id": 568721470, "lat": 59.1286977, "lon": 37.8857815}, {"type": "node", "id": 568721471, "lat": 59.1285724, "lon": 37.88572}, {"type": "node", "id": 568721472, "lat": 59.1283661, "lon": 37.887317}, {"type": "node", "id": 568721473, "lat": 59.1284914, "lon": 37.8873784}, {"type": "node", "id": 568721474, "lat": 59.128103, "lon": 37.887168}, {"type": "node", "id": 568721475, "lat": 59.127989, "lon": 37.8871143}, {"type": "node", "id": 568721476, "lat": 59.128161, "lon": 37.885864}, {"type": "node", "id": 568721477, "lat": 59.1282706, "lon": 37.8859055}, {"type": "node", "id": 568721479, "lat": 59.12772, "lon": 37.887007}, {"type": "node", "id": 568721483, "lat": 59.1276034, "lon": 37.886956}, {"type": "node", "id": 568721484, "lat": 59.127775, "lon": 37.885666}, {"type": "node", "id": 568721485, "lat": 59.1278917, "lon": 37.8857205}, {"type": "node", "id": 568721498, "lat": 59.127621, "lon": 37.885285}, {"type": "node", "id": 568721503, "lat": 59.1269819, "lon": 37.884929}, {"type": "node", "id": 568721510, "lat": 59.127009, "lon": 37.884716}, {"type": "node", "id": 568721517, "lat": 59.1276471, "lon": 37.8850622}, {"type": "node", "id": 568721518, "lat": 59.127841, "lon": 37.88455}, {"type": "node", "id": 568721519, "lat": 59.1271972, "lon": 37.8841963}, {"type": "node", "id": 568721520, "lat": 59.127229, "lon": 37.883987}, {"type": "node", "id": 568721521, "lat": 59.1278672, "lon": 37.8843391}, {"type": "node", "id": 569400304, "lat": 59.1298331, "lon": 37.884077}, {"type": "node", "id": 569400466, "lat": 59.1290365, "lon": 37.8836869}, {"type": "node", "id": 569400555, "lat": 59.129008, "lon": 37.883928}, {"type": "node", "id": 569400589, "lat": 59.129803, "lon": 37.8843137}, {"type": "node", "id": 569610306, "lat": 59.128929, "lon": 37.8921564}, {"type": "node", "id": 569610325, "lat": 59.129075, "lon": 37.8909806}, {"type": "node", "id": 569610349, "lat": 59.1289442, "lon": 37.8909189}, {"type": "node", "id": 569610370, "lat": 59.1287981, "lon": 37.8920947}, {"type": "node", "id": 569610414, "lat": 59.1289877, "lon": 37.8907434}, {"type": "node", "id": 569610507, "lat": 59.1281711, "lon": 37.8903637}, {"type": "node", "id": 569610523, "lat": 59.1282043, "lon": 37.890093}, {"type": "node", "id": 569610535, "lat": 59.1290208, "lon": 37.8904728}, {"type": "node", "id": 569610576, "lat": 59.1291247, "lon": 37.8896528}, {"type": "node", "id": 569610590, "lat": 59.128307, "lon": 37.889265}, {"type": "node", "id": 569610611, "lat": 59.1282706, "lon": 37.8895371}, {"type": "node", "id": 569610631, "lat": 59.129093, "lon": 37.889925}, {"type": "node", "id": 569611194, "lat": 59.1273, "lon": 37.8913479}, {"type": "node", "id": 569611215, "lat": 59.1274546, "lon": 37.8901671}, {"type": "node", "id": 569611298, "lat": 59.127348, "lon": 37.890118}, {"type": "node", "id": 569611320, "lat": 59.127191, "lon": 37.891293}, {"type": "node", "id": 569611407, "lat": 59.1272209, "lon": 37.8900792}, {"type": "node", "id": 569611446, "lat": 59.127116, "lon": 37.890033}, {"type": "node", "id": 569611485, "lat": 59.127279, "lon": 37.888756}, {"type": "node", "id": 569611521, "lat": 59.1273868, "lon": 37.888803}, {"type": "node", "id": 569641078, "lat": 59.1284538, "lon": 37.8875418}, {"type": "node", "id": 569641086, "lat": 59.128416, "lon": 37.8878318}, {"type": "node", "id": 569641096, "lat": 59.1289389, "lon": 37.8880905}, {"type": "node", "id": 569641105, "lat": 59.1289588, "lon": 37.8879374}, {"type": "node", "id": 569641111, "lat": 59.1293258, "lon": 37.888116}, {"type": "node", "id": 569641113, "lat": 59.1293618, "lon": 37.8878352}, {"type": "node", "id": 569641115, "lat": 59.1289619, "lon": 37.8876381}, {"type": "node", "id": 569641117, "lat": 59.128943, "lon": 37.8877836}, {"type": "node", "id": 569641123, "lat": 59.1292491, "lon": 37.8887223}, {"type": "node", "id": 569641125, "lat": 59.128837, "lon": 37.888525}, {"type": "node", "id": 569641127, "lat": 59.1288231, "lon": 37.8886563}, {"type": "node", "id": 569641129, "lat": 59.12834, "lon": 37.888412}, {"type": "node", "id": 569641131, "lat": 59.1283104, "lon": 37.8886857}, {"type": "node", "id": 569641133, "lat": 59.128823, "lon": 37.888949}, {"type": "node", "id": 569641137, "lat": 59.1288382, "lon": 37.8888177}, {"type": "node", "id": 569641139, "lat": 59.129212, "lon": 37.888997}, {"type": "node", "id": 569641144, "lat": 59.128175, "lon": 37.888327}, {"type": "node", "id": 569641148, "lat": 59.128112, "lon": 37.888799}, {"type": "node", "id": 569641149, "lat": 59.1279568, "lon": 37.8887181}, {"type": "node", "id": 569641150, "lat": 59.1279845, "lon": 37.888519}, {"type": "node", "id": 569641151, "lat": 59.1279248, "lon": 37.8884942}, {"type": "node", "id": 569641152, "lat": 59.1278971, "lon": 37.888689}, {"type": "node", "id": 569641153, "lat": 59.1277543, "lon": 37.8886144}, {"type": "node", "id": 569641154, "lat": 59.1278034, "lon": 37.888233}, {"type": "node", "id": 569641155, "lat": 59.1277458, "lon": 37.8881998}, {"type": "node", "id": 569641156, "lat": 59.1277159, "lon": 37.8884278}, {"type": "node", "id": 569641158, "lat": 59.127593, "lon": 37.888359}, {"type": "node", "id": 569641164, "lat": 59.127654, "lon": 37.887881}, {"type": "node", "id": 569641167, "lat": 59.1277799, "lon": 37.8879428}, {"type": "node", "id": 569641169, "lat": 59.1277565, "lon": 37.8881169}, {"type": "node", "id": 569641172, "lat": 59.127814, "lon": 37.888146}, {"type": "node", "id": 569641174, "lat": 59.1278396, "lon": 37.8879677}, {"type": "node", "id": 569641177, "lat": 59.1279824, "lon": 37.8880381}, {"type": "node", "id": 569641178, "lat": 59.1279313, "lon": 37.8884112}, {"type": "node", "id": 569641179, "lat": 59.127993, "lon": 37.8884485}, {"type": "node", "id": 569641180, "lat": 59.1280207, "lon": 37.8882496}, {"type": "node", "id": 846642219, "lat": 59.1295523, "lon": 37.8904143, "tags": {"addr:country": "RU", "amenity": "post_office", "contact:phone": "+7 8202 579537", "contact:website": "https://www.pochta.ru", "name": "\u041e\u0442\u0434\u0435\u043b\u0435\u043d\u0438\u0435 \u0441\u0432\u044f\u0437\u0438 \u2116162610", "opening_hours": "Mo-Fr 08:00-13:00,14:00-20:00; Sa 09:00-13:00,14:00-18:00; Su off", "operator": "\u041f\u043e\u0447\u0442\u0430 \u0420\u043e\u0441\u0441\u0438\u0438", "ref": "162610"}}, {"type": "node", "id": 847561106, "lat": 59.1295088, "lon": 37.8907536, "tags": {"name": "\u0425\u043e\u0437\u044f\u0438\u043d", "shop": "hardware"}}, {"type": "node", "id": 990370112, "lat": 59.1289161, "lon": 37.8879163}, {"type": "node", "id": 990370115, "lat": 59.1288961, "lon": 37.8880694}, {"type": "node", "id": 1215122699, "lat": 59.1292959, "lon": 37.8878032, "tags": {"addr:city": "\u0427\u0435\u0440\u0435\u043f\u043e\u0432\u0435\u0446", "addr:housenumber": "151", "addr:street": "\u0443\u043b\u0438\u0446\u0430 \u041b\u0435\u043d\u0438\u043d\u0430", "amenity": "bank", "atm": "yes", "bic": "VTBRRUMM", "brand": "\u0412\u0422\u0411", "contact:email": "info@vtb.ru", "contact:facebook": "https://www.facebook.com/vtbgroup", "contact:phone": "+7 800 2007799", "contact:twitter": "https://twitter.com/vtb", "contact:vk": "https://vk.com/vtb", "contact:website": "https://www.vtb.ru", "contact:youtube": "https://www.youtube.com/user/vtbgroup", "name": "\u0412\u0422\u0411", "name:en": "VTB", "name:ru": "\u0412\u0422\u0411", "opening_hours": "Mo-Fr 10:00-19:00", "operator": "\u0411\u0430\u043d\u043a \u0412\u0422\u0411 (\u043f\u0443\u0431\u043b\u0438\u0447\u043d\u043e\u0435 \u0430\u043a\u0446\u0438\u043e\u043d\u0435\u0440\u043d\u043e\u0435 \u043e\u0431\u0449\u0435\u0441\u0442\u0432\u043e)", "operator:wikidata": "Q1549389", "operator:wikipedia": "ru:\u0411\u0430\u043d\u043a \u0412\u0422\u0411"}}, {"type": "node", "id": 1215173522, "lat": 59.1285884, "lon": 37.8866273, "tags": {"amenity": "bank", "atm": "yes", "branch": "\u0421\u0435\u0432\u0435\u0440\u043e-\u0417\u0430\u043f\u0430\u0434\u043d\u044b\u0439 \u0431\u0430\u043d\u043a", "contact:facebook": "https://www.facebook.com/sberbank", "contact:instagram": "https://instagram.com/sberbank", "contact:ok": "https://ok.ru/sberbank", "contact:phone": "+7 8202 674017", "contact:twitter": "https://twitter.com/sberbank/", "contact:vk": "https://vk.com/sberbank", "contact:website": "https://www.sberbank.ru", "contact:youtube": "https://www.youtube.com/sberbank", "name": "\u0421\u0431\u0435\u0440\u0431\u0430\u043d\u043a", "name:en": "Sberbank", "name:ru": "\u0421\u0431\u0435\u0440\u0431\u0430\u043d\u043a", "opening_hours": "Tu-Fr 09:00-19:00; Sa 09:00-16:30", "operator": "\u041f\u0410\u041e \u0421\u0431\u0435\u0440\u0431\u0430\u043d\u043a", "ref": "8638/0148", "wheelchair": "no"}}, {"type": "way", "id": 44821845, "nodes": [568282586, 568282587, 568282588, 568282589, 568282586], "tags": {"addr:city": "\u0427\u0435\u0440\u0435\u043f\u043e\u0432\u0435\u0446", "addr:country": "RU", "addr:housenumber": "122", "addr:street": "\u0443\u043b\u0438\u0446\u0430 \u041b\u0435\u043d\u0438\u043d\u0430", "building": "apartments", "building:levels": "5"}}, {"type": "way", "id": 44821846, "nodes": [568282590, 568282591, 568282592, 568282593, 568282590], "tags": {"addr:city": "\u0427\u0435\u0440\u0435\u043f\u043e\u0432\u0435\u0446", "addr:country": "RU", "addr:housenumber": "14", "addr:street": "\u0443\u043b\u0438\u0446\u0430 \u0413\u0430\u0433\u0430\u0440\u0438\u043d\u0430", "building": "apartments", "building:levels": "5"}}, {"type": "way", "id": 44821847, "nodes": [568282594, 568282595, 568282599, 568282604, 568282594], "tags": {"addr:city": "\u0427\u0435\u0440\u0435\u043f\u043e\u0432\u0435\u0446", "addr:country": "RU", "addr:housenumber": "122\u0410", "addr:street": "\u0443\u043b\u0438\u0446\u0430 \u041b\u0435\u043d\u0438\u043d\u0430", "building": "apartments", "building:levels": "5"}}, {"type": "way", "id": 44821850, "nodes": [568282729, 568282732, 568282738, 568282746, 568282729], "tags": {"addr:city": "\u0427\u0435\u0440\u0435\u043f\u043e\u0432\u0435\u0446", "addr:country": "RU", "addr:housenumber": "126", "addr:street": "\u0443\u043b\u0438\u0446\u0430 \u041b\u0435\u043d\u0438\u043d\u0430", "building": "apartments", "building:levels": "5"}}, {"type": "way", "id": 44822668, "nodes": [568296564, 568296576, 568296588, 568296597, 568296564], "tags": {"addr:city": "\u0427\u0435\u0440\u0435\u043f\u043e\u0432\u0435\u0446", "addr:country": "RU", "addr:housenumber": "35", "addr:street": "\u0443\u043b\u0438\u0446\u0430 \u0413\u0430\u0433\u0430\u0440\u0438\u043d\u0430", "building": "apartments", "building:levels": "5"}}, {"type": "way", "id": 44822669, "nodes": [568296623, 568296628, 568296637, 568296644, 568296623], "tags": {"addr:city": "\u0427\u0435\u0440\u0435\u043f\u043e\u0432\u0435\u0446", "addr:country": "RU", "addr:housenumber": "33", "addr:street": "\u0443\u043b\u0438\u0446\u0430 \u0413\u0430\u0433\u0430\u0440\u0438\u043d\u0430", "building": "apartments", "building:levels": "5"}}, {"type": "way", "id": 44822670, "nodes": [568296657, 568296667, 568296674, 568296679, 568296657], "tags": {"addr:city": "\u0427\u0435\u0440\u0435\u043f\u043e\u0432\u0435\u0446", "addr:country": "RU", "addr:housenumber": "120", "addr:street": "\u0443\u043b\u0438\u0446\u0430 \u041b\u0435\u043d\u0438\u043d\u0430", "building": "apartments", "building:levels": "5"}}, {"type": "way", "id": 44849912, "nodes": [568579714, 568579719, 568579720, 568579725, 568579714], "tags": {"addr:city": "\u0427\u0435\u0440\u0435\u043f\u043e\u0432\u0435\u0446", "addr:country": "RU", "addr:housenumber": "118", "addr:street": "\u0443\u043b\u0438\u0446\u0430 \u041b\u0435\u043d\u0438\u043d\u0430", "building": "apartments", "building:levels": "5"}}, {"type": "way", "id": 44849913, "nodes": [568579726, 568579728, 846642219, 847561106, 568579729, 568579730, 568579726], "tags": {"addr:city": "\u0427\u0435\u0440\u0435\u043f\u043e\u0432\u0435\u0446", "addr:country": "RU", "addr:housenumber": "116", "addr:street": "\u0443\u043b\u0438\u0446\u0430 \u041b\u0435\u043d\u0438\u043d\u0430", "building": "apartments", "building:levels": "5"}}, {"type": "way", "id": 44852676, "nodes": [568615546, 568615552, 568615556, 568615563, 568615546], "tags": {"addr:city": "\u0427\u0435\u0440\u0435\u043f\u043e\u0432\u0435\u0446", "addr:country": "RU", "addr:housenumber": "120\u0410", "addr:street": "\u0443\u043b\u0438\u0446\u0430 \u041b\u0435\u043d\u0438\u043d\u0430", "building": "apartments", "building:levels": "5"}}, {"type": "way", "id": 44852680, "nodes": [568615620, 568615632, 568615640, 568615647, 568615620], "tags": {"addr:city": "\u0427\u0435\u0440\u0435\u043f\u043e\u0432\u0435\u0446", "addr:country": "RU", "addr:housenumber": "31", "addr:street": "\u0443\u043b\u0438\u0446\u0430 \u041c\u0435\u0442\u0430\u043b\u043b\u0443\u0440\u0433\u043e\u0432", "building": "apartments", "building:levels": "5"}}, {"type": "way", "id": 44859755, "nodes": [568721458, 568721459, 568721460, 568721461, 568721458], "tags": {"addr:city": "\u0427\u0435\u0440\u0435\u043f\u043e\u0432\u0435\u0446", "addr:country": "RU", "addr:housenumber": "157", "addr:street": "\u0443\u043b\u0438\u0446\u0430 \u041b\u0435\u043d\u0438\u043d\u0430", "building": "apartments", "building:levels": "5"}}, {"type": "way", "id": 44859766, "nodes": [568721462, 568721463, 568721464, 568721465, 568721462], "tags": {"addr:city": "\u0427\u0435\u0440\u0435\u043f\u043e\u0432\u0435\u0446", "addr:country": "RU", "addr:housenumber": "159", "addr:street": "\u0443\u043b\u0438\u0446\u0430 \u041b\u0435\u043d\u0438\u043d\u0430", "building": "apartments", "building:levels": "5"}}, {"type": "way", "id": 44859770, "nodes": [568721466, 568721467, 568721468, 568721469, 568721466], "tags": {"addr:city": "\u0427\u0435\u0440\u0435\u043f\u043e\u0432\u0435\u0446", "addr:country": "RU", "addr:housenumber": "159\u0410", "addr:street": "\u0443\u043b\u0438\u0446\u0430 \u041b\u0435\u043d\u0438\u043d\u0430", "building": "apartments", "building:levels": "5"}}, {"type": "way", "id": 44859771, "nodes": [568721470, 568721471, 568721472, 568721473, 1215173522, 568721470], "tags": {"addr:city": "\u0427\u0435\u0440\u0435\u043f\u043e\u0432\u0435\u0446", "addr:country": "RU", "addr:housenumber": "153\u0410", "addr:street": "\u0443\u043b\u0438\u0446\u0430 \u041b\u0435\u043d\u0438\u043d\u0430", "building": "apartments", "building:levels": "5"}}, {"type": "way", "id": 44859772, "nodes": [568721474, 568721475, 568721476, 568721477, 568721474], "tags": {"addr:city": "\u0427\u0435\u0440\u0435\u043f\u043e\u0432\u0435\u0446", "addr:country": "RU", "addr:housenumber": "155", "addr:street": "\u0443\u043b\u0438\u0446\u0430 \u041b\u0435\u043d\u0438\u043d\u0430", "building": "apartments", "building:levels": "5"}}, {"type": "way", "id": 44859775, "nodes": [568721479, 568721483, 568721484, 568721485, 568721479], "tags": {"addr:city": "\u0427\u0435\u0440\u0435\u043f\u043e\u0432\u0435\u0446", "addr:country": "RU", "addr:housenumber": "155\u0410", "addr:street": "\u0443\u043b\u0438\u0446\u0430 \u041b\u0435\u043d\u0438\u043d\u0430", "building": "apartments", "building:levels": "5"}}, {"type": "way", "id": 44859777, "nodes": [568721498, 568721503, 568721510, 568721517, 568721498], "tags": {"addr:city": "\u0427\u0435\u0440\u0435\u043f\u043e\u0432\u0435\u0446", "addr:country": "RU", "addr:housenumber": "4", "addr:street": "\u041a\u043b\u0443\u0431\u043d\u044b\u0439 \u043f\u0440\u043e\u0435\u0437\u0434", "building": "apartments", "building:levels": "5"}}, {"type": "way", "id": 44859779, "nodes": [568721518, 568721519, 568721520, 568721521, 568721518], "tags": {"addr:city": "\u0427\u0435\u0440\u0435\u043f\u043e\u0432\u0435\u0446", "addr:country": "RU", "addr:housenumber": "6", "addr:street": "\u041a\u043b\u0443\u0431\u043d\u044b\u0439 \u043f\u0440\u043e\u0435\u0437\u0434", "building": "apartments", "building:levels": "5"}}, {"type": "way", "id": 44904129, "nodes": [569400304, 569400466, 569400555, 569400589, 569400304], "tags": {"addr:city": "\u0427\u0435\u0440\u0435\u043f\u043e\u0432\u0435\u0446", "addr:country": "RU", "addr:housenumber": "161", "addr:street": "\u0443\u043b\u0438\u0446\u0430 \u041b\u0435\u043d\u0438\u043d\u0430", "building": "apartments", "building:levels": "5"}}, {"type": "way", "id": 44914998, "nodes": [569610306, 569610325, 569610349, 569610370, 569610306], "tags": {"addr:city": "\u0427\u0435\u0440\u0435\u043f\u043e\u0432\u0435\u0446", "addr:country": "RU", "addr:housenumber": "141", "addr:street": "\u0443\u043b\u0438\u0446\u0430 \u041b\u0435\u043d\u0438\u043d\u0430", "building": "apartments", "building:levels": "5"}}, {"type": "way", "id": 44915001, "nodes": [569610414, 569610507, 569610523, 569610535, 569610414], "tags": {"addr:city": "\u0427\u0435\u0440\u0435\u043f\u043e\u0432\u0435\u0446", "addr:country": "RU", "addr:housenumber": "143", "addr:street": "\u0443\u043b\u0438\u0446\u0430 \u041b\u0435\u043d\u0438\u043d\u0430", "building": "apartments", "building:levels": "5"}}, {"type": "way", "id": 44915004, "nodes": [569610576, 569610590, 569610611, 569610631, 569610576], "tags": {"addr:city": "\u0427\u0435\u0440\u0435\u043f\u043e\u0432\u0435\u0446", "addr:country": "RU", "addr:housenumber": "145", "addr:street": "\u0443\u043b\u0438\u0446\u0430 \u041b\u0435\u043d\u0438\u043d\u0430", "building": "apartments", "building:levels": "5"}}, {"type": "way", "id": 44915036, "nodes": [569611194, 569611215, 569611298, 569611320, 569611194], "tags": {"addr:city": "\u0427\u0435\u0440\u0435\u043f\u043e\u0432\u0435\u0446", "addr:country": "RU", "addr:housenumber": "35", "addr:street": "\u0443\u043b\u0438\u0446\u0430 \u041b\u043e\u043c\u043e\u043d\u043e\u0441\u043e\u0432\u0430", "building": "apartments", "building:levels": "5"}}, {"type": "way", "id": 44915053, "nodes": [569611407, 569611446, 569611485, 569611521, 569611407], "tags": {"addr:city": "\u0427\u0435\u0440\u0435\u043f\u043e\u0432\u0435\u0446", "addr:country": "RU", "addr:housenumber": "33", "addr:street": "\u0443\u043b\u0438\u0446\u0430 \u041b\u043e\u043c\u043e\u043d\u043e\u0441\u043e\u0432\u0430", "building": "apartments", "building:levels": "5"}}, {"type": "way", "id": 44917869, "nodes": [569641105, 569641111, 569641113, 1215122699, 569641115, 569641117, 569641078, 569641086, 990370115, 990370112, 569641105], "tags": {"addr:city": "\u0427\u0435\u0440\u0435\u043f\u043e\u0432\u0435\u0446", "addr:country": "RU", "addr:housenumber": "151", "addr:street": "\u0443\u043b\u0438\u0446\u0430 \u041b\u0435\u043d\u0438\u043d\u0430", "building": "apartments", "building:levels": "5"}}, {"type": "way", "id": 44917870, "nodes": [569641123, 569641125, 569641127, 569641129, 569641131, 569641133, 569641137, 569641139, 569641123], "tags": {"addr:city": "\u0427\u0435\u0440\u0435\u043f\u043e\u0432\u0435\u0446", "addr:country": "RU", "addr:housenumber": "149", "addr:street": "\u0443\u043b\u0438\u0446\u0430 \u041b\u0435\u043d\u0438\u043d\u0430", "building": "apartments", "building:levels": "5"}}, {"type": "way", "id": 44917874, "nodes": [569641144, 569641148, 569641149, 569641150, 569641151, 569641152, 569641153, 569641154, 569641155, 569641156, 569641158, 569641164, 569641167, 569641169, 569641172, 569641174, 569641177, 569641178, 569641179, 569641180, 569641144], "tags": {"addr:city": "\u0427\u0435\u0440\u0435\u043f\u043e\u0432\u0435\u0446", "addr:country": "RU", "addr:housenumber": "147", "addr:street": "\u0443\u043b\u0438\u0446\u0430 \u041b\u0435\u043d\u0438\u043d\u0430", "building": "apartments", "building:levels": "2"}}, {"type": "way", "id": 85430019, "nodes": [990370115, 569641096, 569641105, 990370112, 990370115], "tags": {"addr:city": "\u0427\u0435\u0440\u0435\u043f\u043e\u0432\u0435\u0446", "addr:country": "RU", "addr:housenumber": "151\u0410", "addr:street": "\u0443\u043b\u0438\u0446\u0430 \u041b\u0435\u043d\u0438\u043d\u0430", "building": "apartments", "building:levels": "5"}}]}