{"version": 0.6, "generator": "Overpass API 0.7.62.1 084b4234", "osm3s": {"timestamp_osm_base": "2024-05-14T07:12:06Z", "copyright": "The data included in this document is from www.openstreetmap.org. The data is made available under ODbL."}, "elements": [{"type": "node", "id": 484260717, "lat": 55.7937853, "lon": 49.1715639}, {"type": "node", "id": 484260724, "lat": 55.7939098, "lon": 49.1715997, "tags": {"railway": "tram_level_crossing"}}, {"type": "node", "id": 824801472, "lat": 55.8145853, "lon": 49.1801324}, {"type": "node", "id": 824802156, "lat": 55.8150197, "lon": 49.1802043}, {"type": "node", "id": 861799228, "lat": 55.8008746, "lon": 49.1822386, "tags": {"railway": "tram_level_crossing"}}, {"type": "node", "id": 861799396, "lat": 55.7992245, "lon": 49.1791681}, {"type": "node", "id": 861799757, "lat": 55.8033403, "lon": 49.1854737}, {"type": "node", "id": 861800266, "lat": 55.7815693, "lon": 49.1707976}, {"type": "node", "id": 861800532, "lat": 55.7818866, "lon": 49.1706568}, {"type": "node", "id": 861800799, "lat": 55.7933238, "lon": 49.1715793, "tags": {"railway": "tram_level_crossing"}}, {"type": "node", "id": 861800960, "lat": 55.815733, "lon": 49.1806617}, {"type": "node", "id": 861801071, "lat": 55.7938314, "lon": 49.1715728, "tags": {"railway": "tram_level_crossing"}}, {"type": "node", "id": 861801349, "lat": 55.8022131, "lon": 49.1849622}, {"type": "node", "id": 861801468, "lat": 55.795772, "lon": 49.17424, "tags": {"railway": "tram_level_crossing"}}, {"type": "node", "id": 861801686, "lat": 55.8147284, "lon": 49.1801164}, {"type": "node", "id": 861802073, "lat": 55.7940673, "lon": 49.171755}, {"type": "node", "id": 861802156, "lat": 55.7772748, "lon": 49.1740072}, {"type": "node", "id": 861802417, "lat": 55.8000176, "lon": 49.1804851}, {"type": "node", "id": 861803699, "lat": 55.7821381, "lon": 49.1706755}, {"type": "node", "id": 861804002, "lat": 55.8095066, "lon": 49.1824001}, {"type": "node", "id": 1108813685, "lat": 55.7799262, "lon": 49.1719687, "tags": {"name": "\u0413\u0432\u0430\u0440\u0434\u0435\u0439\u0441\u043a\u0430\u044f \u0443\u043b\u0438\u0446\u0430", "name:ru": "\u0413\u0432\u0430\u0440\u0434\u0435\u0439\u0441\u043a\u0430\u044f \u0443\u043b\u0438\u0446\u0430", "name:tt": "\u0413\u0432\u0430\u0440\u0434\u0438\u044f \u0443\u0440\u0430\u043c\u044b", "public_transport": "stop_position", "railway": "tram_stop", "tram": "yes"}}, {"type": "node", "id": 1108813686, "lat": 55.7878119, "lon": 49.1711141, "tags": {"name": "\u0443\u043b\u0438\u0446\u0430 \u0410\u0434\u0435\u043b\u044f \u041a\u0443\u0442\u0443\u044f", "name:en": "Adel Kutuy street", "name:tt": "\u0413\u0430\u0434\u0435\u043b \u041a\u0443\u0442\u0443\u0439 \u0443\u0440\u0430\u043c\u044b", "public_transport": "stop_position", "railway": "tram_stop", "tram": "yes"}}, {"type": "node", "id": 1108813691, "lat": 55.7824413, "lon": 49.1707026, "tags": {"name": "\u041a\u0430\u0444\u0435 \u00ab\u0421\u0438\u0440\u0435\u043d\u044c\u00bb", "name:tt": "\u00ab\u0421\u0438\u0440\u0435\u043d\u044c\u00bb \u043a\u0430\u0444\u0435\u0441\u044b", "public_transport": "stop_position", "railway": "tram_stop", "tram": "yes"}}, {"type": "node", "id": 1108813698, "lat": 55.7956241, "lon": 49.174028, "tags": {"name": "\u041a\u043e\u043e\u043f\u0435\u0440\u0430\u0442\u0438\u0432\u043d\u044b\u0439 \u0438\u043d\u0441\u0442\u0438\u0442\u0443\u0442", "name:en": "Cooperative institute", "name:tt": "\u041a\u043e\u043e\u043f\u0435\u0440\u0430\u0446\u0438\u044f \u0438\u043d\u0441\u0442\u0438\u0442\u0443\u0442\u044b", "public_transport": "stop_position", "railway": "tram_stop", "tram": "yes"}}, {"type": "node", "id": 1108813708, "lat": 55.7959897, "lon": 49.1744837, "tags": {"name": "\u041a\u043e\u043e\u043f\u0435\u0440\u0430\u0442\u0438\u0432\u043d\u044b\u0439 \u0438\u043d\u0441\u0442\u0438\u0442\u0443\u0442", "name:en": "Cooperative institute", "name:tt": "\u041a\u043e\u043e\u043f\u0435\u0440\u0430\u0446\u0438\u044f \u0438\u043d\u0441\u0442\u0438\u0442\u0443\u0442\u044b", "public_transport": "stop_position", "railway": "tram_stop", "tram": "yes"}}, {"type": "node", "id": 1108813742, "lat": 55.7797395, "lon": 49.1721756, "tags": {"name": "\u0413\u0432\u0430\u0440\u0434\u0435\u0439\u0441\u043a\u0430\u044f \u0443\u043b\u0438\u0446\u0430", "name:ru": "\u0413\u0432\u0430\u0440\u0434\u0435\u0439\u0441\u043a\u0430\u044f \u0443\u043b\u0438\u0446\u0430", "name:tt": "\u0413\u0432\u0430\u0440\u0434\u0438\u044f \u0443\u0440\u0430\u043c\u044b", "public_transport": "stop_position", "railway": "tram_stop", "tram": "yes"}}, {"type": "node", "id": 1108813748, "lat": 55.7826758, "lon": 49.1706688, "tags": {"name": "\u041a\u0430\u0444\u0435 \u00ab\u0421\u0438\u0440\u0435\u043d\u044c\u00bb", "name:tt": "\u00ab\u0421\u0438\u0440\u0435\u043d\u044c\u00bb \u043a\u0430\u0444\u0435\u0441\u044b", "public_transport": "stop_position", "railway": "tram_stop", "tram": "yes"}}, {"type": "node", "id": 1671943185, "lat": 55.8144869, "lon": 49.1801537, "tags": {"crossing": "traffic_signals", "crossing:island": "no", "railway": "tram_crossing", "tactile_paving": "no", "traffic_signals:sound": "no"}}, {"type": "node", "id": 1797943094, "lat": 55.8148949, "lon": 49.180133, "tags": {"railway": "tram_level_crossing"}}, {"type": "node", "id": 1929717070, "lat": 55.7772606, "lon": 49.1739386}, {"type": "node", "id": 1929717072, "lat": 55.7815622, "lon": 49.1707506}, {"type": "node", "id": 1929717073, "lat": 55.7817187, "lon": 49.1706505}, {"type": "node", "id": 1929717074, "lat": 55.7818847, "lon": 49.1705997}, {"type": "node", "id": 1929717075, "lat": 55.7821382, "lon": 49.1706213}, {"type": "node", "id": 1929717080, "lat": 55.790371, "lon": 49.171338}, {"type": "node", "id": 1929717083, "lat": 55.7932156, "lon": 49.1715698, "tags": {"railway": "tram_crossing"}}, {"type": "node", "id": 1929717084, "lat": 55.7932138, "lon": 49.1714963, "tags": {"railway": "tram_crossing"}}, {"type": "node", "id": 1929717085, "lat": 55.7933231, "lon": 49.1715071, "tags": {"railway": "tram_level_crossing"}}, {"type": "node", "id": 1929717086, "lat": 55.7938154, "lon": 49.1715133, "tags": {"railway": "tram_level_crossing"}}, {"type": "node", "id": 1929717087, "lat": 55.7939296, "lon": 49.1715531, "tags": {"railway": "tram_level_crossing"}}, {"type": "node", "id": 1929717088, "lat": 55.794085, "lon": 49.1717189}, {"type": "node", "id": 1929717089, "lat": 55.7957874, "lon": 49.1742039, "tags": {"railway": "tram_level_crossing"}}, {"type": "node", "id": 1929717094, "lat": 55.799667, "lon": 49.1797998}, {"type": "node", "id": 1929717095, "lat": 55.7996806, "lon": 49.1797662}, {"type": "node", "id": 1929717096, "lat": 55.7998359, "lon": 49.1801163}, {"type": "node", "id": 1929717097, "lat": 55.7998502, "lon": 49.1800868}, {"type": "node", "id": 1929717098, "lat": 55.8000372, "lon": 49.1804676}, {"type": "node", "id": 1929717099, "lat": 55.8008908, "lon": 49.1822112, "tags": {"railway": "tram_level_crossing"}}, {"type": "node", "id": 1929717108, "lat": 55.8022316, "lon": 49.1849095}, {"type": "node", "id": 1929717110, "lat": 55.802345, "lon": 49.1850309}, {"type": "node", "id": 1929717112, "lat": 55.8023944, "lon": 49.1851326}, {"type": "node", "id": 1929717123, "lat": 55.8024069, "lon": 49.1850792}, {"type": "node", "id": 1929717127, "lat": 55.8031858, "lon": 49.1854966}, {"type": "node", "id": 1929717129, "lat": 55.8031888, "lon": 49.1854314}, {"type": "node", "id": 1929717132, "lat": 55.8032664, "lon": 49.1854356}, {"type": "node", "id": 1929717134, "lat": 55.8032625, "lon": 49.1855019}, {"type": "node", "id": 1929717136, "lat": 55.8033336, "lon": 49.1854129}, {"type": "node", "id": 1929717143, "lat": 55.8064978, "lon": 49.1837494}, {"type": "node", "id": 1929717144, "lat": 55.8095005, "lon": 49.1823577}, {"type": "node", "id": 1929717148, "lat": 55.8144804, "lon": 49.1800941, "tags": {"crossing": "traffic_signals", "crossing:island": "no", "railway": "tram_crossing", "tactile_paving": "no", "traffic_signals:sound": "no", "traffic_signals:vibration": "no"}}, {"type": "node", "id": 1929717149, "lat": 55.81458, "lon": 49.1800715}, {"type": "node", "id": 1929717150, "lat": 55.8147269, "lon": 49.1800456}, {"type": "node", "id": 1929717151, "lat": 55.8147987, "lon": 49.1800486}, {"type": "node", "id": 1929717162, "lat": 55.8147966, "lon": 49.180118}, {"type": "node", "id": 1929717164, "lat": 55.8148575, "lon": 49.1800638, "tags": {"railway": "tram_level_crossing"}}, {"type": "node", "id": 1929717166, "lat": 55.8149997, "lon": 49.1801441}, {"type": "node", "id": 1929717170, "lat": 55.8157612, "lon": 49.1806212}, {"type": "node", "id": 1931214934, "lat": 55.7992396, "lon": 49.1791359}, {"type": "node", "id": 2818547400, "lat": 55.8093731, "lon": 49.1824106}, {"type": "node", "id": 2818548001, "lat": 55.8093811, "lon": 49.1824549}, {"type": "node", "id": 2818548005, "lat": 55.8095971, "lon": 49.1823065}, {"type": "node", "id": 2818548006, "lat": 55.8096037, "lon": 49.1823516}, {"type": "node", "id": 4131105409, "lat": 55.7817266, "lon": 49.1706938}, {"type": "node", "id": 4672064625, "lat": 55.7958668, "lon": 49.174314, "tags": {"railway": "tram_crossing"}}, {"type": "node", "id": 4672064626, "lat": 55.7958478, "lon": 49.1743521, "tags": {"railway": "tram_crossing"}}, {"type": "node", "id": 4672064630, "lat": 55.8009429, "lon": 49.1823119, "tags": {"railway": "tram_crossing"}}, {"type": "node", "id": 4672064631, "lat": 55.8009235, "lon": 49.1823403, "tags": {"railway": "tram_crossing"}}, {"type": "node", "id": 4672064634, "lat": 55.8023424, "lon": 49.1850892}, {"type": "node", "id": 4724696152, "lat": 55.8022789, "lon": 49.1850261}, {"type": "node", "id": 4759614159, "lat": 55.7956883, "lon": 49.1741161, "tags": {"railway": "tram_crossing"}}, {"type": "node", "id": 4759614160, "lat": 55.7957063, "lon": 49.1740765, "tags": {"railway": "tram_crossing"}}, {"type": "node", "id": 8741761879, "lat": 55.8118478, "lon": 49.1813456, "tags": {"name": "\u041d\u0430\u0446\u0438\u043e\u043d\u0430\u043b\u044c\u043d\u044b\u0439 \u0430\u0440\u0445\u0438\u0432", "public_transport": "stop_position", "railway": "tram_stop", "tram": "yes"}}, {"type": "node", "id": 8741761880, "lat": 55.8122434, "lon": 49.1810859, "tags": {"name": "\u041d\u0430\u0446\u0438\u043e\u043d\u0430\u043b\u044c\u043d\u044b\u0439 \u0430\u0440\u0445\u0438\u0432", "public_transport": "stop_position", "railway": "tram_stop", "tram": "yes"}}, {"type": "node", "id": 8742158712, "lat": 55.8097863, "lon": 49.1822153, "tags": {"name": "\u0443\u043b\u0438\u0446\u0430 \u0410\u043b\u0435\u043a\u0441\u0430\u043d\u0434\u0440\u0430 \u041f\u043e\u043f\u043e\u0432\u0430", "name:en": "Popov street", "name:tt": "\u041f\u043e\u043f\u043e\u0432 \u0443\u0440\u0430\u043c\u044b", "public_transport": "stop_position", "railway": "tram_stop", "tram": "yes"}}, {"type": "node", "id": 8742158713, "lat": 55.8092268, "lon": 49.182529, "tags": {"name": "\u0443\u043b\u0438\u0446\u0430 \u0410\u043b\u0435\u043a\u0441\u0430\u043d\u0434\u0440\u0430 \u041f\u043e\u043f\u043e\u0432\u0430", "name:en": "Popov street", "name:tt": "\u041f\u043e\u043f\u043e\u0432 \u0443\u0440\u0430\u043c\u044b", "public_transport": "stop_position", "railway": "tram_stop", "tram": "yes"}}, {"type": "node", "id": 8742215617, "lat": 55.8054639, "lon": 49.1843425, "tags": {"name": "\u041f\u0438\u043e\u043d\u0435\u0440\u0441\u043a\u0430\u044f \u0443\u043b\u0438\u0446\u0430", "name:en": "Pionerskaya street", "name:ru": "\u041f\u0438\u043e\u043d\u0435\u0440\u0441\u043a\u0430\u044f \u0443\u043b\u0438\u0446\u0430", "name:tt": "\u041f\u0438\u043e\u043d\u0435\u0440 \u0443\u0440\u0430\u043c\u044b", "public_transport": "stop_position", "railway": "tram_stop", "tram": "yes"}}, {"type": "node", "id": 8742215618, "lat": 55.8058466, "lon": 49.1840854, "tags": {"name": "\u041f\u0438\u043e\u043d\u0435\u0440\u0441\u043a\u0430\u044f \u0443\u043b\u0438\u0446\u0430", "name:en": "Pionerskaya street", "name:ru": "\u041f\u0438\u043e\u043d\u0435\u0440\u0441\u043a\u0430\u044f \u0443\u043b\u0438\u0446\u0430", "name:tt": "\u041f\u0438\u043e\u043d\u0435\u0440 \u0443\u0440\u0430\u043c\u044b", "public_transport": "stop_position", "railway": "tram_stop", "tram": "yes"}}, {"type": "node", "id": 8742215625, "lat": 55.7931292, "lon": 49.1714904, "tags": {"name": "\u0443\u043b\u0438\u0446\u0430 \u041f\u0430\u0442\u0440\u0438\u0441\u0430 \u041b\u0443\u043c\u0443\u043c\u0431\u044b", "name:en": "Patrice Lumumba street", "name:ru": "\u0443\u043b\u0438\u0446\u0430 \u041f\u0430\u0442\u0440\u0438\u0441\u0430 \u041b\u0443\u043c\u0443\u043c\u0431\u044b", "name:tt": "\u041f\u0430\u0442\u0440\u0438\u0441 \u041b\u0443\u043c\u0443\u043c\u0431\u0430 \u0443\u0440\u0430\u043c\u044b", "public_transport": "stop_position", "railway": "tram_stop", "tram": "yes"}}, {"type": "node", "id": 8742215626, "lat": 55.7931269, "lon": 49.1715613, "tags": {"name": "\u0443\u043b\u0438\u0446\u0430 \u041f\u0430\u0442\u0440\u0438\u0441\u0430 \u041b\u0443\u043c\u0443\u043c\u0431\u044b", "name:en": "Patrice Lumumba street", "name:ru": "\u0443\u043b\u0438\u0446\u0430 \u041f\u0430\u0442\u0440\u0438\u0441\u0430 \u041b\u0443\u043c\u0443\u043c\u0431\u044b", "name:tt": "\u041f\u0430\u0442\u0440\u0438\u0441 \u041b\u0443\u043c\u0443\u043c\u0431\u0430 \u0443\u0440\u0430\u043c\u044b", "public_transport": "stop_position", "railway": "tram_stop", "tram": "yes"}}, {"type": "node", "id": 8742656113, "lat": 55.7869874, "lon": 49.1711064, "tags": {"name": "\u0443\u043b\u0438\u0446\u0430 \u0410\u0434\u0435\u043b\u044f \u041a\u0443\u0442\u0443\u044f", "name:en": "Adel Kutuy street", "name:tt": "\u0413\u0430\u0434\u0435\u043b \u041a\u0443\u0442\u0443\u0439 \u0443\u0440\u0430\u043c\u044b", "public_transport": "stop_position", "railway": "tram_stop", "tram": "yes"}}, {"type": "node", "id": 8742656115, "lat": 55.8007691, "lon": 49.1820239, "tags": {"name": "\u0421\u043e\u0432\u0435\u0442\u0441\u043a\u0430\u044f \u043f\u043b\u043e\u0449\u0430\u0434\u044c", "name:ru": "\u0421\u043e\u0432\u0435\u0442\u0441\u043a\u0430\u044f \u043f\u043b\u043e\u0449\u0430\u0434\u044c", "public_transport": "stop_position", "railway": "tram_stop", "tram": "yes"}}, {"type": "node", "id": 8753065751, "lat": 55.7923581, "lon": 49.1714358, "tags": {"railway": "tram_level_crossing"}}, {"type": "node", "id": 8753065752, "lat": 55.7923557, "lon": 49.1714988, "tags": {"railway": "tram_level_crossing"}}, {"type": "node", "id": 8753065753, "lat": 55.7876209, "lon": 49.1710972, "tags": {"railway": "tram_crossing"}}, {"type": "node", "id": 8753065754, "lat": 55.7876247, "lon": 49.1711465, "tags": {"railway": "tram_crossing"}}, {"type": "node", "id": 8753065755, "lat": 55.7870804, "lon": 49.171058, "tags": {"railway": "tram_crossing"}}, {"type": "node", "id": 8753065756, "lat": 55.7870802, "lon": 49.1711143, "tags": {"railway": "tram_crossing"}}, {"type": "node", "id": 8753065757, "lat": 55.7874335, "lon": 49.1710856, "tags": {"railway": "tram_level_crossing"}}, {"type": "node", "id": 8753065758, "lat": 55.7874305, "lon": 49.1711359, "tags": {"railway": "tram_level_crossing"}}, {"type": "node", "id": 8753065759, "lat": 55.7873051, "lon": 49.1710756, "tags": {"railway": "tram_level_crossing"}}, {"type": "node", "id": 8753065760, "lat": 55.7873026, "lon": 49.171128, "tags": {"railway": "tram_level_crossing"}}, {"type": "node", "id": 8753065761, "lat": 55.7840194, "lon": 49.1707876, "tags": {"railway": "tram_level_crossing"}}, {"type": "node", "id": 8753065762, "lat": 55.7840181, "lon": 49.1708427, "tags": {"railway": "tram_level_crossing"}}, {"type": "node", "id": 8753065763, "lat": 55.7798701, "lon": 49.172012, "tags": {"railway": "tram_crossing"}}, {"type": "node", "id": 8753065764, "lat": 55.7798825, "lon": 49.1720628, "tags": {"railway": "tram_crossing"}}, {"type": "node", "id": 8753065765, "lat": 55.7793401, "lon": 49.1724088, "tags": {"railway": "tram_level_crossing"}}, {"type": "node", "id": 8753065766, "lat": 55.7793528, "lon": 49.172463, "tags": {"railway": "tram_level_crossing"}}, {"type": "node", "id": 8753065791, "lat": 55.7982883, "lon": 49.1778236, "tags": {"railway": "tram_level_crossing"}}, {"type": "node", "id": 8974596918, "lat": 55.7982613, "lon": 49.1778535, "tags": {"railway": "tram_level_crossing"}}, {"type": "node", "id": 9036996925, "lat": 55.8011014, "lon": 49.1826393, "tags": {"name": "\u0421\u043e\u0432\u0435\u0442\u0441\u043a\u0430\u044f \u043f\u043b\u043e\u0449\u0430\u0434\u044c", "name:en": "Soviet square", "name:ru": "\u0421\u043e\u0432\u0435\u0442\u0441\u043a\u0430\u044f \u043f\u043b\u043e\u0449\u0430\u0434\u044c", "name:tt": "\u0421\u043e\u0432\u0435\u0442 \u043c\u04d9\u0439\u0434\u0430\u043d\u044b", "public_transport": "stop_position", "railway": "tram_stop", "tram": "yes"}}, {"type": "node", "id": 9199039893, "lat": 55.8056628, "lon": 49.1842363, "tags": {"railway": "tram_level_crossing"}}, {"type": "node", "id": 9199039894, "lat": 55.8056541, "lon": 49.1841823, "tags": {"railway": "tram_level_crossing"}}, {"type": "node", "id": 9199039895, "lat": 55.8057384, "lon": 49.1841399, "tags": {"railway": "tram_crossing"}}, {"type": "node", "id": 9199039896, "lat": 55.80575, "lon": 49.1841946, "tags": {"railway": "tram_crossing"}}, {"type": "node", "id": 9199039897, "lat": 55.8055499, "lon": 49.1842966, "tags": {"railway": "tram_crossing"}}, {"type": "node", "id": 9199039898, "lat": 55.8055404, "lon": 49.1842426, "tags": {"railway": "tram_crossing"}}, {"type": "node", "id": 9596987774, "lat": 55.8008141, "lon": 49.1821203, "tags": {"railway": "tram_crossing"}}, {"type": "node", "id": 9596987775, "lat": 55.8008298, "lon": 49.1820922, "tags": {"railway": "tram_crossing"}}, {"type": "node", "id": 9938717802, "lat": 55.7984022, "lon": 49.1780474}, {"type": "node", "id": 9938717803, "lat": 55.7984208, "lon": 49.1780091}, {"type": "node", "id": 9942404550, "lat": 55.797084, "lon": 49.1760446}, {"type": "node", "id": 9942404551, "lat": 55.7970649, "lon": 49.1760912}, {"type": "node", "id": 10576198306, "lat": 55.7973724, "lon": 49.1765428}, {"type": "node", "id": 10883948110, "lat": 55.8121515, "lon": 49.1811259, "tags": {"railway": "tram_crossing"}}, {"type": "node", "id": 10883948111, "lat": 55.8121635, "lon": 49.1812057, "tags": {"railway": "tram_crossing"}}, {"type": "node", "id": 10883948112, "lat": 55.8120375, "lon": 49.1811784, "tags": {"railway": "tram_level_crossing"}}, {"type": "node", "id": 10883948113, "lat": 55.812049, "lon": 49.1812568, "tags": {"railway": "tram_level_crossing"}}, {"type": "node", "id": 10883948114, "lat": 55.8119388, "lon": 49.1812238, "tags": {"railway": "tram_crossing"}}, {"type": "node", "id": 10883948115, "lat": 55.8119495, "lon": 49.1813007, "tags": {"railway": "tram_crossing"}}, {"type": "node", "id": 11465293910, "lat": 55.7826194, "lon": 49.1707184, "tags": {"railway": "tram_crossing"}}, {"type": "node", "id": 11465293911, "lat": 55.7826207, "lon": 49.1706639, "tags": {"railway": "tram_crossing"}}, {"type": "way", "id": 182612745, "nodes": [861802156, 8753065766, 1108813742, 8753065764, 861800266, 4131105409, 861800532, 861803699, 1108813691, 11465293910, 8753065762, 8742656113, 8753065756, 8753065760, 8753065758, 8753065754, 1929717080, 8753065752, 8742215626, 1929717083, 861800799, 484260717, 861801071, 484260724, 861802073, 1108813698, 4759614159, 861801468, 4672064626, 9942404551, 10576198306, 8974596918, 9938717802, 861799396, 1929717094, 1929717096, 861802417, 8742656115, 9596987774, 861799228, 4672064631, 861801349, 4724696152, 4672064634, 1929717112, 1929717127, 1929717134, 861799757, 8742215617, 9199039897, 9199039893, 9199039896, 8742158713, 2818548001, 861804002, 2818548006, 8741761879, 10883948115, 10883948113, 10883948111, 1671943185, 824801472, 861801686, 1929717162, 1797943094, 824802156, 861800960], "tags": {"electrified": "contact_line", "frequency": "0", "gauge": "1524", "oneway": "yes", "railway": "tram", "usage": "main", "voltage": "600"}}, {"type": "way", "id": 189359114, "nodes": [1929717170, 1929717166, 1929717164, 1929717151, 1929717150, 1929717149, 1929717148, 8741761880, 10883948110, 10883948112, 10883948114, 8742158712, 2818548005, 1929717144, 2818547400, 1929717143, 8742215618, 9199039895, 9199039894, 9199039898, 1929717136, 1929717132, 1929717129, 1929717123, 1929717110, 1929717108, 9036996925, 4672064630, 1929717099, 9596987775, 1929717098, 1929717097, 1929717095, 1931214934, 9938717803, 8753065791, 9942404550, 1108813708, 4672064625, 1929717089, 4759614160, 1929717088, 1929717087, 1929717086, 1929717085, 1929717084, 8742215625, 8753065751, 1108813686, 8753065753, 8753065757, 8753065759, 8753065755, 8753065761, 1108813748, 11465293911, 1929717075, 1929717074, 1929717073, 1929717072, 1108813685, 8753065763, 8753065765, 1929717070], "tags": {"electrified": "contact_line", "frequency": "0", "gauge": "1524", "oneway": "yes", "railway": "tram", "usage": "main", "voltage": "600"}}]}