{"version": 0.6, "generator": "Overpass API 0.7.62.1 084b4234", "osm3s": {"timestamp_osm_base": "2024-05-17T17:07:44Z", "copyright": "The data included in this document is from www.openstreetmap.org. The data is made available under ODbL."}, "elements": [{"type": "node", "id": 1085331754, "lat": 59.9310055, "lon": 30.3596928, "tags": {"amenity": "cafe", "brand": "Cofix", "brand:en": "Cofix", "brand:he": "\u05e7\u05e4\u05d5\u05d9\u05e7\u05e1", "brand:wikidata": "Q16132717", "brand:wikipedia": "he:\u05e7\u05d5\u05e4\u05d9\u05e7\u05e1", "check_date": "2023-01-13", "contact:email": "info@cofix.ru", "contact:facebook": "https://www.facebook.com/cofixrussia", "contact:instagram": "https://www.instagram.com/cofixrussia", "contact:phone": "+7 800 3508418", "contact:vk": "https://vk.com/cofixrussia", "contact:website": "https://cofix.global", "cuisine": "coffee_shop", "delivery": "no", "name": "Cofix", "name:en": "Cofix", "name:he": "\u05e7\u05d5\u05e4\u05d9\u05e7\u05e1", "opening_hours": "Mo-Su 08:00-23:00", "operator": "\u041e\u041e\u041e \u00ab\u0423\u0440\u0431\u0430\u043d \u041a\u043e\u0444\u0438\u043a\u0441 \u0421\u041f\u0431\u00bb", "takeaway": "yes"}}, {"type": "node", "id": 1116480534, "lat": 59.9319982, "lon": 30.3602205}, {"type": "node", "id": 3175490432, "lat": 59.9320411, "lon": 30.3593478, "tags": {"amenity": "cafe", "level": "-1", "name": "\u0413\u0430\u0440\u0441\u043e\u043d"}}, {"type": "node", "id": 4978560598, "lat": 59.9318198, "lon": 30.3618725, "tags": {"amenity": "cafe", "contact:vk": "https://vk.com/club12879930", "name": "\u0421\u0442\u043e\u043b\u043e\u0432\u0430\u044f \u21161 \u0431\u0443\u0444\u0435\u0442", "opening_hours": "08:00-23:00", "operator": "\u041e\u041e\u041e \u00ab\u0410\u043b\u0433\u043e\u0441-\u0424\u0443\u0434\u0441 \u00ab\u041e\u043a\u0442\u044f\u0431\u0440\u044c\u0441\u043a\u0438\u0439\u00bb", "website": "https://st1.one/", "wheelchair": "no"}}, {"type": "node", "id": 5240892292, "lat": 59.9319697, "lon": 30.3604516, "tags": {"entrance": "yes"}}, {"type": "node", "id": 5240892293, "lat": 59.9320195, "lon": 30.360222, "tags": {"entrance": "yes"}}, {"type": "node", "id": 5513870021, "lat": 59.9317878, "lon": 30.3592071, "tags": {"amenity": "cafe", "contact:facebook": "zabylisahar", "contact:vk": "zabylisahar", "delivery": "yes", "level": "3", "name": "\u0417\u0430\u0431\u044b\u043b\u0438 \u0421\u0430\u0445\u0430\u0440", "opening_hours": "10:00-23:00", "operator": "\u0417\u0430\u0431\u044b\u043b\u0438 \u0441\u0430\u0445\u0430\u0440", "operator:ref:inn": "7814670416", "payment:cash": "yes", "payment:maestro": "yes", "payment:mastercard": "yes", "payment:visa": "yes", "payment:visa_electron": "yes", "phone": "+7 812 3312424; +7 812 3212020; +7 921 4000262", "shop": "confectionery", "website": "https://\u0437\u0430\u0431\u044b\u043b\u0438\u0441\u0430\u0445\u0430\u0440.\u0440\u0444/", "wheelchair": "yes"}}, {"type": "node", "id": 5855048347, "lat": 59.9319454, "lon": 30.3606486}, {"type": "node", "id": 5855048348, "lat": 59.9320046, "lon": 30.3606777}, {"type": "node", "id": 5855048349, "lat": 59.9320605, "lon": 30.3602248}, {"type": "node", "id": 5855048350, "lat": 59.931963, "lon": 30.3606573}, {"type": "node", "id": 6536736718, "lat": 59.9307566, "lon": 30.3603076, "tags": {"amenity": "cafe", "brand": "Cofix", "brand:en": "Cofix", "brand:he": "\u05e7\u05e4\u05d5\u05d9\u05e7\u05e1", "brand:wikidata": "Q16132717", "check_date": "2022-12-19", "contact:phone": "+7 800 3508418", "contact:website": "https://cofix.global", "cuisine": "coffee_shop", "level": "0", "name": "Cofix", "name:en": "Cofix", "name:he": "\u05e7\u05d5\u05e4\u05d9\u05e7\u05e1", "opening_hours": "09:00-22:00", "takeaway": "yes"}}, {"type": "node", "id": 6593743408, "lat": 59.9315303, "lon": 30.3589473, "tags": {"entrance": "yes", "level": "0"}}, {"type": "node", "id": 7296635284, "lat": 59.9319271, "lon": 30.3619964, "tags": {"amenity": "cafe", "cuisine": "coffee_shop", "name": "\u041f\u0440\u0430\u0432\u0434\u0430 \u043a\u043e\u0444\u0435", "opening_hours": "Mo-Fr 08:00-22:00; Sa-Su 10:00-20:00", "website": "https://pravdacoffee.ru/coffeeshop/\u043b\u0438\u0433\u043e\u0432\u0441\u043a\u0438\u0439-\u043f\u0440-\u0442-10-118/"}}, {"type": "node", "id": 8668681681, "lat": 59.9324291, "lon": 30.3590568, "tags": {"amenity": "cafe", "brand": "Coffeeshop Company", "brand:wikidata": "Q873767", "brand:wikipedia": "en:Coffeeshop Company", "contact:instagram": "coffeeshop_co", "contact:vk": "csc", "cuisine": "coffee_shop", "level": "4", "name": "Coffeeshop Company", "shop": "confectionery", "takeaway": "yes", "website": "https://coffeeshopcompany.ru/", "wheelchair": "yes"}}, {"type": "node", "id": 9953103112, "lat": 59.9317601, "lon": 30.3591929, "tags": {"amenity": "cafe", "cuisine": "coffee_shop", "level": "2", "name": "Musetti", "operator": "\u0422\u0435\u0445\u043d\u043e-\u0441\u0435\u0440\u0432\u0438\u0441", "operator:ref:inn": "7813470848", "payment:cash": "yes", "payment:contactless": "yes", "payment:maestro": "yes", "payment:mastercard": "yes", "payment:visa": "yes", "payment:visa_electron": "yes", "wheelchair": "yes"}}, {"type": "node", "id": 10290042573, "lat": 59.9316484, "lon": 30.3588202}, {"type": "node", "id": 10290042576, "lat": 59.9316198, "lon": 30.3590442}, {"type": "node", "id": 10290042582, "lat": 59.932251, "lon": 30.3592237, "tags": {"amenity": "cafe", "brand": "Stars Coffee", "brand:wikidata": "Q117236699", "cuisine": "coffee_shop", "level": "0", "name": "Stars Coffee", "takeaway": "yes"}}, {"type": "node", "id": 10290042588, "lat": 59.9315527, "lon": 30.3587678}, {"type": "node", "id": 10290042591, "lat": 59.9315246, "lon": 30.3589914}, {"type": "way", "id": 619595137, "nodes": [5855048349, 5855048348, 5855048350, 5855048347, 5240892292, 1116480534, 5240892293, 5855048349], "tags": {"amenity": "cafe", "contact:vk": "https://vk.com/v1pir", "indoor_seating": "yes", "level": "-1", "name": "\u041f\u0438\u0440\u043e\u0436\u043a\u043e\u0432\u0430\u044f", "opening_hours": "Mo-Fr 08:00-22:00; Sa,Su 09:00-22:00", "operator": "\u0418\u041f \"\u0410\u043c\u0438\u043d\u043e\u0432\"", "outdoor_seating": "no", "website": "https://pirozhki.spb.ru/"}}, {"type": "way", "id": 1125246791, "nodes": [10290042588, 6593743408, 10290042591, 10290042576, 10290042573, 10290042588], "tags": {"air_conditioning": "yes", "amenity": "cafe", "bar": "no", "brand": "\u0431\u0443\u0448\u0435", "brand:en": "bushe", "brand:ru": "\u0431\u0443\u0448\u0435", "brand:wikidata": "Q110044050", "contact:facebook": "bushe.bakery", "contact:instagram": "bushe.bakery", "contact:ok": "bushe.bakery", "contact:vk": "bushe.bakery", "contact:website": "https://bushe.ru", "contact:youtube": "BusheBakery", "cuisine": "coffee_shop;dessert;sandwich", "email": "info@bushe.ru", "level": "0", "name": "\u0431\u0443\u0448\u0435", "name:en": "bushe", "name:fr": "Bouch\u00e9e", "name:ru": "\u0431\u0443\u0448\u0435", "opening_hours": "09:00-23:00", "outdoor_seating": "no", "payment:cash": "yes", "payment:maestro": "yes", "payment:mastercard": "yes", "payment:visa": "yes", "payment:visa_electron": "yes", "phone": "+7 812 6405151 ext. 2611", "shop": "bakery", "takeaway": "yes", "wheelchair": "yes"}}]}