{"version": 0.6, "generator": "Overpass API 0.7.62.1 084b4234", "osm3s": {"timestamp_osm_base": "2024-05-14T03:26:58Z", "copyright": "The data included in this document is from www.openstreetmap.org. The data is made available under ODbL."}, "elements": [{"type": "node", "id": 322049855, "lat": 59.9554186, "lon": 30.2961534, "tags": {"amenity": "cafe", "check_date": "2023-10-18", "name": "Match", "opening_hours": "10:00-23:00"}}, {"type": "node", "id": 1127884888, "lat": 59.9555054, "lon": 30.2964974, "tags": {"amenity": "cafe", "check_date": "2024-04-18", "cuisine": "chinese", "name": "\u0414\u0435\u0441\u044f\u0442\u043a\u0430", "opening_hours": "12:00-23:00"}}, {"type": "node", "id": 2405042445, "lat": 59.9549528, "lon": 30.2933262, "tags": {"amenity": "cafe", "check_date": "2024-04-30", "check_date:opening_hours": "2022-07-31", "cuisine": "ice_cream", "name": "\u0412\u043a\u0443\u0441\u043d\u044b\u0435 \u0448\u0442\u0443\u0447\u043a\u0438", "opening_hours": "Mo-Su 10:00-21:00", "phone": "+7 812 2356067"}}, {"type": "node", "id": 7228096980, "lat": 59.9557729, "lon": 30.295476, "tags": {"amenity": "cafe", "check_date": "2024-04-30", "name": "Pio Nero", "opening_hours": "Mo-Su 08:30-02:00", "wheelchair": "no"}}]}