{"version": 0.6, "generator": "Overpass API 0.7.62.1 084b4234", "osm3s": {"timestamp_osm_base": "2024-05-17T15:26:28Z", "copyright": "The data included in this document is from www.openstreetmap.org. The data is made available under ODbL."}, "elements": [{"type": "node", "id": 2012317253, "lat": 60.0126084, "lon": 30.3981943, "tags": {"addr:floor": "3", "addr:housenumber": "41 \u043a2", "addr:street": "\u0413\u0440\u0430\u0436\u0434\u0430\u043d\u0441\u043a\u0438\u0439 \u043f\u0440\u043e\u0441\u043f\u0435\u043a\u0442", "amenity": "fast_food", "brand": "\u0411\u0443\u0440\u0433\u0435\u0440 \u041a\u0438\u043d\u0433", "brand:en": "Burger King", "brand:ru": "\u0411\u0443\u0440\u0433\u0435\u0440 \u041a\u0438\u043d\u0433", "brand:wikidata": "Q177054", "brand:wikipedia": "en:Burger King", "check_date": "2024-05-06", "contact:email": "FeedBack@burgerking.ru", "contact:phone": "+7 495 5445000", "contact:website": "https://burgerkingrus.ru/", "cuisine": "burger", "diet:vegetarian": "no", "drive_through": "no", "internet_access": "wlan", "internet_access:fee": "no", "level": "2", "name": "\u0411\u0443\u0440\u0433\u0435\u0440 \u041a\u0438\u043d\u0433", "name:en": "Burger King", "name:ru": "\u0411\u0443\u0440\u0433\u0435\u0440 \u041a\u0438\u043d\u0433", "opening_hours": "Mo-Su 10:00-22:00", "operator": "\u041e\u041e\u041e \"\u0411\u0423\u0420\u0413\u0415\u0420 \u0420\u0423\u0421\"", "payment:maestro": "yes", "payment:mastercard": "yes", "payment:visa": "yes", "payment:visa_electron": "yes", "ref": "33", "smoking": "no", "takeaway": "yes"}}, {"type": "node", "id": 2946448513, "lat": 60.0122608, "lon": 30.3981597, "tags": {"addr:city": "\u0421\u0430\u043d\u043a\u0442-\u041f\u0435\u0442\u0435\u0440\u0431\u0443\u0440\u0433", "addr:floor": "3", "addr:housenumber": "41 \u043a2", "addr:street": "\u0413\u0440\u0430\u0436\u0434\u0430\u043d\u0441\u043a\u0438\u0439 \u043f\u0440\u043e\u0441\u043f\u0435\u043a\u0442", "alt_name": "Kentucky Fried Chicken", "amenity": "fast_food", "brand": "KFC", "brand:wikidata": "Q524757", "brand:wikipedia": "en:KFC", "check_date": "2024-05-06", "cuisine": "chicken", "drive_through": "no", "internet_access": "no", "level": "2", "name": "Rostic's", "name:ru": "\u0420\u043e\u0441\u0442\u0438\u043a\u0441", "outdoor_seating": "no", "payment:maestro": "yes", "payment:mastercard": "yes", "payment:visa": "yes", "payment:visa_electron": "yes", "takeaway": "yes"}}, {"type": "node", "id": 3305442153, "lat": 60.0129576, "lon": 30.3971594}, {"type": "node", "id": 3305442161, "lat": 60.0129709, "lon": 30.3971093}, {"type": "node", "id": 3305442162, "lat": 60.0129964, "lon": 30.3972014}, {"type": "node", "id": 3305442164, "lat": 60.0130094, "lon": 30.3971494}, {"type": "node", "id": 5369141277, "lat": 60.0121443, "lon": 30.3979044, "tags": {"amenity": "fast_food", "brand": "Panda Express", "brand:wikidata": "Q1358690", "brand:wikipedia": "en:Panda Express", "check_date": "2023-08-08", "cuisine": "chinese", "level": "2", "name": "Panda Express", "payment:maestro": "yes", "payment:mastercard": "yes", "payment:visa": "yes", "payment:visa_electron": "yes", "takeaway": "yes"}}, {"type": "node", "id": 5369141281, "lat": 60.0121168, "lon": 30.3980106, "tags": {"amenity": "fast_food", "check_date": "2023-08-08", "level": "2", "name": "\u0422\u0435\u0440\u0438\u044f\u043a\u0438", "opening_hours": "10:00-22:00", "payment:maestro": "yes", "payment:mastercard": "yes", "payment:visa": "yes", "payment:visa_electron": "yes"}}, {"type": "node", "id": 5369141282, "lat": 60.0121717, "lon": 30.3977982, "tags": {"amenity": "fast_food", "brand": "\u0422\u0435\u0440\u0435\u043c\u043e\u043a", "brand:en": "Teremok", "brand:ru": "\u0422\u0435\u0440\u0435\u043c\u043e\u043a", "brand:wikidata": "Q4455593", "brand:wikipedia": "ru:\u0422\u0435\u0440\u0435\u043c\u043e\u043a (\u0441\u0435\u0442\u044c \u0431\u044b\u0441\u0442\u0440\u043e\u0433\u043e \u043f\u0438\u0442\u0430\u043d\u0438\u044f)", "check_date": "2023-08-08", "contact:email": "spb@teremok.ru", "contact:phone": "+7 812 2446600;+7 812 3632332", "contact:website": "https://teremok.ru/", "cuisine": "crepe;russian", "drive_through": "no", "level": "2", "name": "\u0422\u0435\u0440\u0435\u043c\u043e\u043a", "name:en": "Teremok", "name:ru": "\u0422\u0435\u0440\u0435\u043c\u043e\u043a", "opening_hours": "10:00-22:00", "payment:mastercard": "yes", "payment:visa": "yes", "takeaway": "yes"}}, {"type": "node", "id": 7832285738, "lat": 60.0120971, "lon": 30.3982553, "tags": {"addr:floor": "2", "addr:housenumber": "41 \u043a2", "addr:street": "\u0413\u0440\u0430\u0436\u0434\u0430\u043d\u0441\u043a\u0438\u0439 \u043f\u0440\u043e\u0441\u043f\u0435\u043a\u0442", "amenity": "fast_food", "brand": "Cinnabon", "brand:wikidata": "Q1092539", "brand:wikipedia": "en:Cinnabon", "check_date": "2024-05-06", "contact:email": "102228@cinnabon.me", "contact:facebook": "https://www.facebook.com/cinnabon.russia", "contact:instagram": "https://instagram.com/cinnabon_russia", "contact:phone": "+7 812 6404940;+7 812 6408779", "contact:vk": "https://vk.com/cinnabon_rus", "contact:website": "https://cinnabonrussia.com/", "cuisine": "dessert", "drive_through": "no", "internet_access": "no", "level": "1", "name": "Cinnabon", "opening_hours": "Mo-Su 10:00-22:00", "operator": "\u0428\u043e\u043a\u043e\u043b\u0430\u0434", "outdoor_seating": "no", "payment:cash": "yes", "payment:credit_cards": "yes", "payment:debit_cards": "yes", "smoking": "no", "takeaway": "yes"}}, {"type": "node", "id": 11099078055, "lat": 60.0121944, "lon": 30.3981634, "tags": {"amenity": "fast_food", "check_date": "2023-08-08", "cuisine": "greek;kebab", "diet:vegan": "yes", "level": "2", "name": "Greek Gyros", "name:ru": "\u0413\u0440\u0435\u0447\u0435\u0441\u043a\u0438\u0439 \u0433\u0438\u0440\u043e\u0441", "opening_hours": "10:00-22:00", "payment:maestro": "yes", "payment:mastercard": "yes", "payment:visa": "yes", "payment:visa_electron": "yes"}}, {"type": "node", "id": 11099078056, "lat": 60.0121391, "lon": 30.3981112, "tags": {"amenity": "fast_food", "check_date": "2023-08-08", "cuisine": "asian", "description": "\u0423\u0437\u0431\u0435\u043a\u0441\u043a\u0430\u044f \u043a\u0443\u0445\u043d\u044f", "drive_through": "no", "level": "2", "name": "\u041f\u043b\u043e\u0432\u043d\u0430\u044f", "opening_hours": "10:00-22:00", "payment:maestro": "yes", "payment:mastercard": "yes", "payment:visa": "yes", "payment:visa_electron": "yes"}}, {"type": "node", "id": 11099078057, "lat": 60.0122933, "lon": 30.3980638, "tags": {"amenity": "fast_food", "check_date": "2023-08-08", "cuisine": "russian", "level": "2", "name": "Pelmen House", "opening_hours": "10:00-22:00", "payment:maestro": "yes", "payment:mastercard": "yes", "payment:visa": "yes", "payment:visa_electron": "yes"}}, {"type": "node", "id": 11099078059, "lat": 60.0124388, "lon": 30.3982602, "tags": {"addr:floor": "3", "addr:housenumber": "41 \u043a2", "addr:street": "\u0413\u0440\u0430\u0436\u0434\u0430\u043d\u0441\u043a\u0438\u0439 \u043f\u0440\u043e\u0441\u043f\u0435\u043a\u0442", "amenity": "fast_food", "check_date": "2024-05-06", "cuisine": "vietnamese", "drive_through": "no", "internet_access": "no", "level": "2", "name": "PhoBo", "opening_hours": "10:00-22:00", "payment:maestro": "yes", "payment:mastercard": "yes", "payment:visa": "yes", "payment:visa_electron": "yes", "smoking": "no"}}, {"type": "node", "id": 11099078060, "lat": 60.0124775, "lon": 30.3982774, "tags": {"addr:floor": "3", "addr:housenumber": "41 \u043a2", "addr:street": "\u0413\u0440\u0430\u0436\u0434\u0430\u043d\u0441\u043a\u0438\u0439 \u043f\u0440\u043e\u0441\u043f\u0435\u043a\u0442", "amenity": "fast_food", "check_date": "2024-05-06", "cuisine": "asian", "drive_through": "no", "internet_access": "no", "level": "2", "name": "\u0428\u0430\u0445\u0435\u0440\u0435\u0437\u0430\u0434\u0430", "opening_hours": "10:00-22:00", "payment:cash": "yes", "payment:contactless": "yes", "payment:credit_cards": "yes", "payment:debit_cards": "yes", "payment:maestro": "yes", "payment:mastercard": "yes", "payment:mir": "yes", "payment:sbp": "yes", "payment:visa": "yes", "payment:visa_electron": "yes", "smoking": "no"}}, {"type": "way", "id": 323765259, "nodes": [3305442153, 3305442162, 3305442164, 3305442161, 3305442153], "tags": {"amenity": "fast_food", "building:levels": "1", "check_date": "2024-05-13", "check_date:opening_hours": "2023-12-19", "delivery": "no", "drive_through": "no", "indoor_seating": "yes", "internet_access": "no", "name": "\u0422\u0438\u043b\u0438-\u0442\u0435\u0441\u0442\u043e", "opening_hours": "Mo-Su 04:30-23:30", "outdoor_seating": "no", "payment:maestro": "yes", "payment:mastercard": "yes", "payment:visa": "yes", "payment:visa_electron": "yes", "smoking": "no", "takeaway": "yes", "wheelchair": "limited"}}]}