{"version": 0.6, "generator": "Overpass API 0.7.62.1 084b4234", "osm3s": {"timestamp_osm_base": "2024-05-14T03:25:00Z", "copyright": "The data included in this document is from www.openstreetmap.org. The data is made available under ODbL."}, "elements": [{"type": "node", "id": 4631594489, "lat": 55.1659868, "lon": 61.4116557, "tags": {"amenity": "bank", "contact:email": "urf_chelyabinsk@mtsbank.ru", "contact:phone": "+7 800 2500520", "contact:website": "https://www.mtsbank.ru/", "name": "\u041c\u0422\u0421 \u0411\u0430\u043d\u043a", "name:ru": "\u041c\u0422\u0421 \u0411\u0430\u043d\u043a", "opening_hours": "Mo-Fr 09:00-20:00;Sa 10:00-18:00"}}, {"type": "node", "id": 4631594490, "lat": 55.1658363, "lon": 61.4131842, "tags": {"amenity": "bank", "name": "\u0413\u0430\u0437\u043f\u0440\u043e\u043c \u0431\u0430\u043d\u043a", "name:ru": "\u0413\u0430\u0437\u043f\u0440\u043e\u043c \u0431\u0430\u043d\u043a"}}, {"type": "node", "id": 4631594589, "lat": 55.1658594, "lon": 61.4116618, "tags": {"amenity": "bank", "bic": "RZBMRUMM", "brand": "\u0420\u0430\u0439\u0444\u0444\u0430\u0439\u0437\u0435\u043d", "brand:wikidata": "Q4389244", "brand:wikipedia": "ru:\u0420\u0430\u0439\u0444\u0444\u0430\u0439\u0437\u0435\u043d\u0431\u0430\u043d\u043a", "contact:email": "info@raiffeisen.ru", "contact:facebook": "https://www.facebook.com/raiffeisenbankrus", "contact:instagram": "https://www.instagram.com/raiffeisenbank_rus", "contact:telegram": "https://telegram.me/RaiffeisenbankBot", "contact:twitter": "https://twitter.com/Raiffeisen_Ru", "contact:vk": "https://vk.com/raiffeisenbankrus", "contact:website": "https://www.raiffeisen.ru", "name": "\u0420\u0430\u0439\u0444\u0444\u0430\u0439\u0437\u0435\u043d", "name:en": "Raiffeisen", "name:ru": "\u0420\u0430\u0439\u0444\u0444\u0430\u0439\u0437\u0435\u043d"}}, {"type": "node", "id": 4631594590, "lat": 55.1658078, "lon": 61.4124221, "tags": {"amenity": "bank", "contact:email": "unicredit@unicredit.ru", "contact:phone": "+7 495 2587200;+7 800 7001020", "contact:twitter": "https://twitter.com/unicreditrussia", "contact:vk": "https://vk.com/unicreditbank", "contact:website": "https://www.unicreditbank.ru/", "contact:youtube": "https://www.youtube.com/user/unicreditbankrussia", "name": "\u042e\u043d\u0438\u041a\u0440\u0435\u0434\u0438\u0442 \u0411\u0430\u043d\u043a", "name:ru": "\u042e\u043d\u0438\u041a\u0440\u0435\u0434\u0438\u0442 \u0411\u0430\u043d\u043a", "opening_hours": "Mo-Fr 09:00-18:00", "operator": "\u042e\u043d\u0438\u041a\u0440\u0435\u0434\u0438\u0442 \u0411\u0430\u043d\u043a"}}, {"type": "node", "id": 5931860485, "lat": 55.1653955, "lon": 61.4131856, "tags": {"amenity": "bank", "name": "Credit \u0415urope bank"}}]}