{"version": 0.6, "generator": "Overpass API 0.7.62.1 084b4234", "osm3s": {"timestamp_osm_base": "2024-05-16T16:29:50Z", "copyright": "The data included in this document is from www.openstreetmap.org. The data is made available under ODbL."}, "elements": [{"type": "node", "id": 1531954642, "lat": 64.5104694, "lon": 40.663508, "tags": {"amenity": "atm", "check_date": "2022-12-28", "level": "1", "opening_hours": "24/7", "operator": "\u0410\u041e \"\u0411\u0430\u043d\u043a \u0424\u0438\u043d\u0441\u0435\u0440\u0432\u0438\u0441\"", "wheelchair": "yes"}}, {"type": "node", "id": 1531954643, "lat": 64.510479, "lon": 40.6635286, "tags": {"alt_name": "\u0421\u0435\u0432\u0435\u0440\u0433\u0430\u0437\u0431\u0430\u043d\u043a", "amenity": "atm", "check_date": "2022-12-28", "contact:phone": "+7 800 7002552", "contact:website": "https://www.severgazbank.ru/", "currency:RUB": "yes", "currency:others": "no", "level": "1", "name": "\u0421\u0413\u0411", "opening_hours": "24/7", "operator": "\u041f\u0410\u041e \"\u0411\u0410\u041d\u041a \u0421\u0413\u0411\"", "ref": "117068", "wheelchair": "yes"}}, {"type": "node", "id": 1531954644, "lat": 64.5104879, "lon": 40.6635477, "tags": {"amenity": "atm", "brand": "\u0423\u0440\u0430\u043b\u0441\u0438\u0431", "cash_in": "yes", "check_date": "2022-12-28", "contact:phone": "+7 800 2505757", "contact:website": "https://www.uralsib.ru/", "level": "1", "name": "\u0423\u0440\u0430\u043b\u0441\u0438\u0431", "opening_hours": "24/7", "operator": "\u041f\u0410\u041e \"\u0411\u0410\u041d\u041a \u0423\u0420\u0410\u041b\u0421\u0418\u0411\"", "wheelchair": "yes"}}, {"type": "node", "id": 1583276040, "lat": 64.5104618, "lon": 40.6634954, "tags": {"amenity": "atm", "check_date": "2022-12-28", "contact:phone": "+7 800 1007474", "contact:website": "https://minbank.ru/", "level": "1", "name": "\u041c\u043e\u0441\u043a\u043e\u0432\u0441\u043a\u0438\u0439 \u0438\u043d\u0434\u0443\u0441\u0442\u0440\u0438\u0430\u043b\u044c\u043d\u044b\u0439 \u0431\u0430\u043d\u043a", "opening_hours": "24/7", "operator": "\u041f\u0410\u041e \"\u041c\u0418\u043d\u0411\u0430\u043d\u043a\"", "ref": "A0260071", "wheelchair": "yes"}}, {"type": "node", "id": 1744190108, "lat": 64.5102577, "lon": 40.6640521, "tags": {"amenity": "atm", "check_date": "2022-12-28", "contact:phone": "+7 800 5555550", "contact:website": "https://www.sberbank.ru/", "currency:RUB": "yes", "currency:others": "no", "language:de": "yes", "language:en": "yes", "language:es": "yes", "language:fi": "yes", "language:fr": "yes", "language:it": "yes", "language:others": "no", "language:ru": "yes", "language:zh": "yes", "level": "1", "name": "\u0421\u0431\u0435\u0440\u0431\u0430\u043d\u043a", "name:en": "Sberbank", "name:ru": "\u0421\u0431\u0435\u0440\u0431\u0430\u043d\u043a", "opening_hours": "24/7", "operator": "\u041f\u0410\u041e \u0421\u0431\u0435\u0440\u0431\u0430\u043d\u043a", "ref": "60016893", "speech_output:en": "yes", "speech_output:other": "no", "speech_output:ru": "yes", "wheelchair": "yes"}}, {"type": "node", "id": 2396481705, "lat": 64.510504, "lon": 40.6635755, "tags": {"amenity": "atm", "cash_in": "yes", "check_date": "2022-12-28", "contact:phone": "+7 800 2005434;+7 495 7898877", "contact:website": "https://www.rosbank.ru/", "currency:RUB": "yes", "currency:others": "no", "level": "1", "name": "\u0420\u043e\u0441\u0431\u0430\u043d\u043a", "opening_hours": "24/7", "operator": "\u041f\u0410\u041e \u0420\u041e\u0421\u0411\u0410\u041d\u041a", "wheelchair": "yes"}}, {"type": "node", "id": 2485391851, "lat": 64.5105118, "lon": 40.6635864, "tags": {"amenity": "atm", "cash_in": "no", "check_date": "2022-12-28", "currency:RUB": "yes", "level": "1", "opening_hours": "24/7", "operator": "\u0410\u041e \"\u0420\u043e\u0441\u0441\u0435\u043b\u044c\u0445\u043e\u0437\u0431\u0430\u043d\u043a\"", "phone": "+7 800 1000100", "ref": "S1AM4281", "website": "https://www.rshb.ru/", "wheelchair": "yes"}}, {"type": "node", "id": 2485391854, "lat": 64.5105283, "lon": 40.6636134, "tags": {"amenity": "atm", "cash_in": "yes", "check_date": "2022-12-28", "contact:phone": "+7 800 2000000", "contact:website": "https://alfabank.ru/atm/", "currency:EUR": "cash_in", "currency:RUB": "yes", "currency:USD": "cash_in", "level": "1", "name": "\u0410\u043b\u044c\u0444\u0430-\u0411\u0430\u043d\u043a", "opening_hours": "24/7", "operator": "\u0410\u041e \"\u0410\u043b\u044c\u0444\u0430-\u0411\u0430\u043d\u043a\"", "ref": "502542", "wheelchair": "yes"}}, {"type": "node", "id": 3719190356, "lat": 64.5104946, "lon": 40.6635619, "tags": {"amenity": "atm", "check_date": "2022-12-28", "contact:phone": "+7 800 4444400", "contact:website": "https://open.ru/", "level": "1", "opening_hours": "24/7", "operator": "\u041f\u0410\u041e \u0411\u0430\u043d\u043a \"\u0424\u041a \u041e\u0442\u043a\u0440\u044b\u0442\u0438\u0435\"", "ref": "25633", "wheelchair": "yes"}}, {"type": "node", "id": 3837935104, "lat": 64.5103129, "lon": 40.6639468, "tags": {"amenity": "atm", "check_date": "2022-12-28", "contact:phone": "+7 800 3339898;+7 8182 200102", "contact:website": "https://www.avangard.ru/", "level": "1", "name": "\u0410\u0432\u0430\u043d\u0433\u0430\u0440\u0434", "opening_hours": "24/7", "operator": "\u041f\u0410\u041e \u0410\u041a\u0411 \"\u0410\u0432\u0430\u043d\u0433\u0430\u0440\u0434\"", "ref": "ATM22044", "wheelchair": "limited"}}, {"type": "node", "id": 6156423518, "lat": 64.5105364, "lon": 40.6636312, "tags": {"amenity": "atm", "brand": "\u0412\u0422\u0411", "check_date": "2022-12-28", "currency:RUB": "yes", "opening_hours": "24/7", "operator": "\u0411\u0430\u043d\u043a \u0412\u0422\u0411 (\u041f\u0410\u041e)", "ref": "386164"}}, {"type": "node", "id": 9159073023, "lat": 64.5105477, "lon": 40.6636575, "tags": {"amenity": "atm", "check_date": "2022-12-28", "name": "\u0421\u041c\u041f \u0431\u0430\u043d\u043a", "opening_hours": "24/7", "wheelchair": "limited"}}, {"type": "node", "id": 9381639027, "lat": 64.5103586, "lon": 40.6638662, "tags": {"amenity": "atm", "check_date": "2022-12-28", "contact:phone": "+7 800 5557778", "contact:website": "https://www.tinkoff.ru/", "currency:EUR": "cash_in", "currency:RUB": "yes", "currency:USD": "yes", "name": "\u0422\u0438\u043d\u044c\u043a\u043e\u0444\u0444", "opening_hours": "24/7", "operator": "\u0410\u041e \"\u0422\u0438\u043d\u044c\u043a\u043e\u0444\u0444 \u0411\u0430\u043d\u043a\"", "ref": "1342", "wheelchair": "yes"}}]}