{"version": 0.6, "generator": "Overpass API 0.7.62.1 084b4234", "osm3s": {"timestamp_osm_base": "2024-05-17T22:03:14Z", "copyright": "The data included in this document is from www.openstreetmap.org. The data is made available under ODbL."}, "elements": [{"type": "node", "id": 442008175, "lat": 53.2028088, "lon": 50.1604963, "tags": {"layer": "-4", "name": "\u041c\u043e\u0441\u043a\u043e\u0432\u0441\u043a\u0430\u044f", "name:cs": "Moskovskaja", "name:en": "Moskovskaya", "name:eo": "Moskovskaja", "name:nl": "Moskovskaja", "name:pt": "Esta\u00e7\u00e3o Moskovskaia", "operator": "\u0421\u0430\u043c\u0430\u0440\u0441\u043a\u0438\u0439 \u043c\u0435\u0442\u0440\u043e\u043f\u043e\u043b\u0438\u0442\u0435\u043d", "public_transport": "platform", "railway": "station", "station": "subway", "subway": "yes", "transport": "subway", "wikidata": "Q2180438", "wikipedia": "ru:\u041c\u043e\u0441\u043a\u043e\u0432\u0441\u043a\u0430\u044f (\u0441\u0442\u0430\u043d\u0446\u0438\u044f \u043c\u0435\u0442\u0440\u043e, \u0421\u0430\u043c\u0430\u0440\u0430)"}}]}