{"version": 0.6, "generator": "Overpass API 0.7.62.1 084b4234", "osm3s": {"timestamp_osm_base": "2024-05-13T22:13:14Z", "copyright": "The data included in this document is from www.openstreetmap.org. The data is made available under ODbL."}, "elements": [{"type": "node", "id": 889237108, "lat": 55.7451559, "lon": 49.2328044, "tags": {"railway": "tram_level_crossing"}}, {"type": "node", "id": 889237406, "lat": 55.7409198, "lon": 49.2243908}, {"type": "node", "id": 889237751, "lat": 55.7408656, "lon": 49.2245789}, {"type": "node", "id": 889238137, "lat": 55.7408628, "lon": 49.2246852, "tags": {"railway": "tram_level_crossing"}}, {"type": "node", "id": 889239402, "lat": 55.748472, "lon": 49.2388999}, {"type": "node", "id": 1038899633, "lat": 55.7479616, "lon": 49.2376472}, {"type": "node", "id": 1038899634, "lat": 55.7482857, "lon": 49.2377271, "tags": {"name": "9-\u0439 \u043c\u0438\u043a\u0440\u043e\u0440\u0430\u0439\u043e\u043d", "name:en": "9th mikrorayon", "name:tt": "9 \u043d\u0447\u044b \u043c\u0438\u043a\u0440\u043e\u0440\u0430\u0439\u043e\u043d", "public_transport": "stop_position", "railway": "tram_stop", "tram": "yes"}}, {"type": "node", "id": 1038899637, "lat": 55.7486552, "lon": 49.2377889}, {"type": "node", "id": 1038899638, "lat": 55.7487932, "lon": 49.2379001}, {"type": "node", "id": 1038899639, "lat": 55.7489043, "lon": 49.2380628}, {"type": "node", "id": 1038899640, "lat": 55.7489632, "lon": 49.2382285}, {"type": "node", "id": 1038899641, "lat": 55.7489865, "lon": 49.2384555}, {"type": "node", "id": 1038899642, "lat": 55.7489712, "lon": 49.2386568}, {"type": "node", "id": 1038899643, "lat": 55.7489115, "lon": 49.2388157}, {"type": "node", "id": 1038899644, "lat": 55.7488365, "lon": 49.2389391}, {"type": "node", "id": 1038899645, "lat": 55.7487215, "lon": 49.2390041}, {"type": "node", "id": 1038899646, "lat": 55.7486048, "lon": 49.2390179}, {"type": "node", "id": 1038899647, "lat": 55.7464708, "lon": 49.2351133}, {"type": "node", "id": 1038899648, "lat": 55.7436122, "lon": 49.2298629}, {"type": "node", "id": 1108813695, "lat": 55.7448363, "lon": 49.2321989, "tags": {"name": "\u0443\u043b\u0438\u0446\u0430 \u0413\u0435\u043d\u0435\u0440\u0430\u043b\u0430 \u0421\u0430\u0444\u0438\u0443\u043b\u043b\u0438\u043d\u0430", "name:en": "General Safiullin street", "name:tt": "\u0421\u0430\u0444\u0438\u0443\u043b\u043b\u0438\u043d \u0443\u0440\u0430\u043c\u044b", "public_transport": "stop_position", "railway": "tram_stop", "tram": "yes"}}, {"type": "node", "id": 1108813703, "lat": 55.7416468, "lon": 49.2263267, "tags": {"name": "\u0443\u043b\u0438\u0446\u0430 \u041a\u043e\u043c\u0438\u0441\u0441\u0430\u0440\u0430 \u0413\u0430\u0431\u0438\u0448\u0435\u0432\u0430", "name:en": "Gabishev street", "name:tt": "\u041a\u043e\u043c\u0438\u0441\u0441\u0430\u0440 \u0413\u0430\u0431\u0438\u0448\u0435\u0432 \u0443\u0440\u0430\u043c\u044b", "public_transport": "stop_position", "railway": "tram_stop", "tram": "yes"}}, {"type": "node", "id": 1108813710, "lat": 55.7445893, "lon": 49.2181443, "tags": {"name": "\u0443\u043b\u0438\u0446\u0430 \u042e\u043b\u0438\u0443\u0441\u0430 \u0424\u0443\u0447\u0438\u043a\u0430", "name:en": "Fuchik street", "name:tt": "\u042e\u043b\u0438\u0443\u0441 \u0424\u0443\u0447\u0438\u043a \u0443\u0440\u0430\u043c\u044b", "public_transport": "stop_position", "railway": "tram_stop", "tram": "yes"}}, {"type": "node", "id": 1108813718, "lat": 55.7478339, "lon": 49.212591, "tags": {"name": "\u041f\u0440\u043e\u0441\u043f\u0435\u043a\u0442 \u041f\u043e\u0431\u0435\u0434\u044b", "name:en": "Prospekt Pobedy", "name:tt": "\u0496\u0438\u04a3\u04af \u043f\u0440\u043e\u0441\u043f\u0435\u043a\u0442\u044b", "public_transport": "stop_position", "railway": "tram_stop", "tram": "yes"}}, {"type": "node", "id": 1108813733, "lat": 55.7449639, "lon": 49.2325233, "tags": {"name": "\u0443\u043b\u0438\u0446\u0430 \u0413\u0435\u043d\u0435\u0440\u0430\u043b\u0430 \u0421\u0430\u0444\u0438\u0443\u043b\u043b\u0438\u043d\u0430", "name:en": "General Safiullin street", "name:ru": "\u0423\u043b\u0438\u0446\u0430 \u0413\u0435\u043d\u0435\u0440\u0430\u043b\u0430 \u0421\u0430\u0444\u0438\u0443\u043b\u043b\u0438\u043d\u0430", "name:tt": "\u0421\u0430\u0444\u0438\u0443\u043b\u043b\u0438\u043d \u0443\u0440\u0430\u043c\u044b", "public_transport": "stop_position", "railway": "tram_stop", "tram": "yes"}}, {"type": "node", "id": 1108813736, "lat": 55.741624, "lon": 49.2263686, "tags": {"name": "\u0443\u043b\u0438\u0446\u0430 \u041a\u043e\u043c\u0438\u0441\u0441\u0430\u0440\u0430 \u0413\u0430\u0431\u0438\u0448\u0435\u0432\u0430", "name:en": "Gabishev street", "name:tt": "\u041a\u043e\u043c\u0438\u0441\u0441\u0430\u0440 \u0413\u0430\u0431\u0438\u0448\u0435\u0432 \u0443\u0440\u0430\u043c\u044b", "public_transport": "stop_position", "railway": "tram_stop", "tram": "yes"}}, {"type": "node", "id": 1108813739, "lat": 55.7444461, "lon": 49.2182869, "tags": {"name": "\u0443\u043b\u0438\u0446\u0430 \u042e\u043b\u0438\u0443\u0441\u0430 \u0424\u0443\u0447\u0438\u043a\u0430", "name:en": "Fuchik street", "name:tt": "\u042e\u043b\u0438\u0443\u0441 \u0424\u0443\u0447\u0438\u043a \u0443\u0440\u0430\u043c\u044b", "public_transport": "stop_position", "railway": "tram_stop", "tram": "yes"}}, {"type": "node", "id": 1121706042, "lat": 55.740905, "lon": 49.2248778}, {"type": "node", "id": 1121707639, "lat": 55.7409231, "lon": 49.2249245}, {"type": "node", "id": 1774353737, "lat": 55.7486513, "lon": 49.211129}, {"type": "node", "id": 1929717010, "lat": 55.7408358, "lon": 49.2246332}, {"type": "node", "id": 1929717011, "lat": 55.740837, "lon": 49.2247278, "tags": {"railway": "tram_level_crossing"}}, {"type": "node", "id": 1929717012, "lat": 55.7408425, "lon": 49.2245461}, {"type": "node", "id": 1929717013, "lat": 55.7408562, "lon": 49.22446}, {"type": "node", "id": 1929717014, "lat": 55.7408583, "lon": 49.2248499}, {"type": "node", "id": 1929717015, "lat": 55.7408761, "lon": 49.2247694}, {"type": "node", "id": 1929717016, "lat": 55.740886, "lon": 49.2244747}, {"type": "node", "id": 1929717017, "lat": 55.7408978, "lon": 49.2243458}, {"type": "node", "id": 1929717018, "lat": 55.7409013, "lon": 49.2249625}, {"type": "node", "id": 1929717019, "lat": 55.7427767, "lon": 49.2284053, "tags": {"railway": "tram_level_crossing"}}, {"type": "node", "id": 1929717020, "lat": 55.7427972, "lon": 49.2283663, "tags": {"railway": "tram_level_crossing"}}, {"type": "node", "id": 1929717021, "lat": 55.7431276, "lon": 49.2290496, "tags": {"railway": "tram_level_crossing"}}, {"type": "node", "id": 1929717022, "lat": 55.7431501, "lon": 49.2290143, "tags": {"railway": "tram_level_crossing"}}, {"type": "node", "id": 1929717024, "lat": 55.7451353, "lon": 49.2328471, "tags": {"railway": "tram_level_crossing"}}, {"type": "node", "id": 1929717026, "lat": 55.7470295, "lon": 49.2362135, "tags": {"railway": "tram_level_crossing"}}, {"type": "node", "id": 1929717027, "lat": 55.7470509, "lon": 49.2361788, "tags": {"railway": "tram_level_crossing"}}, {"type": "node", "id": 1929717031, "lat": 55.747695, "lon": 49.2373618}, {"type": "node", "id": 1929717032, "lat": 55.7478062, "lon": 49.2375297}, {"type": "node", "id": 1929717034, "lat": 55.7486284, "lon": 49.2110872}, {"type": "node", "id": 3867368016, "lat": 55.7409936, "lon": 49.2251319, "tags": {"railway": "tram_crossing"}}, {"type": "node", "id": 3867368017, "lat": 55.7410157, "lon": 49.2250945, "tags": {"railway": "tram_crossing"}}, {"type": "node", "id": 8104638269, "lat": 55.7417492, "lon": 49.2228934, "tags": {"railway": "tram_crossing"}}, {"type": "node", "id": 8104638270, "lat": 55.7417732, "lon": 49.2229368, "tags": {"railway": "tram_crossing"}}, {"type": "node", "id": 8753687864, "lat": 55.7453661, "lon": 49.2167224, "tags": {"railway": "tram_crossing"}}, {"type": "node", "id": 8753687865, "lat": 55.7452753, "lon": 49.2168553, "tags": {"railway": "tram_level_crossing"}}, {"type": "node", "id": 8753687866, "lat": 55.7449899, "lon": 49.2173768, "tags": {"railway": "tram_level_crossing"}}, {"type": "node", "id": 8753687867, "lat": 55.74501, "lon": 49.2174234, "tags": {"railway": "tram_level_crossing"}}, {"type": "node", "id": 8753687868, "lat": 55.7453925, "lon": 49.2167695, "tags": {"railway": "tram_crossing"}}, {"type": "node", "id": 8753687869, "lat": 55.7453035, "lon": 49.2169099, "tags": {"railway": "tram_level_crossing"}}, {"type": "node", "id": 9697113204, "lat": 55.7417449, "lon": 49.222985, "tags": {"name": "8-\u0439 \u043c\u0438\u043a\u0440\u043e\u0440\u0430\u0439\u043e\u043d", "public_transport": "stop_position", "railway": "tram_stop", "tram": "yes"}}, {"type": "node", "id": 9697113212, "lat": 55.7417819, "lon": 49.2228375, "tags": {"name": "8-\u0439 \u043c\u0438\u043a\u0440\u043e\u0440\u0430\u0439\u043e\u043d", "public_transport": "stop_position", "railway": "tram_stop", "tram": "yes"}}, {"type": "node", "id": 9697182573, "lat": 55.7477038, "lon": 49.2126843, "tags": {"name": "\u041f\u0440\u043e\u0441\u043f\u0435\u043a\u0442 \u041f\u043e\u0431\u0435\u0434\u044b", "public_transport": "stop_position", "railway": "tram_stop", "tram": "yes"}}, {"type": "node", "id": 10015906566, "lat": 55.7413594, "lon": 49.2258496, "tags": {"railway": "tram_level_crossing"}}, {"type": "node", "id": 10015906567, "lat": 55.7476494, "lon": 49.2373632, "tags": {"railway": "tram_level_crossing"}}, {"type": "node", "id": 10015906568, "lat": 55.7476806, "lon": 49.2373353, "tags": {"railway": "tram_level_crossing"}}, {"type": "node", "id": 10015906569, "lat": 55.7413832, "lon": 49.225812, "tags": {"railway": "tram_level_crossing"}}, {"type": "node", "id": 10024539432, "lat": 55.7416846, "lon": 49.2263938, "tags": {"railway": "tram_crossing"}}, {"type": "node", "id": 10024539433, "lat": 55.7416645, "lon": 49.2264402, "tags": {"railway": "tram_crossing"}}, {"type": "way", "id": 182612751, "nodes": [1929717034, 9697182573, 8753687864, 8753687865, 8753687866, 1108813739, 9697113212, 8104638269, 1929717017, 1929717013, 1929717012, 1929717010, 1929717011, 1929717014, 1929717018, 3867368016, 10015906566, 1108813736, 10024539433, 1929717019, 1929717021, 1108813733, 1929717024, 1929717026, 10015906567, 889239402, 1038899646, 1038899645, 1038899644, 1038899643, 1038899642, 1038899641, 1038899640, 1038899639, 1038899638, 1038899637], "tags": {"electrified": "contact_line", "frequency": "0", "gauge": "1524", "oneway": "yes", "railway": "tram", "usage": "main", "voltage": "600"}}, {"type": "way", "id": 241532599, "nodes": [1038899634, 1038899633, 1929717032, 1929717031, 10015906568, 1929717027, 1038899647, 889237108, 1108813695, 1038899648, 1929717022, 1929717020, 10024539432, 1108813703, 10015906569, 3867368017, 1121707639, 1121706042, 1929717015, 889238137, 889237751, 1929717016, 889237406, 9697113204, 8104638270, 1108813710, 8753687867, 8753687869, 8753687868, 1108813718, 1774353737], "tags": {"electrified": "contact_line", "frequency": "0", "gauge": "1524", "oneway": "yes", "railway": "tram", "usage": "main", "voltage": "600"}}]}