{"version": 0.6, "generator": "Overpass API 0.7.62.1 084b4234", "osm3s": {"timestamp_osm_base": "2024-05-18T00:08:00Z", "copyright": "The data included in this document is from www.openstreetmap.org. The data is made available under ODbL."}, "elements": [{"type": "node", "id": 1036437195, "lat": 57.0161195, "lon": 41.0074505}, {"type": "node", "id": 1036437201, "lat": 57.017603, "lon": 41.0063206}, {"type": "node", "id": 1036437214, "lat": 57.016274, "lon": 41.0081956}, {"type": "node", "id": 1036437227, "lat": 57.0143256, "lon": 41.0075621}, {"type": "node", "id": 1036437251, "lat": 57.0157083, "lon": 41.008093}, {"type": "node", "id": 1036437261, "lat": 57.0171403, "lon": 41.0064145}, {"type": "node", "id": 1036437273, "lat": 57.0157198, "lon": 41.0082994}, {"type": "node", "id": 1036437300, "lat": 57.0143367, "lon": 41.0077622}, {"type": "node", "id": 1036437322, "lat": 57.0162625, "lon": 41.0079892}, {"type": "node", "id": 1036437384, "lat": 57.0171573, "lon": 41.0066977}, {"type": "node", "id": 1036437389, "lat": 57.0137653, "lon": 41.0078318}, {"type": "node", "id": 1036437484, "lat": 57.01762, "lon": 41.0066038}, {"type": "node", "id": 1036437515, "lat": 57.0161133, "lon": 41.0072691}, {"type": "node", "id": 1036437537, "lat": 57.0137629, "lon": 41.0076253}, {"type": "node", "id": 1251698152, "lat": 57.0142782, "lon": 41.0071773}, {"type": "node", "id": 1251698158, "lat": 57.0168561, "lon": 41.0086772}, {"type": "node", "id": 1251698164, "lat": 57.0160557, "lon": 41.0070313}, {"type": "node", "id": 1251698169, "lat": 57.0177129, "lon": 41.0088877}, {"type": "node", "id": 1251698255, "lat": 57.0141487, "lon": 41.0071977}, {"type": "node", "id": 1251698273, "lat": 57.0169343, "lon": 41.0079441}, {"type": "node", "id": 1251698298, "lat": 57.0181232, "lon": 41.0060732}, {"type": "node", "id": 1251698407, "lat": 57.0166504, "lon": 41.0063145}, {"type": "node", "id": 1251698435, "lat": 57.0179923, "lon": 41.0067572}, {"type": "node", "id": 1251698493, "lat": 57.0158874, "lon": 41.0074772}, {"type": "node", "id": 1251698519, "lat": 57.0169151, "lon": 41.007275}, {"type": "node", "id": 1251698611, "lat": 57.0145534, "lon": 41.0059821}, {"type": "node", "id": 1251698616, "lat": 57.0157482, "lon": 41.0073158}, {"type": "node", "id": 1251698632, "lat": 57.0167025, "lon": 41.0083113}, {"type": "node", "id": 1251698642, "lat": 57.017033, "lon": 41.0062829}, {"type": "node", "id": 1251698713, "lat": 57.0176995, "lon": 41.0086265}, {"type": "node", "id": 1251698726, "lat": 57.0167221, "lon": 41.0089587}, {"type": "node", "id": 1251698818, "lat": 57.0168446, "lon": 41.0082968}, {"type": "node", "id": 1251698833, "lat": 57.0166699, "lon": 41.0071136}, {"type": "node", "id": 1251698843, "lat": 57.0177376, "lon": 41.0061247}, {"type": "node", "id": 1251698908, "lat": 57.0158924, "lon": 41.0076228}, {"type": "node", "id": 1251698947, "lat": 57.0168121, "lon": 41.0071019}, {"type": "node", "id": 1251699000, "lat": 57.0145649, "lon": 41.0062269}, {"type": "node", "id": 1251699001, "lat": 57.016236, "lon": 41.0075832}, {"type": "node", "id": 1251699010, "lat": 57.0173625, "lon": 41.0086849}, {"type": "node", "id": 1251699044, "lat": 57.0181495, "lon": 41.0067362}, {"type": "node", "id": 1251699102, "lat": 57.0142361, "lon": 41.0062789}, {"type": "node", "id": 1251699105, "lat": 57.0170902, "lon": 41.0086533}, {"type": "node", "id": 1251699109, "lat": 57.0167639, "lon": 41.0072897}, {"type": "node", "id": 1251699117, "lat": 57.0170983, "lon": 41.0089203}, {"type": "node", "id": 1251699270, "lat": 57.0167831, "lon": 41.0079587}, {"type": "node", "id": 1251699320, "lat": 57.017749, "lon": 41.006414}, {"type": "node", "id": 1251699432, "lat": 57.0167981, "lon": 41.0065289}, {"type": "node", "id": 1251699443, "lat": 57.0179775, "lon": 41.0063835}, {"type": "node", "id": 1251699492, "lat": 57.0140952, "lon": 41.0060545}, {"type": "node", "id": 1251699499, "lat": 57.0162166, "lon": 41.0070127}, {"type": "node", "id": 1251699513, "lat": 57.0173759, "lon": 41.0089461}, {"type": "node", "id": 1251699549, "lat": 57.0170385, "lon": 41.006509}, {"type": "node", "id": 4790479921, "lat": 57.016064, "lon": 41.0072748}, {"type": "node", "id": 4790479922, "lat": 57.0158518, "lon": 41.0069312}, {"type": "node", "id": 4790479923, "lat": 57.0158686, "lon": 41.0072987}, {"type": "node", "id": 4790479924, "lat": 57.0157295, "lon": 41.0069525}, {"type": "node", "id": 4790479925, "lat": 57.0154085, "lon": 41.0073639}, {"type": "node", "id": 4790479926, "lat": 57.015419, "lon": 41.0076152}, {"type": "node", "id": 4790479927, "lat": 57.0158792, "lon": 41.00755}, {"type": "node", "id": 4790479935, "lat": 57.0158516, "lon": 41.0059136}, {"type": "node", "id": 4790479936, "lat": 57.0158581, "lon": 41.0061434}, {"type": "node", "id": 4790479937, "lat": 57.0161269, "lon": 41.0061176}, {"type": "node", "id": 4790479938, "lat": 57.0161426, "lon": 41.0066667}, {"type": "node", "id": 4790479939, "lat": 57.0162831, "lon": 41.0066533}, {"type": "node", "id": 4790479940, "lat": 57.0162622, "lon": 41.0059183}, {"type": "node", "id": 4790479945, "lat": 57.0156161, "lon": 41.0061018}, {"type": "node", "id": 4790479946, "lat": 57.0153265, "lon": 41.0061493}, {"type": "node", "id": 4790479947, "lat": 57.0153379, "lon": 41.0063827}, {"type": "node", "id": 4790479948, "lat": 57.0156274, "lon": 41.0063351}, {"type": "node", "id": 4790479949, "lat": 57.0153461, "lon": 41.0069929}, {"type": "node", "id": 4790479950, "lat": 57.0152029, "lon": 41.0070037}, {"type": "node", "id": 4790479951, "lat": 57.0151895, "lon": 41.0064047}, {"type": "node", "id": 4790479952, "lat": 57.0151906, "lon": 41.0061934}, {"type": "node", "id": 4790479953, "lat": 57.0150435, "lon": 41.0062087}, {"type": "node", "id": 4790479954, "lat": 57.0150404, "lon": 41.0061071}, {"type": "node", "id": 4790479955, "lat": 57.0148615, "lon": 41.0061257}, {"type": "node", "id": 4790479956, "lat": 57.0148716, "lon": 41.0064516}, {"type": "node", "id": 4790557005, "lat": 57.0149676, "lon": 41.0068908}, {"type": "node", "id": 4790557006, "lat": 57.0148112, "lon": 41.006899}, {"type": "node", "id": 4790557007, "lat": 57.0148209, "lon": 41.0075197}, {"type": "node", "id": 4790557009, "lat": 57.0152062, "lon": 41.00742}, {"type": "node", "id": 4790557011, "lat": 57.0147695, "lon": 41.0076825}, {"type": "node", "id": 4790557012, "lat": 57.0152105, "lon": 41.0076324}, {"type": "node", "id": 4790557013, "lat": 57.014473, "lon": 41.0073846}, {"type": "node", "id": 4790557014, "lat": 57.0144769, "lon": 41.0076348}, {"type": "node", "id": 5443000635, "lat": 57.0161938, "lon": 41.0059249}, {"type": "node", "id": 5443000636, "lat": 57.0161926, "lon": 41.0058809}, {"type": "node", "id": 5443000639, "lat": 57.0147248, "lon": 41.0074472}, {"type": "node", "id": 5443000640, "lat": 57.0147244, "lon": 41.0074264}, {"type": "node", "id": 5443000641, "lat": 57.0148471, "lon": 41.0070537}, {"type": "node", "id": 5443000642, "lat": 57.0148302, "lon": 41.0070546}, {"type": "node", "id": 5443000643, "lat": 57.0148295, "lon": 41.0070068}, {"type": "node", "id": 5443000644, "lat": 57.0148129, "lon": 41.0070077}, {"type": "node", "id": 5443000645, "lat": 57.014765, "lon": 41.007298}, {"type": "node", "id": 5443000646, "lat": 57.0147825, "lon": 41.0072971}, {"type": "node", "id": 5443000647, "lat": 57.0147833, "lon": 41.0073505}, {"type": "node", "id": 5443000648, "lat": 57.0148033, "lon": 41.0073495}, {"type": "node", "id": 5443000649, "lat": 57.014804, "lon": 41.0073985}, {"type": "node", "id": 5443000650, "lat": 57.014764, "lon": 41.007229}, {"type": "node", "id": 5443000651, "lat": 57.014819, "lon": 41.0073977}, {"type": "node", "id": 5443000652, "lat": 57.0148498, "lon": 41.0072244}, {"type": "node", "id": 5443000653, "lat": 57.0149708, "lon": 41.0070956}, {"type": "node", "id": 5443000654, "lat": 57.0149895, "lon": 41.0070946}, {"type": "node", "id": 5443000655, "lat": 57.0149916, "lon": 41.0072298}, {"type": "node", "id": 5443000656, "lat": 57.0149268, "lon": 41.0072332}, {"type": "node", "id": 5443000657, "lat": 57.0149312, "lon": 41.0075139}, {"type": "node", "id": 5443000658, "lat": 57.0146948, "lon": 41.0077207}, {"type": "node", "id": 5443000659, "lat": 57.0146942, "lon": 41.0076864}, {"type": "node", "id": 5443000660, "lat": 57.0145732, "lon": 41.0073793}, {"type": "node", "id": 5443000661, "lat": 57.0145725, "lon": 41.0073349}, {"type": "node", "id": 5443000662, "lat": 57.0147677, "lon": 41.0075686}, {"type": "node", "id": 5443000663, "lat": 57.0147896, "lon": 41.0075674}, {"type": "node", "id": 5443000664, "lat": 57.0146277, "lon": 41.0077243}, {"type": "node", "id": 5443000665, "lat": 57.0146262, "lon": 41.007627}, {"type": "node", "id": 5443000666, "lat": 57.0146345, "lon": 41.007452}, {"type": "node", "id": 5443000667, "lat": 57.0146326, "lon": 41.0073318}, {"type": "node", "id": 5443000668, "lat": 57.0147873, "lon": 41.007423}, {"type": "node", "id": 5443000669, "lat": 57.0149439, "lon": 41.0074354}, {"type": "node", "id": 5443000670, "lat": 57.0149473, "lon": 41.0076504}, {"type": "node", "id": 8427868433, "lat": 57.0159394, "lon": 41.0059052, "tags": {"addr:city": "\u0418\u0432\u0430\u043d\u043e\u0432\u043e", "addr:housenumber": "49", "addr:postcode": "153045", "addr:street": "\u0443\u043b\u0438\u0446\u0430 \u0421\u0432\u043e\u0431\u043e\u0434\u044b", "amenity": "clinic", "name": "\u041f\u043e\u043b\u0438\u043a\u043b\u0438\u043d\u0438\u043a\u0430 \u21169", "operator": "\u041e\u0411\u0423\u0417 \"\u0413\u041a\u0411 \u21164\"", "phone": "+7 4932 938817, +7 4932 346090, +7 4932 938824", "website": "https://4gkb.ru/specialisty-i-otdeleniya/vzroslaya-poliklinika-9/"}}, {"type": "node", "id": 8427868434, "lat": 57.0162662, "lon": 41.0060563, "tags": {"addr:city": "\u0418\u0432\u0430\u043d\u043e\u0432\u043e", "addr:housenumber": "49", "addr:postcode": "153045", "addr:street": "\u0443\u043b\u0438\u0446\u0430 \u0421\u0432\u043e\u0431\u043e\u0434\u044b", "amenity": "clinic", "healthcare:speciality": "paediatrics", "name": "\u0414\u0435\u0442\u0441\u043a\u0430\u044f \u043f\u043e\u043b\u0438\u043a\u043b\u0438\u043d\u0438\u043a\u0430 \u21166", "operator": "\u041e\u0411\u0423\u0417 \"\u0413\u041a\u0411 \u21164\"", "phone": "+7 4932 939725", "website": "https://4gkb.ru/specialisty-i-otdeleniya/detskaya-poliklinika/"}}, {"type": "way", "id": 89352502, "nodes": [1036437214, 1036437273, 1036437251, 1036437322, 1036437214], "tags": {"addr:city": "\u0418\u0432\u0430\u043d\u043e\u0432\u043e", "addr:housenumber": "39\u0410", "addr:street": "\u0443\u043b\u0438\u0446\u0430 \u0421\u0432\u043e\u0431\u043e\u0434\u044b", "building": "apartments"}}, {"type": "way", "id": 89352516, "nodes": [1036437201, 1036437484, 1036437384, 1036437261, 1036437201], "tags": {"addr:housenumber": "117", "addr:postcode": "153045", "addr:street": "\u0443\u043b\u0438\u0446\u0430 \u0428\u0443\u0432\u0430\u043d\u0434\u0438\u043d\u043e\u0439", "building": "apartments"}}, {"type": "way", "id": 89352522, "nodes": [1036437300, 1036437389, 1036437537, 1036437227, 1036437300], "tags": {"addr:city": "\u0418\u0432\u0430\u043d\u043e\u0432\u043e", "addr:housenumber": "42\u0411", "addr:street": "\u0443\u043b\u0438\u0446\u0430 \u041f\u043e\u0431\u0435\u0434\u044b", "building": "apartments"}}, {"type": "way", "id": 109306263, "nodes": [1251698493, 4790479927, 1251698908, 1251699001, 1251699499, 1251698164, 4790479921, 1036437515, 1036437195, 1251698493], "tags": {"addr:city": "\u0418\u0432\u0430\u043d\u043e\u0432\u043e", "addr:housenumber": "41\u0411", "addr:street": "\u0443\u043b\u0438\u0446\u0430 \u0421\u0432\u043e\u0431\u043e\u0434\u044b", "building": "apartments", "building:levels": "5"}}, {"type": "way", "id": 109306266, "nodes": [1251698255, 1251699492, 1251698611, 1251699000, 1251699102, 1251698152, 1251698255], "tags": {"addr:city": "\u0418\u0432\u0430\u043d\u043e\u0432\u043e", "addr:housenumber": "47", "addr:postcode": "153000", "addr:street": "\u0443\u043b\u0438\u0446\u0430 \u0421\u0432\u043e\u0431\u043e\u0434\u044b", "building": "apartments", "building:levels": "9"}}, {"type": "way", "id": 109306324, "nodes": [1251698713, 1251699010, 1251699513, 1251698169, 1251698713], "tags": {"addr:housenumber": "26", "addr:street": "\u0443\u043b\u0438\u0446\u0430 \u041f\u043e\u0431\u0435\u0434\u044b", "building": "apartments"}}, {"type": "way", "id": 109306338, "nodes": [1251699044, 1251698298, 1251698843, 1251699320, 1251699443, 1251698435, 1251699044], "tags": {"addr:housenumber": "115", "addr:street": "\u0443\u043b\u0438\u0446\u0430 \u0428\u0443\u0432\u0430\u043d\u0434\u0438\u043d\u043e\u0439", "building": "apartments"}}, {"type": "way", "id": 109306397, "nodes": [1251698818, 1251698632, 1251698726, 1251699117, 1251699105, 1251698158, 1251698818], "tags": {"addr:housenumber": "56/58", "addr:street": "\u0443\u043b\u0438\u0446\u0430 \u0421\u0432\u043e\u0431\u043e\u0434\u044b", "building": "apartments"}}, {"type": "way", "id": 109306434, "nodes": [1251698519, 1251699109, 1251699270, 1251698273, 1251698519], "tags": {"addr:housenumber": "58", "addr:street": "\u0443\u043b\u0438\u0446\u0430 \u0421\u0432\u043e\u0431\u043e\u0434\u044b", "building": "apartments"}}, {"type": "way", "id": 109306452, "nodes": [1251698642, 1251698407, 1251698833, 1251698947, 1251699432, 1251699549, 1251698642], "tags": {"addr:housenumber": "119", "addr:street": "\u0443\u043b\u0438\u0446\u0430 \u0428\u0443\u0432\u0430\u043d\u0434\u0438\u043d\u043e\u0439", "building": "apartments"}}, {"type": "way", "id": 486429962, "nodes": [4790479922, 4790479923, 1251698616, 4790479924, 4790479922], "tags": {"addr:city": "\u0418\u0432\u0430\u043d\u043e\u0432\u043e", "addr:housenumber": "41\u0410", "addr:street": "\u0443\u043b\u0438\u0446\u0430 \u0421\u0432\u043e\u0431\u043e\u0434\u044b", "building": "apartments"}}, {"type": "way", "id": 486429963, "nodes": [1251698616, 4790479925, 4790479926, 4790479927, 4790479923, 1251698616], "tags": {"addr:city": "\u0418\u0432\u0430\u043d\u043e\u0432\u043e", "addr:housenumber": "41", "addr:street": "\u0443\u043b\u0438\u0446\u0430 \u0421\u0432\u043e\u0431\u043e\u0434\u044b", "building": "apartments", "building:levels": "5"}}, {"type": "way", "id": 486429967, "nodes": [4790479935, 4790479936, 4790479937, 4790479938, 4790479939, 8427868434, 4790479940, 5443000635, 5443000636, 8427868433, 4790479935], "tags": {"addr:city": "\u0418\u0432\u0430\u043d\u043e\u0432\u043e", "addr:housenumber": "49", "addr:street": "\u0443\u043b\u0438\u0446\u0430 \u0421\u0432\u043e\u0431\u043e\u0434\u044b", "building": "apartments", "building:levels": "10"}}, {"type": "way", "id": 486429976, "nodes": [4790479945, 4790479946, 4790479947, 4790479948, 4790479945], "tags": {"addr:city": "\u0418\u0432\u0430\u043d\u043e\u0432\u043e", "addr:housenumber": "43\u0410", "addr:street": "\u0443\u043b\u0438\u0446\u0430 \u0421\u0432\u043e\u0431\u043e\u0434\u044b", "building": "apartments", "building:levels": "5"}}, {"type": "way", "id": 486429977, "nodes": [4790479947, 4790479949, 4790479950, 4790479951, 4790479947], "tags": {"addr:city": "\u0418\u0432\u0430\u043d\u043e\u0432\u043e", "addr:housenumber": "43", "addr:street": "\u0443\u043b\u0438\u0446\u0430 \u0421\u0432\u043e\u0431\u043e\u0434\u044b", "building": "apartments", "building:levels": "5"}}, {"type": "way", "id": 486429978, "nodes": [4790479951, 4790479952, 4790479953, 4790479954, 4790479955, 4790479956, 4790479951], "tags": {"addr:city": "\u0418\u0432\u0430\u043d\u043e\u0432\u043e", "addr:housenumber": "43\u0411", "addr:street": "\u0443\u043b\u0438\u0446\u0430 \u0421\u0432\u043e\u0431\u043e\u0434\u044b", "building": "apartments"}}, {"type": "way", "id": 486439584, "nodes": [4790557005, 4790557006, 5443000644, 5443000643, 5443000642, 5443000641, 5443000652, 5443000650, 5443000645, 5443000646, 5443000647, 5443000648, 5443000649, 5443000651, 4790557007, 5443000657, 5443000656, 5443000655, 5443000654, 5443000653, 4790557005], "tags": {"addr:city": "\u0418\u0432\u0430\u043d\u043e\u0432\u043e", "addr:housenumber": "45\u0410", "addr:street": "\u0443\u043b\u0438\u0446\u0430 \u0421\u0432\u043e\u0431\u043e\u0434\u044b", "building": "apartments"}}, {"type": "way", "id": 486439585, "nodes": [4790557009, 5443000669, 5443000670, 4790557012, 4790557009], "tags": {"addr:city": "\u0418\u0432\u0430\u043d\u043e\u0432\u043e", "addr:housenumber": "45", "addr:street": "\u0443\u043b\u0438\u0446\u0430 \u0421\u0432\u043e\u0431\u043e\u0434\u044b", "building": "apartments"}}, {"type": "way", "id": 486439586, "nodes": [5443000668, 5443000640, 5443000639, 5443000666, 5443000667, 5443000661, 5443000660, 4790557013, 4790557014, 5443000665, 5443000664, 5443000658, 5443000659, 4790557011, 5443000662, 5443000663, 5443000668], "tags": {"addr:city": "\u0418\u0432\u0430\u043d\u043e\u0432\u043e", "addr:housenumber": "45\u0411", "addr:street": "\u0443\u043b\u0438\u0446\u0430 \u0421\u0432\u043e\u0431\u043e\u0434\u044b", "building": "apartments"}}]}