{"version": 0.6, "generator": "Overpass API 0.7.62.1 084b4234", "osm3s": {"timestamp_osm_base": "2024-05-16T19:00:26Z", "copyright": "The data included in this document is from www.openstreetmap.org. The data is made available under ODbL."}, "elements": [{"type": "node", "id": 1113593209, "lat": 55.770209, "lon": 37.5961583, "tags": {"amenity": "restaurant", "brand": "IL \u041f\u0430\u0442\u0438\u043e", "brand:wikidata": "Q4397763", "contact:email": "info@ilpatio.ru", "contact:facebook": "https://www.facebook.com/ilpatio.ru", "contact:instagram": "https://www.instagram.com/ilpatio/", "contact:vk": "https://vk.com/ilpatio_ru", "contact:website": "https://ilpatio.ru/", "cuisine": "italian", "diet:vegetarian": "yes", "internet_access": "wlan", "name": "IL \u041f\u0430\u0442\u0438\u043e", "name:de": "IL Patio", "name:en": "IL Patio", "opening_hours": "Mo-Th 10:00-23:00, Fr 10:00-24:00, Sa 11:00-24:00, Su 11:00-23:00", "operator": "\u0420\u043e\u0441\u0438\u043d\u0442\u0435\u0440", "phone": "+7 965 319-24-20"}}, {"type": "node", "id": 5630658617, "lat": 55.7702277, "lon": 37.5939032, "tags": {"amenity": "restaurant", "contact:phone": "+7 939 8880077", "contact:website": "https://mamajuana-restaurant.ru/", "cuisine": "spanish", "name": "Mama Juana", "opening_hours": "Mo-Th 08:00-23:00; Fr 08:00-24:00; Sa 00:00-03:00,11:00-24:00; Su 00:00-03:00,11:00-23:00"}}]}