{"version": 0.6, "generator": "Overpass API 0.7.62.1 084b4234", "osm3s": {"timestamp_osm_base": "2024-05-13T23:22:56Z", "copyright": "The data included in this document is from www.openstreetmap.org. The data is made available under ODbL."}, "elements": [{"type": "node", "id": 527168636, "lat": 55.5676489, "lon": 37.5738275}, {"type": "node", "id": 527171523, "lat": 55.5676109, "lon": 37.5739945}, {"type": "node", "id": 527171533, "lat": 55.5676878, "lon": 37.5736566}, {"type": "node", "id": 527171568, "lat": 55.5674809, "lon": 37.5735093}, {"type": "node", "id": 527171574, "lat": 55.567404, "lon": 37.5738472}, {"type": "node", "id": 527345235, "lat": 55.5674376, "lon": 37.5736985}, {"type": "way", "id": 42268720, "nodes": [527171523, 527168636, 527171533, 527171568, 527345235, 527171574, 527171523], "tags": {"addr:city": "\u041c\u043e\u0441\u043a\u0432\u0430", "addr:country": "RU", "addr:housenumber": "8 \u043a1", "addr:region": "\u041c\u043e\u0441\u043a\u0432\u0430", "addr:street": "\u0431\u0443\u043b\u044c\u0432\u0430\u0440 \u0414\u043c\u0438\u0442\u0440\u0438\u044f \u0414\u043e\u043d\u0441\u043a\u043e\u0433\u043e", "building": "retail", "building:colour": "grey;beige", "building:levels": "2", "building:material": "porcelain_stoneware", "name": "\u0422\u043e\u0440\u0433\u043e\u0432\u044b\u0439 \u0446\u0435\u043d\u0442\u0440 \"\u041a\u043b\u0438\u0444\u0444\u0441\u0442\u043e\u0440\"", "name:uk": "\u0422\u043e\u0440\u0433\u043e\u0432\u0438\u0439 \u0446\u0435\u043d\u0442\u0440 \"\u041a\u043b\u0456\u0444\u0444\u0441\u0442\u043e\u0440\"", "opening_hours": "Mo-Sa 10:00-21:00", "roof:colour": "grey", "roof:material": "tar_paper", "roof:shape": "flat", "shop": "mall", "website": "https://cliffstore.ru/"}}]}