{"version": 0.6, "generator": "Overpass API 0.7.62.1 084b4234", "osm3s": {"timestamp_osm_base": "2024-05-16T20:00:15Z", "copyright": "The data included in this document is from www.openstreetmap.org. The data is made available under ODbL."}, "elements": [{"type": "node", "id": 1264655038, "lat": 54.6299106, "lon": 39.7102212, "tags": {"addr:country": "RU", "amenity": "fast_food", "brand": "\u041c\u0430\u043a\u0434\u043e\u043d\u0430\u043b\u0434\u0441", "brand:en": "McDonald's", "brand:ru": "\u041c\u0430\u043a\u0434\u043e\u043d\u0430\u043b\u0434\u0441", "brand:wikidata": "Q38076", "brand:wikipedia": "en:McDonald's", "contact:email": "info@ru.mcd.com", "contact:facebook": "https://www.facebook.com/mcdonaldsrussia", "contact:instagram": "https://www.instagram.com/mcdonalds_rus/", "contact:phone": "+7 491 2500351", "contact:vk": "https://vk.com/mcdonaldsrussia", "contact:website": "https://mcdonalds.ru", "contact:youtube": "https://www.youtube.com/user/McDonaldsRussia", "cuisine": "burger", "diet:vegetarian": "no", "int_name": "McDonald's", "name": "\u0412\u043a\u0443\u0441\u043d\u043e \u0438 \u0442\u043e\u0447\u043a\u0430", "name:de": "McDonald's", "name:en": "McDonald's", "name:ru": "\u041c\u0430\u043a\u0434\u043e\u043d\u0430\u043b\u0434\u0441", "opening_hours": "Mo-Su 06:30-24:00", "operator": "\u041c\u0430\u043a\u0434\u043e\u043d\u0430\u043b\u0434\u0441", "operator:en": "McDonald's", "operator:ru": "\u041c\u0430\u043a\u0434\u043e\u043d\u0430\u043b\u0434\u0441", "smoking": "no", "takeaway": "yes", "wheelchair": "no"}}, {"type": "node", "id": 9919204977, "lat": 54.6296519, "lon": 39.7096351, "tags": {"amenity": "fast_food", "contact:phone": "+7 341 2908292;+7 800 3334130", "contact:website": "https://coffee-like.com/", "cuisine": "coffee_shop", "name": "Coffee Like", "opening_hours": "Mo-Su 09:00-22:00"}}, {"type": "node", "id": 9929155080, "lat": 54.6297157, "lon": 39.7111099, "tags": {"alt_name": "Kentucky Fried Chicken", "amenity": "fast_food", "brand": "KFC", "brand:wikidata": "Q524757", "brand:wikipedia": "en:KFC", "cuisine": "chicken", "name": "KFC", "opening_hours": "Mo-Su 08:00-00:00", "takeaway": "yes"}}]}