{"version": 0.6, "generator": "Overpass API 0.7.62.1 084b4234", "osm3s": {"timestamp_osm_base": "2024-05-14T13:33:05Z", "copyright": "The data included in this document is from www.openstreetmap.org. The data is made available under ODbL."}, "elements": [{"type": "node", "id": 2452766624, "lat": 55.8092662, "lon": 37.4646415, "tags": {"amenity": "cafe", "contact:website": "http://www.koffein.ru", "cuisine": "coffee_shop", "name": "\u041a\u043e\u0444\u0435\u0438\u043d", "name:en": "Koffein", "opening_hours": "Mo-Su 10:00-22:00"}}, {"type": "node", "id": 4282415513, "lat": 55.8093317, "lon": 37.464309, "tags": {"amenity": "cafe", "name": "Menza", "name:en": "Menza"}}, {"type": "node", "id": 5066993977, "lat": 55.8093903, "lon": 37.4638835, "tags": {"amenity": "cafe", "brand": "Cofix", "brand:en": "Cofix", "brand:he": "\u05e7\u05e4\u05d5\u05d9\u05e7\u05e1", "brand:wikidata": "Q16132717", "brand:wikipedia": "he:\u05e7\u05d5\u05e4\u05d9\u05e7\u05e1", "contact:email": "info@cofix.ru", "contact:facebook": "https://www.facebook.com/cofixrussia", "contact:instagram": "https://www.instagram.com/cofixrussia", "contact:phone": "+7 800 3508418", "contact:vk": "https://vk.com/cofixrussia", "contact:website": "https://www.cofix.global", "cuisine": "coffee_shop", "delivery": "no", "name": "Cofix", "name:en": "Cofix", "name:he": "\u05e7\u05d5\u05e4\u05d9\u05e7\u05e1", "opening_hours": "Mo-Su 10:00-22:00", "takeaway": "only"}}, {"type": "node", "id": 5720245356, "lat": 55.8094361, "lon": 37.4639744, "tags": {"amenity": "cafe", "brand": "\u0428\u043e\u043a\u043e\u043b\u0430\u0434\u043d\u0438\u0446\u0430", "brand:en": "Chocolate", "brand:wikidata": "Q30891188", "brand:wikipedia": "ru:\u0428\u043e\u043a\u043e\u043b\u0430\u0434\u043d\u0438\u0446\u0430 (\u0441\u0435\u0442\u044c \u043a\u043e\u0444\u0435\u0435\u043d)", "contact:phone": "+7 926 6412806", "contact:website": "https://shoko.ru/", "cuisine": "coffee_shop", "name": "\u0428\u043e\u043a\u043e\u043b\u0430\u0434\u043d\u0438\u0446\u0430", "name:en": "Shokoladnitsa", "opening_hours": "Mo-Su 10:00-22:00", "takeaway": "yes"}}, {"type": "node", "id": 5934661803, "lat": 55.8094687, "lon": 37.464571, "tags": {"amenity": "cafe", "contact:email": "uk@takeandwake.ru", "contact:phone": "+7 800 7073549", "contact:vk": "https://vk.com/takeandwake", "contact:website": "http://www.mrcroissant.ru", "name": "Mr. croissant", "opening_hours": "Mo-Su 10:00-22:00", "operator": "\u0418\u043c\u043f\u0435\u0440\u0438\u044f \u043a\u043e\u0444\u0435", "ref": "\u0422\u0426 \u0429\u0443\u043a\u0430"}}]}