{"version": 0.6, "generator": "Overpass API 0.7.62.1 084b4234", "osm3s": {"timestamp_osm_base": "2024-05-13T23:11:50Z", "copyright": "The data included in this document is from www.openstreetmap.org. The data is made available under ODbL."}, "elements": [{"type": "node", "id": 2750475980, "lat": 55.7940729, "lon": 49.1487798, "tags": {"amenity": "restaurant", "name": "Evoo"}}, {"type": "node", "id": 2750475984, "lat": 55.7942662, "lon": 49.148557, "tags": {"amenity": "restaurant", "contact:email": "extraproject@yandex.ru", "contact:phone": "+7 987 2264600", "contact:website": "https://extraproject.ru/extralounge", "name": "Extra Lounge", "opening_hours": "Fr-Sa 12:00-03:00; Mo-Th,Su 12:00-24:00"}}, {"type": "node", "id": 2750475987, "lat": 55.7939834, "lon": 49.1489007, "tags": {"amenity": "restaurant", "name": "Le Buffet"}}, {"type": "node", "id": 8506554317, "lat": 55.793418, "lon": 49.1510386, "tags": {"amenity": "restaurant", "cuisine": "indian", "name": "Bollywood 33"}}, {"type": "node", "id": 11169395767, "lat": 55.7933729, "lon": 49.1504717, "tags": {"amenity": "restaurant", "contact:phone": "+7 987 2264600", "contact:website": "https://extraproject.ru/vinoinebo", "name": "\u0412\u0438\u043d\u043e \u0438 \u043d\u0435\u0431\u043e", "opening_hours": "Mo-Su 12:00-23:00"}}, {"type": "node", "id": 11766202954, "lat": 55.7934257, "lon": 49.1503052, "tags": {"amenity": "restaurant", "contact:email": "extraproject25@gmail.com", "contact:phone": "+7 987 2264600", "contact:website": "https://korston.ru/kazan/restaurants/sunrise/", "name": "Sunrise", "opening_hours": "Fr-Sa 18:00-03:00; Mo-Th,Su 18:00-00:00"}}]}