{"version": 0.6, "generator": "Overpass API 0.7.62.1 084b4234", "osm3s": {"timestamp_osm_base": "2024-05-17T17:15:45Z", "copyright": "The data included in this document is from www.openstreetmap.org. The data is made available under ODbL."}, "elements": [{"type": "node", "id": 8476471418, "lat": 55.6787171, "lon": 37.5605451, "tags": {"amenity": "pharmacy", "brand": "\u0420\u0438\u0433\u043b\u0430", "brand:wikidata": "Q4394431", "brand:wikipedia": "ru:\u0420\u0438\u0433\u043b\u0430", "contact:email": "info@rigla.ru", "contact:facebook": "https://www.facebook.com/rigla.ru", "contact:instagram": "https://www.instagram.com/rigla.ru", "contact:ok": "https://ok.ru/rigla.ru", "contact:vk": "https://vk.com/rigla_ru", "contact:website": "https://www.rigla.ru", "contact:youtube": "https://www.youtube.com/user/RiglaVideo", "healthcare": "pharmacy", "name": "\u0420\u0438\u0433\u043b\u0430", "name:ru": "\u0420\u0438\u0433\u043b\u0430", "name:uk": "\u0420\u0438\u0433\u043b\u0430", "opening_hours": "Mo-Fr 08:00-22:00; Sa-Su 10:00-22:00"}}, {"type": "node", "id": 11696860181, "lat": 55.6783206, "lon": 37.5612195, "tags": {"amenity": "pharmacy", "contact:phone": "+7 499 6536277", "contact:website": "https://gorzdrav.org", "healthcare": "pharmacy", "name": "\u0413\u043e\u0440\u0437\u0434\u0440\u0430\u0432", "opening_hours": "Mo-Fr 08:00-22:00; Sa-Su 09:00-22:00"}}]}