{"version": 0.6, "generator": "Overpass API 0.7.62.1 084b4234", "osm3s": {"timestamp_osm_base": "2024-05-18T00:29:28Z", "copyright": "The data included in this document is from www.openstreetmap.org. The data is made available under ODbL."}, "elements": [{"type": "node", "id": 297532785, "lat": 55.5835956, "lon": 37.5951856}, {"type": "node", "id": 297532786, "lat": 55.5840441, "lon": 37.5962953}, {"type": "node", "id": 297532787, "lat": 55.5841142, "lon": 37.5962066}, {"type": "node", "id": 297532788, "lat": 55.5841618, "lon": 37.5963243}, {"type": "node", "id": 297532789, "lat": 55.5847905, "lon": 37.5955288}, {"type": "node", "id": 297532790, "lat": 55.5847376, "lon": 37.5953979}, {"type": "node", "id": 297532791, "lat": 55.5841183, "lon": 37.5961814}, {"type": "node", "id": 297532792, "lat": 55.5836752, "lon": 37.5950849}, {"type": "node", "id": 297533664, "lat": 55.5849094, "lon": 37.5955985}, {"type": "node", "id": 297533665, "lat": 55.5853616, "lon": 37.5967091}, {"type": "node", "id": 297533666, "lat": 55.5854219, "lon": 37.5966323}, {"type": "node", "id": 297533668, "lat": 55.5860865, "lon": 37.5959464}, {"type": "node", "id": 297533889, "lat": 55.5854651, "lon": 37.5967384}, {"type": "node", "id": 297533890, "lat": 55.5860176, "lon": 37.5957773}, {"type": "node", "id": 297533891, "lat": 55.5854252, "lon": 37.5965325}, {"type": "node", "id": 297533893, "lat": 55.5849986, "lon": 37.5954848}, {"type": "node", "id": 297534402, "lat": 55.5816788, "lon": 37.5983202}, {"type": "node", "id": 297534404, "lat": 55.582143, "lon": 37.5985744}, {"type": "node", "id": 297534406, "lat": 55.5825796, "lon": 37.5989435}, {"type": "node", "id": 297534407, "lat": 55.5829884, "lon": 37.5994168}, {"type": "node", "id": 297534443, "lat": 55.5833505, "lon": 37.5999283}, {"type": "node", "id": 297534444, "lat": 55.5834334, "lon": 37.5997417}, {"type": "node", "id": 297534447, "lat": 55.5830724, "lon": 37.5992404}, {"type": "node", "id": 297534448, "lat": 55.5826524, "lon": 37.598746}, {"type": "node", "id": 297534450, "lat": 55.582202, "lon": 37.5983816}, {"type": "node", "id": 297534452, "lat": 55.5817049, "lon": 37.5981069}, {"type": "node", "id": 1130835600, "lat": 55.583224, "lon": 37.6025498}, {"type": "node", "id": 1130835603, "lat": 55.5831269, "lon": 37.6027161}, {"type": "node", "id": 1130835604, "lat": 55.5827725, "lon": 37.6020562}, {"type": "node", "id": 1130835605, "lat": 55.5828662, "lon": 37.6018957}, {"type": "node", "id": 3371092810, "lat": 55.5827734, "lon": 37.6023624}, {"type": "node", "id": 3371092812, "lat": 55.5828189, "lon": 37.6024456}, {"type": "node", "id": 3371092814, "lat": 55.5828594, "lon": 37.6022151}, {"type": "node", "id": 3371092816, "lat": 55.5829015, "lon": 37.6023041}, {"type": "node", "id": 3431213495, "lat": 55.5824362, "lon": 37.598571}, {"type": "node", "id": 3431213496, "lat": 55.5823831, "lon": 37.5987774}, {"type": "node", "id": 5383646685, "lat": 55.5852556, "lon": 37.6023481}, {"type": "node", "id": 5383646686, "lat": 55.5848744, "lon": 37.6020136}, {"type": "node", "id": 5383646687, "lat": 55.5849419, "lon": 37.6017729}, {"type": "node", "id": 5383646688, "lat": 55.5853231, "lon": 37.6021074}, {"type": "node", "id": 5383646689, "lat": 55.5855005, "lon": 37.6014724}, {"type": "node", "id": 5383646690, "lat": 55.5851251, "lon": 37.601143}, {"type": "node", "id": 5383646691, "lat": 55.5851903, "lon": 37.6009104}, {"type": "node", "id": 5383646692, "lat": 55.5855657, "lon": 37.6012398}, {"type": "node", "id": 7004842277, "lat": 55.5829685, "lon": 37.6020827, "tags": {"access": "private", "entrance": "home"}}, {"type": "node", "id": 7004842278, "lat": 55.5828186, "lon": 37.6019772}, {"type": "node", "id": 9052585829, "lat": 55.5851302, "lon": 37.6022381, "tags": {"entrance": "yes"}}, {"type": "node", "id": 9052585831, "lat": 55.5851849, "lon": 37.6022861, "tags": {"entrance": "yes"}}, {"type": "node", "id": 9221679820, "lat": 55.5849738, "lon": 37.6021009, "tags": {"entrance": "yes"}}, {"type": "node", "id": 10226042123, "lat": 55.585065, "lon": 37.6021809, "tags": {"access": "private", "addr:flats": "1-240", "entrance": "staircase", "ref": "1"}}, {"type": "node", "id": 10226042124, "lat": 55.5851325, "lon": 37.6019402, "tags": {"access": "private", "addr:flats": "1-240", "entrance": "staircase", "ref": "1"}}, {"type": "node", "id": 10226042125, "lat": 55.5853128, "lon": 37.6013077, "tags": {"access": "private", "addr:flats": "1-192", "entrance": "staircase", "ref": "1"}}, {"type": "node", "id": 10226042126, "lat": 55.585378, "lon": 37.6010751, "tags": {"access": "private", "addr:flats": "1-192", "entrance": "staircase", "ref": "1"}}, {"type": "way", "id": 27118907, "nodes": [297532785, 297532786, 297532787, 297532788, 297532789, 297532790, 297532791, 297532792, 297532785], "tags": {"addr:housenumber": "158 \u043a2", "addr:street": "\u0412\u0430\u0440\u0448\u0430\u0432\u0441\u043a\u043e\u0435 \u0448\u043e\u0441\u0441\u0435", "building": "apartments", "building:colour": "white;blue", "building:flats": "441", "building:levels": "16", "design:ref": "\u041f-44", "start_date": "1982"}}, {"type": "way", "id": 27119018, "nodes": [297533664, 297533665, 297533666, 297533889, 297533668, 297533890, 297533891, 297533893, 297533664], "tags": {"addr:city": "\u041c\u043e\u0441\u043a\u0432\u0430", "addr:country": "RU", "addr:housenumber": "158 \u043a1", "addr:region": "\u041c\u043e\u0441\u043a\u0432\u0430", "addr:street": "\u0412\u0430\u0440\u0448\u0430\u0432\u0441\u043a\u043e\u0435 \u0448\u043e\u0441\u0441\u0435", "building": "apartments", "building:colour": "white;blue", "building:flats": "431", "building:levels": "16", "design:ref": "\u041f-44", "start_date": "1982"}}, {"type": "way", "id": 97674345, "nodes": [3371092812, 3371092810, 3371092814, 1130835604, 7004842278, 1130835605, 7004842277, 1130835600, 1130835603, 3371092816, 3371092812], "tags": {"addr:city": "\u041c\u043e\u0441\u043a\u0432\u0430", "addr:housenumber": "143 \u043a7", "addr:postcode": "117405", "addr:street": "\u0412\u0430\u0440\u0448\u0430\u0432\u0441\u043a\u043e\u0435 \u0448\u043e\u0441\u0441\u0435", "building": "apartments", "building:flats": "239", "building:levels": "16", "description": "\u041e\u0431\u0449\u0435\u0436\u0438\u0442\u0438\u0435", "design:ref": "\u0418-III-3", "start_date": "1993"}}, {"type": "way", "id": 277038305, "nodes": [297534407, 297534447, 297534444, 297534443, 297534407], "tags": {"addr:city": "\u041c\u043e\u0441\u043a\u0432\u0430", "addr:country": "RU", "addr:housenumber": "143 \u043a1", "addr:region": "\u041c\u043e\u0441\u043a\u0432\u0430", "addr:street": "\u0412\u0430\u0440\u0448\u0430\u0432\u0441\u043a\u043e\u0435 \u0448\u043e\u0441\u0441\u0435", "building": "apartments", "building:colour": "grey;white", "building:flats": "126", "building:levels": "16", "design:ref": "\u041f3-2/16", "start_date": "1979"}}, {"type": "way", "id": 277038306, "nodes": [297534406, 297534407, 297534447, 297534448, 297534406], "tags": {"addr:city": "\u041c\u043e\u0441\u043a\u0432\u0430", "addr:country": "RU", "addr:housenumber": "143 \u043a2", "addr:region": "\u041c\u043e\u0441\u043a\u0432\u0430", "addr:street": "\u0412\u0430\u0440\u0448\u0430\u0432\u0441\u043a\u043e\u0435 \u0448\u043e\u0441\u0441\u0435", "building": "apartments", "building:colour": "grey;white", "building:flats": "127", "building:levels": "16", "design:ref": "\u041f3-2/16", "start_date": "1978"}}, {"type": "way", "id": 277038307, "nodes": [297534450, 297534404, 3431213496, 297534406, 297534448, 3431213495, 297534450], "tags": {"addr:city": "\u041c\u043e\u0441\u043a\u0432\u0430", "addr:country": "RU", "addr:housenumber": "143 \u043a3", "addr:region": "\u041c\u043e\u0441\u043a\u0432\u0430", "addr:street": "\u0412\u0430\u0440\u0448\u0430\u0432\u0441\u043a\u043e\u0435 \u0448\u043e\u0441\u0441\u0435", "building": "apartments", "building:colour": "grey;white", "building:flats": "128", "building:levels": "16", "design:ref": "\u041f3-2/16", "start_date": "1978"}}, {"type": "way", "id": 277038308, "nodes": [297534402, 297534404, 297534450, 297534452, 297534402], "tags": {"addr:city": "\u041c\u043e\u0441\u043a\u0432\u0430", "addr:country": "RU", "addr:housenumber": "143 \u043a4", "addr:region": "\u041c\u043e\u0441\u043a\u0432\u0430", "addr:street": "\u0412\u0430\u0440\u0448\u0430\u0432\u0441\u043a\u043e\u0435 \u0448\u043e\u0441\u0441\u0435", "building": "apartments", "building:colour": "grey;white", "building:flats": "127", "building:levels": "16", "design:ref": "\u041f3-2/16", "start_date": "1978"}}, {"type": "way", "id": 558305649, "nodes": [5383646685, 9052585831, 9052585829, 10226042123, 9221679820, 5383646686, 5383646687, 10226042124, 5383646688, 5383646685], "tags": {"addr:city": "\u041c\u043e\u0441\u043a\u0432\u0430", "addr:housenumber": "141\u0410 \u043a2", "addr:postcode": "117405", "addr:street": "\u0412\u0430\u0440\u0448\u0430\u0432\u0441\u043a\u043e\u0435 \u0448\u043e\u0441\u0441\u0435", "building": "apartments", "building:colour": "orange", "building:flats": "240", "building:levels": "25", "building:material": "brick", "description": "\u0421\u0442\u0440\u043e\u0435\u043d\u0438\u0435 2", "design:ref": "\u0421\u042d\u041c2", "roof:colour": "grey", "roof:material": "tar_paper", "roof:shape": "flat", "start_date": "2018-09-28"}}, {"type": "way", "id": 558305650, "nodes": [5383646689, 10226042125, 5383646690, 5383646691, 10226042126, 5383646692, 5383646689], "tags": {"addr:city": "\u041c\u043e\u0441\u043a\u0432\u0430", "addr:housenumber": "141\u0410 \u043a1", "addr:postcode": "117405", "addr:street": "\u0412\u0430\u0440\u0448\u0430\u0432\u0441\u043a\u043e\u0435 \u0448\u043e\u0441\u0441\u0435", "building": "apartments", "building:colour": "orange", "building:flats": "192", "building:levels": "25", "building:material": "brick", "description": "\u0421\u0442\u0440\u043e\u0435\u043d\u0438\u0435 1", "design:ref": "\u0421\u042d\u041c2", "roof:colour": "grey", "roof:material": "tar_paper", "roof:shape": "flat", "start_date": "2018-09-28"}}]}