{"version": 0.6, "generator": "Overpass API 0.7.62.1 084b4234", "osm3s": {"timestamp_osm_base": "2024-05-17T00:18:15Z", "copyright": "The data included in this document is from www.openstreetmap.org. The data is made available under ODbL."}, "elements": [{"type": "node", "id": 1086224142, "lat": 56.4660473, "lon": 84.9817879, "tags": {"railway": "switch"}}, {"type": "node", "id": 1086224389, "lat": 56.4660506, "lon": 84.9818475, "tags": {"railway": "switch"}}, {"type": "node", "id": 1119773476, "lat": 56.4657396, "lon": 84.9818894}, {"type": "node", "id": 1119773479, "lat": 56.4548046, "lon": 84.9764485}, {"type": "node", "id": 1119773491, "lat": 56.4658857, "lon": 84.9817902}, {"type": "node", "id": 1119773493, "lat": 56.4546618, "lon": 84.9765987, "tags": {"name": "\u0422\u0440\u0430\u043d\u0441\u043f\u043e\u0440\u0442\u043d\u043e\u0435 \u043a\u043e\u043b\u044c\u0446\u043e", "name:en": "Transportnoye Koltso", "name:ru": "\u0422\u0440\u0430\u043d\u0441\u043f\u043e\u0440\u0442\u043d\u043e\u0435 \u043a\u043e\u043b\u044c\u0446\u043e", "public_transport": "stop_position", "railway": "tram_stop", "tram": "yes"}}, {"type": "node", "id": 1119773494, "lat": 56.4593272, "lon": 84.9839985, "tags": {"name": "\u0423\u043b\u0438\u0446\u0430 \u0410\u0440\u0442\u0451\u043c\u0430", "name:en": "Ulitsa Artyoma", "name:ru": "\u0423\u043b\u0438\u0446\u0430 \u0410\u0440\u0442\u0451\u043c\u0430", "public_transport": "stop_position", "railway": "tram_stop", "tram": "yes"}}, {"type": "node", "id": 1119773497, "lat": 56.4619162, "lon": 84.9885628}, {"type": "node", "id": 1119773499, "lat": 56.4529457, "lon": 84.9786099, "tags": {"name": "\u042e\u0436\u043d\u0430\u044f \u043f\u043b\u043e\u0449\u0430\u0434\u044c", "name:en": "Yuzhnaya Ploschad", "name:ru": "\u042e\u0436\u043d\u0430\u044f \u043f\u043b\u043e\u0449\u0430\u0434\u044c", "public_transport": "stop_position", "railway": "tram_stop", "tram": "yes"}}, {"type": "node", "id": 1119773501, "lat": 56.4613928, "lon": 84.9879354, "tags": {"name": "\u0412\u043e\u043a\u0437\u0430\u043b \u0422\u043e\u043c\u0441\u043a I", "name:en": "Vokzal Tomsk Pervy", "name:ru": "\u0412\u043e\u043a\u0437\u0430\u043b \u0422\u043e\u043c\u0441\u043a I", "public_transport": "stop_position", "railway": "tram_stop", "tram": "yes"}}, {"type": "node", "id": 1119773502, "lat": 56.4658862, "lon": 84.9818623}, {"type": "node", "id": 1119773503, "lat": 56.4615396, "lon": 84.988312, "tags": {"name": "\u0412\u043e\u043a\u0437\u0430\u043b \u0422\u043e\u043c\u0441\u043a I", "name:en": "Vokzal Tomsk Pervy", "name:ru": "\u0412\u043e\u043a\u0437\u0430\u043b \u0422\u043e\u043c\u0441\u043a I", "public_transport": "stop_position", "railway": "tram_stop", "tram": "yes"}}, {"type": "node", "id": 1119773505, "lat": 56.4533055, "lon": 84.9782531, "tags": {"railway": "switch"}}, {"type": "node", "id": 1119773507, "lat": 56.4615675, "lon": 84.9882699}, {"type": "node", "id": 1119773508, "lat": 56.4657717, "lon": 84.9819455}, {"type": "node", "id": 1119773510, "lat": 56.458946, "lon": 84.9833721, "tags": {"name": "\u0423\u043b\u0438\u0446\u0430 \u0410\u0440\u0442\u0451\u043c\u0430", "name:en": "Ulitsa Artyoma", "name:ru": "\u0423\u043b\u0438\u0446\u0430 \u0410\u0440\u0442\u0451\u043c\u0430", "public_transport": "stop_position", "railway": "tram_stop", "tram": "yes"}}, {"type": "node", "id": 1119773512, "lat": 56.4546445, "lon": 84.9765525, "tags": {"name": "\u0422\u0440\u0430\u043d\u0441\u043f\u043e\u0440\u0442\u043d\u043e\u0435 \u043a\u043e\u043b\u044c\u0446\u043e", "name:en": "Transportnoye Koltso", "name:ru": "\u0422\u0440\u0430\u043d\u0441\u043f\u043e\u0440\u0442\u043d\u043e\u0435 \u043a\u043e\u043b\u044c\u0446\u043e", "public_transport": "stop_position", "railway": "tram_stop", "tram": "yes"}}, {"type": "node", "id": 1119773516, "lat": 56.4618861, "lon": 84.9885007}, {"type": "node", "id": 1119773517, "lat": 56.465299, "lon": 84.9827587}, {"type": "node", "id": 1119773520, "lat": 56.4547892, "lon": 84.9763893}, {"type": "node", "id": 1119773526, "lat": 56.4652765, "lon": 84.9826967}, {"type": "node", "id": 1119773528, "lat": 56.4549914, "lon": 84.9763657}, {"type": "node", "id": 1119773529, "lat": 56.4549864, "lon": 84.976308}, {"type": "node", "id": 1119773530, "lat": 56.4556542, "lon": 84.9770152}, {"type": "node", "id": 1203058094, "lat": 56.4639763, "lon": 84.9850332, "tags": {"railway": "tram_level_crossing"}}, {"type": "node", "id": 1203058139, "lat": 56.4617511, "lon": 84.9884937, "tags": {"railway": "tram_level_crossing"}}, {"type": "node", "id": 1203058159, "lat": 56.4617801, "lon": 84.9885952}, {"type": "node", "id": 1203058225, "lat": 56.4617982, "lon": 84.988514}, {"type": "node", "id": 1203058234, "lat": 56.4620876, "lon": 84.9882294, "tags": {"railway": "tram_crossing"}}, {"type": "node", "id": 1203058247, "lat": 56.461972, "lon": 84.9885039, "tags": {"railway": "tram_level_crossing"}}, {"type": "node", "id": 1203058443, "lat": 56.461848, "lon": 84.9885146}, {"type": "node", "id": 1203058661, "lat": 56.4621109, "lon": 84.9882756, "tags": {"railway": "tram_crossing"}}, {"type": "node", "id": 1203058844, "lat": 56.4636754, "lon": 84.9854696, "tags": {"railway": "tram_level_crossing"}}, {"type": "node", "id": 1203058864, "lat": 56.4616533, "lon": 84.9883989, "tags": {"railway": "tram_crossing"}}, {"type": "node", "id": 1203058993, "lat": 56.4617132, "lon": 84.9885586, "tags": {"railway": "tram_level_crossing"}}, {"type": "node", "id": 1203059051, "lat": 56.4639566, "lon": 84.9849791, "tags": {"railway": "tram_level_crossing"}}, {"type": "node", "id": 1203059102, "lat": 56.4618496, "lon": 84.9885976}, {"type": "node", "id": 1203059183, "lat": 56.4619417, "lon": 84.9884458, "tags": {"railway": "tram_level_crossing"}}, {"type": "node", "id": 1203059194, "lat": 56.4637031, "lon": 84.9855058, "tags": {"railway": "tram_level_crossing"}}, {"type": "node", "id": 1244308501, "lat": 56.4582073, "lon": 84.9819693, "tags": {"railway": "tram_level_crossing"}}, {"type": "node", "id": 1244308515, "lat": 56.4582354, "lon": 84.9819211, "tags": {"railway": "tram_level_crossing"}}, {"type": "node", "id": 1258977083, "lat": 56.4615953, "lon": 84.9884247}, {"type": "node", "id": 1258977093, "lat": 56.4552979, "lon": 84.9764434}, {"type": "node", "id": 1258977102, "lat": 56.4561219, "lon": 84.9778853, "tags": {"railway": "tram_crossing"}}, {"type": "node", "id": 1258977103, "lat": 56.4556416, "lon": 84.9770556}, {"type": "node", "id": 1258977107, "lat": 56.4551941, "lon": 84.97641, "tags": {"railway": "tram_crossing"}}, {"type": "node", "id": 1258977108, "lat": 56.4552965, "lon": 84.9764977}, {"type": "node", "id": 1258977110, "lat": 56.4552007, "lon": 84.9763679, "tags": {"railway": "tram_crossing"}}, {"type": "node", "id": 1501167793, "lat": 56.46022, "lon": 84.9857978, "tags": {"railway": "tram_level_crossing"}}, {"type": "node", "id": 1501167794, "lat": 56.4602487, "lon": 84.9857469, "tags": {"railway": "tram_level_crossing"}}, {"type": "node", "id": 1534861692, "lat": 56.4659498, "lon": 84.9817851, "tags": {"railway": "tram_level_crossing"}}, {"type": "node", "id": 1534861693, "lat": 56.4659514, "lon": 84.9818447, "tags": {"railway": "tram_level_crossing"}}, {"type": "node", "id": 1785561798, "lat": 56.4535208, "lon": 84.9779898, "tags": {"railway": "tram_level_crossing"}}, {"type": "node", "id": 1785561801, "lat": 56.4535009, "lon": 84.9779351, "tags": {"railway": "tram_level_crossing"}}, {"type": "node", "id": 2361132767, "lat": 56.4636301, "lon": 84.9856328, "tags": {"railway": "tram_crossing"}}, {"type": "node", "id": 2361132771, "lat": 56.4636068, "lon": 84.9855889, "tags": {"railway": "tram_crossing"}}, {"type": "node", "id": 3365186492, "lat": 56.4616313, "lon": 84.9884795, "tags": {"railway": "tram_crossing"}}, {"type": "node", "id": 3365187095, "lat": 56.4619948, "lon": 84.9883727}, {"type": "node", "id": 3365187096, "lat": 56.462017, "lon": 84.9884272}, {"type": "node", "id": 3408638512, "lat": 56.4575198, "lon": 84.9806561, "tags": {"railway": "tram_level_crossing"}}, {"type": "node", "id": 3408638513, "lat": 56.4575456, "lon": 84.9806091, "tags": {"railway": "tram_level_crossing"}}, {"type": "node", "id": 3408638523, "lat": 56.4592122, "lon": 84.9838789, "tags": {"railway": "tram_crossing"}}, {"type": "node", "id": 3408638526, "lat": 56.4592386, "lon": 84.9838299, "tags": {"railway": "tram_crossing"}}, {"type": "node", "id": 3416114250, "lat": 56.4649508, "lon": 84.9832623, "tags": {"railway": "tram_level_crossing"}}, {"type": "node", "id": 3416114251, "lat": 56.464978, "lon": 84.9833146, "tags": {"railway": "tram_level_crossing"}}, {"type": "node", "id": 3420466950, "lat": 56.4548846, "lon": 84.9763309}, {"type": "node", "id": 3420466951, "lat": 56.4548955, "lon": 84.9763847}, {"type": "node", "id": 3420466955, "lat": 56.4550937, "lon": 84.9763704}, {"type": "node", "id": 3420466957, "lat": 56.4550989, "lon": 84.9763229}, {"type": "node", "id": 3420466967, "lat": 56.4553638, "lon": 84.9765789}, {"type": "node", "id": 3420466969, "lat": 56.4553699, "lon": 84.9765203}, {"type": "node", "id": 3501530147, "lat": 56.4529575, "lon": 84.9795828, "tags": {"railway": "switch"}}, {"type": "node", "id": 3501530149, "lat": 56.4529464, "lon": 84.9792375}, {"type": "node", "id": 3501530151, "lat": 56.4529749, "lon": 84.9788256}, {"type": "node", "id": 3501530156, "lat": 56.4530142, "lon": 84.9786323}, {"type": "node", "id": 3501530157, "lat": 56.4530378, "lon": 84.9785024, "tags": {"railway": "switch"}}, {"type": "node", "id": 3501530160, "lat": 56.4531033, "lon": 84.9784948, "tags": {"railway": "switch"}}, {"type": "node", "id": 3502153404, "lat": 56.456033, "lon": 84.9778186}, {"type": "node", "id": 4056513269, "lat": 56.453965, "lon": 84.9773842}, {"type": "node", "id": 4056513270, "lat": 56.4539841, "lon": 84.9774333}, {"type": "node", "id": 4056513275, "lat": 56.4532503, "lon": 84.9783124}, {"type": "node", "id": 4056513276, "lat": 56.45324, "lon": 84.9782499}, {"type": "node", "id": 4056576853, "lat": 56.4554682, "lon": 84.9766761}, {"type": "node", "id": 4056576854, "lat": 56.455436, "lon": 84.9766922}, {"type": "node", "id": 4440933767, "lat": 56.4546201, "lon": 84.9765851, "tags": {"railway": "tram_crossing"}}, {"type": "node", "id": 4440933768, "lat": 56.4546342, "lon": 84.9766283, "tags": {"railway": "tram_crossing"}}, {"type": "node", "id": 4554212692, "lat": 56.4565429, "lon": 84.978786, "tags": {"crossing:signals": "yes", "railway": "tram_level_crossing"}}, {"type": "node", "id": 4554212693, "lat": 56.456571, "lon": 84.978739, "tags": {"crossing:signals": "yes", "railway": "tram_level_crossing"}}, {"type": "node", "id": 5768369985, "lat": 56.4554206, "lon": 84.9765888}, {"type": "node", "id": 5894626794, "lat": 56.4572193, "lon": 84.9800819, "tags": {"railway": "tram_level_crossing"}}, {"type": "node", "id": 5894626795, "lat": 56.4572461, "lon": 84.9800354, "tags": {"railway": "tram_level_crossing"}}, {"type": "node", "id": 6479795329, "lat": 56.4559079, "lon": 84.9774734, "tags": {"railway": "tram_crossing"}}, {"type": "node", "id": 6479795330, "lat": 56.4558796, "lon": 84.9775197, "tags": {"railway": "tram_crossing"}}, {"type": "node", "id": 6546392124, "lat": 56.4650548, "lon": 84.9830815, "tags": {"railway": "tram_crossing"}}, {"type": "node", "id": 6546392125, "lat": 56.4650819, "lon": 84.9831346, "tags": {"railway": "tram_crossing"}}, {"type": "node", "id": 6546392130, "lat": 56.4658106, "lon": 84.9818139}, {"type": "node", "id": 6546392131, "lat": 56.4658252, "lon": 84.9818856}, {"type": "node", "id": 7454293683, "lat": 56.4565276, "lon": 84.9786567, "tags": {"crossing:signals": "yes", "railway": "tram_level_crossing"}}, {"type": "node", "id": 7454293684, "lat": 56.4565001, "lon": 84.9787048, "tags": {"crossing:signals": "yes", "railway": "tram_level_crossing"}}, {"type": "node", "id": 7457535162, "lat": 56.4540066, "lon": 84.977333, "tags": {"railway": "tram_crossing"}}, {"type": "node", "id": 7457535163, "lat": 56.4540245, "lon": 84.9773827, "tags": {"railway": "tram_crossing"}}, {"type": "node", "id": 7505262157, "lat": 56.4616886, "lon": 84.9884448}, {"type": "node", "id": 7505262158, "lat": 56.4616748, "lon": 84.9885254}, {"type": "node", "id": 8018220918, "lat": 56.4529567, "lon": 84.9789992}, {"type": "node", "id": 8018220920, "lat": 56.4529892, "lon": 84.9787138, "tags": {"railway": "tram_crossing"}}, {"type": "node", "id": 8018220924, "lat": 56.4530561, "lon": 84.9785677}, {"type": "node", "id": 9093575412, "lat": 56.4564993, "lon": 84.9786029, "tags": {"crossing:signals": "yes", "railway": "tram_crossing"}}, {"type": "node", "id": 9093575413, "lat": 56.4564718, "lon": 84.9786521, "tags": {"crossing:signals": "yes", "railway": "tram_crossing"}}, {"type": "node", "id": 9093611518, "lat": 56.4560937, "lon": 84.9779338, "tags": {"railway": "tram_crossing"}}, {"type": "node", "id": 9114959691, "lat": 56.4567664, "lon": 84.9792143, "tags": {"name": "\u041b\u0435\u043d\u0442\u0430", "name:en": "Lenta", "name:ru": "\u041b\u0435\u043d\u0442\u0430", "public_transport": "stop_position", "railway": "tram_stop", "tram": "yes"}}, {"type": "node", "id": 9114959692, "lat": 56.4567919, "lon": 84.9791632, "tags": {"name": "\u041b\u0435\u043d\u0442\u0430", "name:en": "Lenta", "name:ru": "\u041b\u0435\u043d\u0442\u0430", "public_transport": "stop_position", "railway": "tram_stop", "tram": "yes"}}, {"type": "node", "id": 9114959693, "lat": 56.4607092, "lon": 84.9867299, "tags": {"railway": "tram_level_crossing"}}, {"type": "node", "id": 9114959694, "lat": 56.4607364, "lon": 84.9866798, "tags": {"railway": "tram_level_crossing"}}, {"type": "node", "id": 9171323420, "lat": 56.4530014, "lon": 84.9786611}, {"type": "node", "id": 9171323423, "lat": 56.4529483, "lon": 84.9791338}, {"type": "node", "id": 9524906961, "lat": 56.4608732, "lon": 84.9869415, "tags": {"railway": "tram_crossing"}}, {"type": "node", "id": 9524906962, "lat": 56.4608458, "lon": 84.9869901, "tags": {"railway": "tram_crossing"}}, {"type": "node", "id": 9897667544, "lat": 56.4529458, "lon": 84.9794308}, {"type": "node", "id": 9897667545, "lat": 56.4529511, "lon": 84.9795248}, {"type": "node", "id": 9897667546, "lat": 56.4529466, "lon": 84.9794759}, {"type": "node", "id": 9897667547, "lat": 56.4529557, "lon": 84.979558}, {"type": "way", "id": 104291528, "nodes": [3501530147, 9897667547, 9897667545, 9897667546, 9897667544, 3501530149, 9171323423, 8018220918, 3501530151, 8018220920, 9171323420, 3501530156, 8018220924, 3501530160, 4056513275, 1119773505, 1785561798, 4056513270, 7457535163, 4440933768, 1119773493, 1119773479, 3420466951, 1119773528, 3420466955, 1258977107, 1258977108, 3420466967, 4056576854, 1258977103, 6479795330, 3502153404, 9093611518, 9093575413, 7454293684, 4554212692, 9114959691, 5894626794, 3408638512, 1244308501, 1119773510, 3408638523, 1501167793, 9114959693, 9524906962, 1119773503, 1258977083, 3365186492, 7505262158, 1203058993, 1203058159, 1203059102, 1119773497, 1203058247, 3365187096, 1203058661, 2361132767, 1203059194, 1203058094, 3416114251, 6546392125, 1119773517, 1119773508, 6546392131, 1119773502, 1534861693, 1086224389], "tags": {"electrified": "contact_line", "frequency": "0", "gauge": "1524", "oneway": "yes", "operator": "\u0422\u0413\u0423\u041c\u041f \"\u0422\u0422\u0423\"", "railway": "tram", "usage": "main", "voltage": "600"}}, {"type": "way", "id": 104291535, "nodes": [1086224142, 1534861692, 1119773491, 6546392130, 1119773476, 1119773526, 6546392124, 3416114250, 1203059051, 1203058844, 2361132771, 1203058234, 3365187095, 1203059183, 1119773516, 1203058443, 1203058225, 1203058139, 7505262157, 1203058864, 1119773507, 1119773501, 9524906961, 9114959694, 1501167794, 1119773494, 3408638526, 1244308515, 3408638513, 5894626795, 9114959692, 4554212693, 7454293683, 9093575412, 1258977102, 6479795329, 1119773530, 4056576853, 5768369985, 3420466969, 1258977093, 1258977110, 3420466957, 1119773529, 3420466950, 1119773520, 1119773512, 4440933767, 7457535162, 4056513269, 1785561801, 4056513276, 3501530157, 1119773499], "tags": {"electrified": "contact_line", "frequency": "0", "gauge": "1524", "oneway": "yes", "operator": "\u0422\u0413\u0423\u041c\u041f \"\u0422\u0422\u0423\"", "railway": "tram", "usage": "main", "voltage": "600"}}]}