{"version": 0.6, "generator": "Overpass API 0.7.62.1 084b4234", "osm3s": {"timestamp_osm_base": "2024-05-17T10:00:53Z", "copyright": "The data included in this document is from www.openstreetmap.org. The data is made available under ODbL."}, "elements": [{"type": "node", "id": 5140692170, "lat": 43.166698, "lon": 131.9109989, "tags": {"amenity": "fast_food", "name": "8 \u043c\u0438\u043d\u0443\u0442", "opening_hours": "08:00-21:00"}}, {"type": "node", "id": 5538906437, "lat": 43.1667183, "lon": 131.9120772, "tags": {"alt_name": "Kentucky Fried Chicken", "amenity": "fast_food", "brand": "KFC", "brand:wikidata": "Q524757", "cuisine": "chicken", "name": "KFC", "opening_hours": "Mo-Su 08:00-22:00", "takeaway": "yes", "website": "https://www.kfc.ru/"}}, {"type": "node", "id": 10845587828, "lat": 43.166764, "lon": 131.9127104, "tags": {"amenity": "fast_food", "contact:email": "manager@okidokivl.ru", "contact:phone": "+7 423 2408888", "cuisine": "pizza", "name": "\u041e\u043a\u0438 \u0434\u043e\u043a\u0438", "opening_hours": "Mo-Su 10:00-22:00"}}]}