{"version": 0.6, "generator": "Overpass API 0.7.62.1 084b4234", "osm3s": {"timestamp_osm_base": "2024-05-18T00:19:14Z", "copyright": "The data included in this document is from www.openstreetmap.org. The data is made available under ODbL."}, "elements": [{"type": "node", "id": 978482642, "lat": 54.7261383, "lon": 20.5307739}, {"type": "node", "id": 978482681, "lat": 54.7260638, "lon": 20.5276301}, {"type": "node", "id": 978482683, "lat": 54.7281755, "lon": 20.5280419}, {"type": "node", "id": 978482907, "lat": 54.7263037, "lon": 20.5279049}, {"type": "node", "id": 978482948, "lat": 54.7271445, "lon": 20.5282846}, {"type": "node", "id": 978483055, "lat": 54.7259726, "lon": 20.5302322}, {"type": "node", "id": 978483095, "lat": 54.7256994, "lon": 20.5273664}, {"type": "node", "id": 978483156, "lat": 54.7269434, "lon": 20.5271298}, {"type": "node", "id": 978483296, "lat": 54.7262764, "lon": 20.5306472}, {"type": "node", "id": 978483337, "lat": 54.7281234, "lon": 20.528236}, {"type": "node", "id": 978483390, "lat": 54.7269306, "lon": 20.5281535}, {"type": "node", "id": 978483483, "lat": 54.727473, "lon": 20.5285483}, {"type": "node", "id": 978483627, "lat": 54.7263632, "lon": 20.5267178}, {"type": "node", "id": 978483638, "lat": 54.7270971, "lon": 20.5284614}, {"type": "node", "id": 978483702, "lat": 54.7261011, "lon": 20.5274757}, {"type": "node", "id": 978483712, "lat": 54.7261107, "lon": 20.5301055}, {"type": "node", "id": 978483724, "lat": 54.7257366, "lon": 20.527212}, {"type": "node", "id": 978483735, "lat": 54.7275486, "lon": 20.527773}, {"type": "node", "id": 978483759, "lat": 54.7268992, "lon": 20.5273165}, {"type": "node", "id": 978483770, "lat": 54.7263504, "lon": 20.5277183}, {"type": "node", "id": 978483994, "lat": 54.7274256, "lon": 20.5287251}, {"type": "node", "id": 978484040, "lat": 54.7276007, "lon": 20.527579}, {"type": "node", "id": 978484221, "lat": 54.726319, "lon": 20.5269044}, {"type": "node", "id": 978484387, "lat": 54.7268839, "lon": 20.5283401}, {"type": "node", "id": 1190828067, "lat": 54.7281004, "lon": 20.5272244}, {"type": "node", "id": 1190828210, "lat": 54.7280547, "lon": 20.5273988}, {"type": "node", "id": 1190828395, "lat": 54.727639, "lon": 20.5270721}, {"type": "node", "id": 1190828870, "lat": 54.7276847, "lon": 20.5268977}, {"type": "node", "id": 1313188445, "lat": 54.7280221, "lon": 20.5291506}, {"type": "node", "id": 1313188459, "lat": 54.72755, "lon": 20.5287573}, {"type": "node", "id": 1313188640, "lat": 54.7276496, "lon": 20.5288383}, {"type": "node", "id": 1313188667, "lat": 54.7277581, "lon": 20.5296644}, {"type": "node", "id": 1313188694, "lat": 54.7274919, "lon": 20.5294202}, {"type": "node", "id": 1313188724, "lat": 54.7279215, "lon": 20.529068}, {"type": "node", "id": 1313188776, "lat": 54.7278587, "lon": 20.5297471}, {"type": "node", "id": 1313188788, "lat": 54.7273923, "lon": 20.5293393}, {"type": "node", "id": 1465672910, "lat": 54.7276042, "lon": 20.5278177, "tags": {"addr:postcode": "236041", "amenity": "post_office", "name": "\u041e\u0442\u0434\u0435\u043b\u0435\u043d\u0438\u0435 \u0441\u0432\u044f\u0437\u0438 \u2116236041", "ref": "236041"}}, {"type": "node", "id": 1633668523, "lat": 54.7260094, "lon": 20.5301984, "tags": {"amenity": "hospital", "name": "\u041c\u0435\u0434\u042d\u043a\u0441\u043f\u0435\u0440\u0442"}}, {"type": "node", "id": 1640334620, "lat": 54.7258074, "lon": 20.5272632, "tags": {"addr:city": "\u041a\u0430\u043b\u0438\u043d\u0438\u043d\u0433\u0440\u0430\u0434", "addr:country": "RU", "addr:housenumber": "16", "addr:street": "\u0443\u043b\u0438\u0446\u0430 \u0410\u043b\u0435\u043a\u0441\u0430\u043d\u0434\u0440\u0430 \u041d\u0435\u0432\u0441\u043a\u043e\u0433\u043e", "entrance": "main"}}, {"type": "node", "id": 1640334642, "lat": 54.726037, "lon": 20.5274293, "tags": {"addr:city": "\u041a\u0430\u043b\u0438\u043d\u0438\u043d\u0433\u0440\u0430\u0434", "addr:country": "RU", "addr:housenumber": "18", "addr:street": "\u0443\u043b\u0438\u0446\u0430 \u0410\u043b\u0435\u043a\u0441\u0430\u043d\u0434\u0440\u0430 \u041d\u0435\u0432\u0441\u043a\u043e\u0433\u043e", "entrance": "main"}}, {"type": "node", "id": 1640334705, "lat": 54.7264792, "lon": 20.5268002, "tags": {"addr:city": "\u041a\u0430\u043b\u0438\u043d\u0438\u043d\u0433\u0440\u0430\u0434", "addr:country": "RU", "addr:housenumber": "23", "addr:street": "\u0443\u043b\u0438\u0446\u0430 \u0410\u043b\u0435\u043a\u0441\u0430\u043d\u0434\u0440\u0430 \u041d\u0435\u0432\u0441\u043a\u043e\u0433\u043e", "entrance": "main"}}, {"type": "node", "id": 1640334723, "lat": 54.7265968, "lon": 20.5268822, "tags": {"addr:city": "\u041a\u0430\u043b\u0438\u043d\u0438\u043d\u0433\u0440\u0430\u0434", "addr:country": "RU", "addr:housenumber": "23\u0410", "addr:street": "\u0443\u043b\u0438\u0446\u0430 \u0410\u043b\u0435\u043a\u0441\u0430\u043d\u0434\u0440\u0430 \u041d\u0435\u0432\u0441\u043a\u043e\u0433\u043e", "entrance": "main"}}, {"type": "node", "id": 1640334730, "lat": 54.7264197, "lon": 20.5279919, "tags": {"addr:city": "\u041a\u0430\u043b\u0438\u043d\u0438\u043d\u0433\u0440\u0430\u0434", "addr:country": "RU", "addr:housenumber": "24", "addr:street": "\u0443\u043b\u0438\u0446\u0430 \u0410\u043b\u0435\u043a\u0441\u0430\u043d\u0434\u0440\u0430 \u041d\u0435\u0432\u0441\u043a\u043e\u0433\u043e", "entrance": "main"}}, {"type": "node", "id": 1640334739, "lat": 54.7267113, "lon": 20.526965, "tags": {"addr:city": "\u041a\u0430\u043b\u0438\u043d\u0438\u043d\u0433\u0440\u0430\u0434", "addr:country": "RU", "addr:housenumber": "25", "addr:street": "\u0443\u043b\u0438\u0446\u0430 \u0410\u043b\u0435\u043a\u0441\u0430\u043d\u0434\u0440\u0430 \u041d\u0435\u0432\u0441\u043a\u043e\u0433\u043e", "entrance": "main"}}, {"type": "node", "id": 1640334746, "lat": 54.7265358, "lon": 20.528079, "tags": {"addr:city": "\u041a\u0430\u043b\u0438\u043d\u0438\u043d\u0433\u0440\u0430\u0434", "addr:country": "RU", "addr:housenumber": "26", "addr:street": "\u0443\u043b\u0438\u0446\u0430 \u0410\u043b\u0435\u043a\u0441\u0430\u043d\u0434\u0440\u0430 \u041d\u0435\u0432\u0441\u043a\u043e\u0433\u043e", "entrance": "main"}}, {"type": "node", "id": 1640334750, "lat": 54.7268274, "lon": 20.5270474, "tags": {"addr:city": "\u041a\u0430\u043b\u0438\u043d\u0438\u043d\u0433\u0440\u0430\u0434", "addr:country": "RU", "addr:housenumber": "27", "addr:street": "\u0443\u043b\u0438\u0446\u0430 \u0410\u043b\u0435\u043a\u0441\u0430\u043d\u0434\u0440\u0430 \u041d\u0435\u0432\u0441\u043a\u043e\u0433\u043e", "entrance": "main"}}, {"type": "node", "id": 1640334754, "lat": 54.7266518, "lon": 20.528166, "tags": {"addr:city": "\u041a\u0430\u043b\u0438\u043d\u0438\u043d\u0433\u0440\u0430\u0434", "addr:country": "RU", "addr:housenumber": "28", "addr:street": "\u0443\u043b\u0438\u0446\u0430 \u0410\u043b\u0435\u043a\u0441\u0430\u043d\u0434\u0440\u0430 \u041d\u0435\u0432\u0441\u043a\u043e\u0433\u043e", "entrance": "main"}}, {"type": "node", "id": 1640334764, "lat": 54.7267679, "lon": 20.5282531, "tags": {"addr:city": "\u041a\u0430\u043b\u0438\u043d\u0438\u043d\u0433\u0440\u0430\u0434", "addr:country": "RU", "addr:housenumber": "30", "addr:street": "\u0443\u043b\u0438\u0446\u0430 \u0410\u043b\u0435\u043a\u0441\u0430\u043d\u0434\u0440\u0430 \u041d\u0435\u0432\u0441\u043a\u043e\u0433\u043e", "entrance": "main"}}, {"type": "node", "id": 1640334769, "lat": 54.7277157, "lon": 20.5276716, "tags": {"addr:city": "\u041a\u0430\u043b\u0438\u043d\u0438\u043d\u0433\u0440\u0430\u0434", "addr:country": "RU", "addr:housenumber": "31", "addr:street": "\u0443\u043b\u0438\u0446\u0430 \u0410\u043b\u0435\u043a\u0441\u0430\u043d\u0434\u0440\u0430 \u041d\u0435\u0432\u0441\u043a\u043e\u0433\u043e", "entrance": "main"}}, {"type": "node", "id": 1640334773, "lat": 54.7278306, "lon": 20.5277642, "tags": {"addr:city": "\u041a\u0430\u043b\u0438\u043d\u0438\u043d\u0433\u0440\u0430\u0434", "addr:country": "RU", "addr:housenumber": "33", "addr:street": "\u0443\u043b\u0438\u0446\u0430 \u0410\u043b\u0435\u043a\u0441\u0430\u043d\u0434\u0440\u0430 \u041d\u0435\u0432\u0441\u043a\u043e\u0433\u043e", "entrance": "main"}}, {"type": "node", "id": 1640334782, "lat": 54.7271544, "lon": 20.5285074, "tags": {"addr:city": "\u041a\u0430\u043b\u0438\u043d\u0438\u043d\u0433\u0440\u0430\u0434", "addr:country": "RU", "addr:housenumber": "34", "addr:street": "\u0443\u043b\u0438\u0446\u0430 \u0410\u043b\u0435\u043a\u0441\u0430\u043d\u0434\u0440\u0430 \u041d\u0435\u0432\u0441\u043a\u043e\u0433\u043e", "entrance": "main"}}, {"type": "node", "id": 1640334789, "lat": 54.7272606, "lon": 20.5285931, "tags": {"addr:city": "\u041a\u0430\u043b\u0438\u043d\u0438\u043d\u0433\u0440\u0430\u0434", "addr:country": "RU", "addr:housenumber": "34\u0410", "addr:street": "\u0443\u043b\u0438\u0446\u0430 \u0410\u043b\u0435\u043a\u0441\u0430\u043d\u0434\u0440\u0430 \u041d\u0435\u0432\u0441\u043a\u043e\u0433\u043e", "entrance": "main"}}, {"type": "node", "id": 1640334793, "lat": 54.7273712, "lon": 20.5286808, "tags": {"addr:city": "\u041a\u0430\u043b\u0438\u043d\u0438\u043d\u0433\u0440\u0430\u0434", "addr:country": "RU", "addr:housenumber": "34\u0411", "addr:street": "\u0443\u043b\u0438\u0446\u0430 \u0410\u043b\u0435\u043a\u0441\u0430\u043d\u0434\u0440\u0430 \u041d\u0435\u0432\u0441\u043a\u043e\u0433\u043e", "entrance": "main"}}, {"type": "node", "id": 1640334799, "lat": 54.7279456, "lon": 20.5278567, "tags": {"addr:city": "\u041a\u0430\u043b\u0438\u043d\u0438\u043d\u0433\u0440\u0430\u0434", "addr:country": "RU", "addr:housenumber": "35", "addr:street": "\u0443\u043b\u0438\u0446\u0430 \u0410\u043b\u0435\u043a\u0441\u0430\u043d\u0434\u0440\u0430 \u041d\u0435\u0432\u0441\u043a\u043e\u0433\u043e", "entrance": "main"}}, {"type": "node", "id": 1640334803, "lat": 54.7280605, "lon": 20.5279493, "tags": {"addr:city": "\u041a\u0430\u043b\u0438\u043d\u0438\u043d\u0433\u0440\u0430\u0434", "addr:country": "RU", "addr:housenumber": "37", "addr:street": "\u0443\u043b\u0438\u0446\u0430 \u0410\u043b\u0435\u043a\u0441\u0430\u043d\u0434\u0440\u0430 \u041d\u0435\u0432\u0441\u043a\u043e\u0433\u043e", "entrance": "main"}}, {"type": "node", "id": 1812238656, "lat": 54.7260164, "lon": 20.5303754, "tags": {"addr:city": "\u041a\u0430\u043b\u0438\u043d\u0438\u043d\u0433\u0440\u0430\u0434", "addr:housenumber": "1", "addr:street": "\u041f\u0440\u0430\u0436\u0441\u043a\u0430\u044f \u0443\u043b\u0438\u0446\u0430", "entrance": "main"}}, {"type": "node", "id": 1812238673, "lat": 54.7261045, "lon": 20.5306633, "tags": {"entrance": "main"}}, {"type": "node", "id": 2321725208, "lat": 54.7261916, "lon": 20.5303698, "tags": {"name": "INHOUSE", "shop": "furniture"}}, {"type": "node", "id": 2321725209, "lat": 54.7262493, "lon": 20.5305586, "tags": {"name": "\u0410\u0432\u0438\u0430\u0431\u0438\u043b\u0435\u0442\u044b (\u041c\u0410\u0423)", "shop": "ticket"}}, {"type": "node", "id": 2930988415, "lat": 54.7276611, "lon": 20.5270901, "tags": {"addr:housenumber": "31\u0410", "addr:street": "\u0443\u043b\u0438\u0446\u0430 \u0410\u043b\u0435\u043a\u0441\u0430\u043d\u0434\u0440\u0430 \u041d\u0435\u0432\u0441\u043a\u043e\u0433\u043e", "entrance": "main"}}, {"type": "node", "id": 2930988416, "lat": 54.7277145, "lon": 20.527132, "tags": {"addr:housenumber": "31\u0411", "addr:street": "\u0443\u043b\u0438\u0446\u0430 \u0410\u043b\u0435\u043a\u0441\u0430\u043d\u0434\u0440\u0430 \u041d\u0435\u0432\u0441\u043a\u043e\u0433\u043e", "entrance": "main"}}, {"type": "node", "id": 2930988417, "lat": 54.7277679, "lon": 20.527174, "tags": {"addr:housenumber": "31\u0412", "addr:street": "\u0443\u043b\u0438\u0446\u0430 \u0410\u043b\u0435\u043a\u0441\u0430\u043d\u0434\u0440\u0430 \u041d\u0435\u0432\u0441\u043a\u043e\u0433\u043e", "entrance": "main"}}, {"type": "node", "id": 2930988418, "lat": 54.7278214, "lon": 20.527216, "tags": {"addr:housenumber": "31\u0413", "addr:street": "\u0443\u043b\u0438\u0446\u0430 \u0410\u043b\u0435\u043a\u0441\u0430\u043d\u0434\u0440\u0430 \u041d\u0435\u0432\u0441\u043a\u043e\u0433\u043e", "entrance": "main"}}, {"type": "node", "id": 2930988419, "lat": 54.7278748, "lon": 20.5272579, "tags": {"addr:housenumber": "31\u0414", "addr:street": "\u0443\u043b\u0438\u0446\u0430 \u0410\u043b\u0435\u043a\u0441\u0430\u043d\u0434\u0440\u0430 \u041d\u0435\u0432\u0441\u043a\u043e\u0433\u043e", "entrance": "main"}}, {"type": "node", "id": 2930988420, "lat": 54.7279282, "lon": 20.5272999, "tags": {"addr:housenumber": "31\u0415", "addr:street": "\u0443\u043b\u0438\u0446\u0430 \u0410\u043b\u0435\u043a\u0441\u0430\u043d\u0434\u0440\u0430 \u041d\u0435\u0432\u0441\u043a\u043e\u0433\u043e", "entrance": "main"}}, {"type": "node", "id": 2930988421, "lat": 54.7279816, "lon": 20.5273399, "tags": {"addr:housenumber": "31\u0416", "addr:street": "\u0443\u043b\u0438\u0446\u0430 \u0410\u043b\u0435\u043a\u0441\u0430\u043d\u0434\u0440\u0430 \u041d\u0435\u0432\u0441\u043a\u043e\u0433\u043e", "entrance": "main"}}, {"type": "node", "id": 2930988422, "lat": 54.728035, "lon": 20.5273819, "tags": {"addr:housenumber": "31\u0418", "addr:street": "\u0443\u043b\u0438\u0446\u0430 \u0410\u043b\u0435\u043a\u0441\u0430\u043d\u0434\u0440\u0430 \u041d\u0435\u0432\u0441\u043a\u043e\u0433\u043e", "entrance": "main"}}, {"type": "node", "id": 9002222002, "lat": 54.7255545, "lon": 20.5283503}, {"type": "node", "id": 9002222003, "lat": 54.7257811, "lon": 20.5285254}, {"type": "node", "id": 9002222004, "lat": 54.7257702, "lon": 20.5291292}, {"type": "node", "id": 9002222005, "lat": 54.7255795, "lon": 20.5289653}, {"type": "node", "id": 9002222006, "lat": 54.7255233, "lon": 20.5291614}, {"type": "node", "id": 9002222007, "lat": 54.7258429, "lon": 20.5294359}, {"type": "node", "id": 9002222008, "lat": 54.7259006, "lon": 20.5292346}, {"type": "node", "id": 9002222009, "lat": 54.7259123, "lon": 20.5283551}, {"type": "node", "id": 9002222010, "lat": 54.7256128, "lon": 20.5281237}, {"type": "node", "id": 10189552737, "lat": 54.7268847, "lon": 20.5281191, "tags": {"amenity": "toilets", "description": "\u041a\u0440\u0443\u0430\u0441\u0441\u0430\u043d \u043a\u0430\u0444\u0435", "opening_hours": "Mo-Th 08:00-21:00; Fr 09:00-22:00; Sa 09:00-22:00; Su 09:00-21:00"}}, {"type": "node", "id": 10189552738, "lat": 54.7268197, "lon": 20.5280704, "tags": {"amenity": "toilets", "description": "\u041a\u0435\u043d\u0438\u0433\u0431\u044d\u043a\u043a\u0435\u0440", "opening_hours": "Mo-Fr 08:00-21:00; Sa-Su 09:00-21:00"}}, {"type": "way", "id": 84100010, "nodes": [978483055, 1633668523, 978483712, 2321725208, 2321725209, 978483296, 978482642, 1812238673, 1812238656, 978483055], "tags": {"building": "apartments"}}, {"type": "way", "id": 84100013, "nodes": [978484040, 978483735, 1465672910, 978483337, 978482683, 1640334803, 1640334799, 1640334773, 1640334769, 978484040], "tags": {"building": "apartments", "building:levels": "5"}}, {"type": "way", "id": 84100029, "nodes": [978483627, 978484221, 978483759, 978483156, 1640334750, 1640334739, 1640334723, 1640334705, 978483627], "tags": {"building": "apartments", "building:levels": "5"}}, {"type": "way", "id": 84100032, "nodes": [978483770, 978482907, 1640334730, 1640334746, 1640334754, 1640334764, 978484387, 978483390, 10189552737, 10189552738, 978483770], "tags": {"building": "apartments", "building:levels": "5"}}, {"type": "way", "id": 84100105, "nodes": [978483483, 978483994, 1640334793, 1640334789, 1640334782, 978483638, 978482948, 978483483], "tags": {"building": "apartments", "building:levels": "5"}}, {"type": "way", "id": 84100115, "nodes": [978483095, 978483724, 1640334620, 1640334642, 978483702, 978482681, 978483095], "tags": {"building": "apartments", "building:levels": "3"}}, {"type": "way", "id": 103124257, "nodes": [1190828067, 1190828210, 2930988422, 2930988421, 2930988420, 2930988419, 2930988418, 2930988417, 2930988416, 2930988415, 1190828395, 1190828870, 1190828067], "tags": {"building": "terrace", "building:levels": "2"}}, {"type": "way", "id": 116503593, "nodes": [1313188724, 1313188445, 1313188776, 1313188667, 1313188724], "tags": {"addr:housenumber": "40", "addr:street": "\u0443\u043b\u0438\u0446\u0430 \u0410\u043b\u0435\u043a\u0441\u0430\u043d\u0434\u0440\u0430 \u041d\u0435\u0432\u0441\u043a\u043e\u0433\u043e", "building": "apartments", "building:levels": "3"}}, {"type": "way", "id": 116503597, "nodes": [1313188640, 1313188459, 1313188788, 1313188694, 1313188640], "tags": {"addr:housenumber": "36", "addr:street": "\u0443\u043b\u0438\u0446\u0430 \u0410\u043b\u0435\u043a\u0441\u0430\u043d\u0434\u0440\u0430 \u041d\u0435\u0432\u0441\u043a\u043e\u0433\u043e", "building": "apartments", "building:levels": "5"}}, {"type": "way", "id": 972666598, "nodes": [9002222010, 9002222009, 9002222008, 9002222007, 9002222006, 9002222005, 9002222004, 9002222003, 9002222002, 9002222010], "tags": {"addr:city": "\u041a\u0430\u043b\u0438\u043d\u0438\u043d\u0433\u0440\u0430\u0434", "addr:housenumber": "2", "addr:street": "\u0443\u043b\u0438\u0446\u0430 \u041a\u0443\u0439\u0431\u044b\u0448\u0435\u0432\u0430", "building": "apartments", "building:levels": "8", "height": "12", "name": "\u0416\u041a \u0423\u043d\u0438\u0432\u0435\u0440\u0441\u0438\u0442\u0435\u0442"}}]}