{"version": 0.6, "generator": "Overpass API 0.7.62.1 084b4234", "osm3s": {"timestamp_osm_base": "2024-05-13T22:45:09Z", "copyright": "The data included in this document is from www.openstreetmap.org. The data is made available under ODbL."}, "elements": [{"type": "node", "id": 7962148959, "lat": 55.6794216, "lon": 37.5638474, "tags": {"amenity": "fast_food", "cuisine": "pizza;fast_food;coffee_shop", "name": "\u0414\u043e\u043c\u0430 \u041f\u0438\u0446\u0446\u0430", "opening_hours": "Mo-Fr 09:00-21:00; Sa-Su 10:00-22:00"}}, {"type": "node", "id": 9041185519, "lat": 55.6784809, "lon": 37.5642037, "tags": {"amenity": "fast_food", "brand": "Cofix", "brand:wikidata": "Q16132717", "brand:wikipedia": "en:Cofix", "contact:email": "info@cofix.ru", "contact:facebook": "https://www.facebook.com/cofixrussia", "contact:instagram": "https://www.instagram.com/cofixrussia", "contact:phone": "+7 800 3508418", "contact:vk": "https://vk.com/cofixrussia", "contact:website": "https://cofix.global", "cuisine": "coffee_shop", "delivery": "no", "name": "Cofix", "name:en": "Cofix", "opening_hours": "Mo-Fr 07:00-22:00; Sa-Su 08:00-22:00", "takeaway": "yes"}}, {"type": "node", "id": 11222183573, "lat": 55.6795915, "lon": 37.5653458, "tags": {"amenity": "fast_food", "contact:email": "b2b@onepricecoffee.com", "contact:phone": "+7 495 0153150", "contact:website": "https://onepricecoffee.com", "cuisine": "coffee_shop", "name": "One Price Coffee", "opening_hours": "Mo-Fr 07:00-22:00; Sa-Su 08:00-22:00"}}, {"type": "node", "id": 11397537884, "lat": 55.678693, "lon": 37.5644204, "tags": {"amenity": "fast_food", "contact:phone": "+7 499 1298063", "contact:website": "https://eazzypizza.ru", "name": "Eazzy Pizza & Gelato", "opening_hours": "24/7"}}]}