{"version": 0.6, "generator": "Overpass API 0.7.62.1 084b4234", "osm3s": {"timestamp_osm_base": "2024-05-16T16:40:00Z", "copyright": "The data included in this document is from www.openstreetmap.org. The data is made available under ODbL."}, "elements": [{"type": "node", "id": 4432422506, "lat": 54.7567555, "lon": 56.036314, "tags": {"amenity": "fast_food", "internet_access": "wlan", "name:en": "Fiesta Pizza", "opening_hours": "Mo-Su 10:00-22:00"}}, {"type": "node", "id": 6536734332, "lat": 54.7571512, "lon": 56.0362493, "tags": {"amenity": "fast_food", "contact:email": "hotline@coffee-like.com", "contact:phone": "+7 341 2908292;+7 800 3334130", "contact:website": "https://coffee-like.com/", "cuisine": "coffee_shop", "name": "Coffee Like", "opening_hours": "Mo-Su 10:00-22:00", "operator": "\u0410\u043a\u0447\u0443\u0440\u0438\u043d\u0430 \u0414\u0438\u043d\u0430\u0440\u0430 \u0420\u0430\u0444\u0430\u0438\u043b\u043e\u0432\u043d\u0430"}}, {"type": "node", "id": 7505868653, "lat": 54.7571266, "lon": 56.0369843, "tags": {"amenity": "fast_food", "brand": "\u0411\u0443\u0440\u0433\u0435\u0440 \u041a\u0438\u043d\u0433", "brand:en": "Burger King", "brand:ru": "\u0411\u0443\u0440\u0433\u0435\u0440 \u041a\u0438\u043d\u0433", "brand:wikidata": "Q177054", "contact:email": "FeedBack@burgerking.ru", "contact:phone": "+7 495 5445000", "contact:vk": "https://vk.com/burgerking", "contact:website": "https://burgerkingrus.ru/", "cuisine": "burger", "name": "\u0411\u0443\u0440\u0433\u0435\u0440 \u041a\u0438\u043d\u0433", "name:en": "Burger King", "name:ru": "\u0411\u0443\u0440\u0433\u0435\u0440 \u041a\u0438\u043d\u0433", "opening_hours": "Mo-Su 10:00-22:00", "operator": "\u0411\u0423\u0420\u0413\u0415\u0420 \u0420\u0423\u0421", "takeaway": "yes"}}, {"type": "node", "id": 11007217738, "lat": 54.7574394, "lon": 56.0367, "tags": {"amenity": "fast_food", "contact:phone": "+7 987 6000143", "contact:website": "https://www.vitajuice.ru/", "cuisine": "juice", "name": "Vita Juice", "opening_hours": "Mo-Su 10:00-22:00"}}, {"type": "node", "id": 11083513337, "lat": 54.7572225, "lon": 56.0367, "tags": {"amenity": "fast_food", "brand": "\u0412\u043a\u0443\u0441\u043d\u043e \u2014 \u0438 \u0442\u043e\u0447\u043a\u0430", "brand:en": "Vkusno i tochka", "brand:ru": "\u0412\u043a\u0443\u0441\u043d\u043e \u2014 \u0438 \u0442\u043e\u0447\u043a\u0430", "brand:wikidata": "Q112406961", "cuisine": "burger", "name": "\u0412\u043a\u0443\u0441\u043d\u043e \u2014 \u0438 \u0442\u043e\u0447\u043a\u0430", "name:en": "Vkusno i tochka", "name:ru": "\u0412\u043a\u0443\u0441\u043d\u043e \u2014 \u0438 \u0442\u043e\u0447\u043a\u0430", "takeaway": "yes"}}]}