{"version": 0.6, "generator": "Overpass API 0.7.62.1 084b4234", "osm3s": {"timestamp_osm_base": "2024-05-18T00:56:13Z", "copyright": "The data included in this document is from www.openstreetmap.org. The data is made available under ODbL."}, "elements": [{"type": "node", "id": 713243681, "lat": 54.9810026, "lon": 73.3809637}, {"type": "node", "id": 713243711, "lat": 54.9796512, "lon": 73.3827641}, {"type": "node", "id": 713243740, "lat": 54.9803973, "lon": 73.3826018}, {"type": "node", "id": 713243770, "lat": 54.9810671, "lon": 73.3825018}, {"type": "node", "id": 713243796, "lat": 54.9814722, "lon": 73.380884}, {"type": "node", "id": 713243813, "lat": 54.9815953, "lon": 73.380642}, {"type": "node", "id": 713243828, "lat": 54.980502, "lon": 73.381363}, {"type": "node", "id": 713243837, "lat": 54.9806962, "lon": 73.3820929}, {"type": "node", "id": 713243859, "lat": 54.9810078, "lon": 73.3810558}, {"type": "node", "id": 713243869, "lat": 54.9805811, "lon": 73.3821116}, {"type": "node", "id": 713243877, "lat": 54.9796624, "lon": 73.3829742}, {"type": "node", "id": 713243899, "lat": 54.9806531, "lon": 73.3812169}, {"type": "node", "id": 713243918, "lat": 54.9802788, "lon": 73.3826623}, {"type": "node", "id": 713243944, "lat": 54.9815211, "lon": 73.3826392}, {"type": "node", "id": 713243955, "lat": 54.980577, "lon": 73.3812331}, {"type": "node", "id": 713243969, "lat": 54.9804079, "lon": 73.3827992}, {"type": "node", "id": 713244007, "lat": 54.9805391, "lon": 73.3818915}, {"type": "node", "id": 713244036, "lat": 54.9807313, "lon": 73.3827467}, {"type": "node", "id": 713244039, "lat": 54.9815579, "lon": 73.3824153}, {"type": "node", "id": 713244067, "lat": 54.9808762, "lon": 73.3807641}, {"type": "node", "id": 713244110, "lat": 54.9806055, "lon": 73.3825679}, {"type": "node", "id": 713244117, "lat": 54.98029, "lon": 73.3828723}, {"type": "node", "id": 713244133, "lat": 54.9811081, "lon": 73.3827125}, {"type": "node", "id": 713244194, "lat": 54.9817052, "lon": 73.3826079}, {"type": "node", "id": 713244198, "lat": 54.9805849, "lon": 73.3813454}, {"type": "node", "id": 713244225, "lat": 54.9808936, "lon": 73.3810752}, {"type": "node", "id": 713244228, "lat": 54.980698, "lon": 73.3818577}, {"type": "node", "id": 713244252, "lat": 54.9815091, "lon": 73.3824236}, {"type": "node", "id": 985235313, "lat": 54.9816521, "lon": 73.3816569, "tags": {"amenity": "pharmacy", "name": "\u0424\u0430\u0440\u043c\u0430\u043a\u043e\u043f\u0435\u0439\u043a\u0430", "opening_hours": "24/7", "wheelchair": "no"}}, {"type": "node", "id": 1109019590, "lat": 54.9798274, "lon": 73.3820085}, {"type": "node", "id": 1109019698, "lat": 54.9797178, "lon": 73.3820315}, {"type": "node", "id": 1109019725, "lat": 54.979716, "lon": 73.3812912}, {"type": "node", "id": 1109019730, "lat": 54.9798461, "lon": 73.3823216}, {"type": "node", "id": 1109019746, "lat": 54.9797115, "lon": 73.3816976}, {"type": "node", "id": 1109019754, "lat": 54.9798458, "lon": 73.3820052}, {"type": "node", "id": 1109019758, "lat": 54.9797187, "lon": 73.3822794}, {"type": "node", "id": 1109019806, "lat": 54.9797041, "lon": 73.382034}, {"type": "node", "id": 1109019836, "lat": 54.979718, "lon": 73.3813252}, {"type": "node", "id": 1109019856, "lat": 54.9798264, "lon": 73.3816786}, {"type": "node", "id": 1109019858, "lat": 54.9797359, "lon": 73.3822763}, {"type": "node", "id": 1109019870, "lat": 54.9797245, "lon": 73.381434}, {"type": "node", "id": 1109019897, "lat": 54.9798293, "lon": 73.3812707}, {"type": "node", "id": 1109019918, "lat": 54.9796981, "lon": 73.3817}, {"type": "node", "id": 1109019931, "lat": 54.9798533, "lon": 73.3816737}, {"type": "node", "id": 1109019938, "lat": 54.9797397, "lon": 73.3823408}, {"type": "node", "id": 1109019946, "lat": 54.9796961, "lon": 73.3814391}, {"type": "node", "id": 2010589115, "lat": 54.9816575, "lon": 73.3817546, "tags": {"amenity": "pharmacy", "healthcare": "pharmacy", "level": "1", "name": "\u0410\u043f\u0440\u0435\u043b\u044c", "opening_hours": "24/7", "was:amenity": "bank", "wheelchair": "no"}}, {"type": "node", "id": 2010589116, "lat": 54.9813761, "lon": 73.3806792, "tags": {"amenity": "bank", "atm": "yes", "level": "1", "name": "\u0425\u043e\u0443\u043c \u041a\u0440\u0435\u0434\u0438\u0442", "opening_hours": "Mo-Fr 10:00-19:00; Sa 10:00-17:00; Su off", "wheelchair": "no"}}, {"type": "node", "id": 2444388973, "lat": 54.9810745, "lon": 73.3826342}, {"type": "node", "id": 2444388975, "lat": 54.9811034, "lon": 73.3826293}, {"type": "node", "id": 2489241208, "lat": 54.9812602, "lon": 73.3806989, "tags": {"amenity": "pharmacy", "level": "1", "name": "\u0410\u043f\u0442\u0435\u043a\u0438\u041f\u043b\u044e\u0441", "opening_hours": "08:00-21:00", "wheelchair": "no"}}, {"type": "node", "id": 3613222617, "lat": 54.9814995, "lon": 73.3806583, "tags": {"name": "Westfalika", "opening_hours": "Mo-Sa 10:00-20:00; Su 10:00-19:00", "was:shop": "shoes"}}, {"type": "node", "id": 3613222625, "lat": 54.9816061, "lon": 73.3808352, "tags": {"amenity": "pharmacy", "name": "\u0424\u0430\u0440\u043c\u0430\u043a\u043e\u043f\u0435\u0439\u043a\u0430", "opening_hours": "Mo-Su 08:00-21:00", "wheelchair": "limited"}}, {"type": "node", "id": 3620537984, "lat": 54.9816116, "lon": 73.3809329, "tags": {"level": "1", "name": "Lamoda", "opening_hours": "Mo-Su 10:00-21:00", "shop": "outpost", "wheelchair": "no"}}, {"type": "node", "id": 3645490494, "lat": 54.9816313, "lon": 73.3812858, "tags": {"level": "1", "name": "K-C \u043e\u0431\u0443\u0432\u044c", "opening_hours": "Mo-Su 10:00-20:00", "shop": "shoes", "wheelchair": "no"}}, {"type": "node", "id": 3645490500, "lat": 54.9816676, "lon": 73.3819346, "tags": {"addr:postcode": "644024", "amenity": "pharmacy", "contact:vk": "apteka.omsk", "level": "1", "name": "\u0421\u0435\u043c\u0435\u0439\u043d\u0430\u044f", "opening_hours": "24/7", "website": "http://\u0430\u043f\u0442\u0435\u043a\u0430-\u043e\u043c\u0441\u043a.\u0440\u0444", "wheelchair": "no"}}, {"type": "node", "id": 3646210060, "lat": 54.9816773, "lon": 73.3821073, "tags": {"contact:vk": "bestfloraomsk", "level": "-1", "name": "\u0426\u0432\u0435\u0442\u043e\u0447\u043d\u0438\u0446\u0430", "opening_hours": "08:00-20:00", "shop": "florist", "website": "https://bestflora-omsk.ru/", "wheelchair": "no"}}, {"type": "node", "id": 3646210063, "lat": 54.9808869, "lon": 73.3809557, "tags": {"level": "1", "name": "Saxap", "opening_hours": "09:00-21:00", "shop": "beauty", "wheelchair": "no"}}, {"type": "node", "id": 3646210079, "lat": 54.9808798, "lon": 73.3808276, "tags": {"amenity": "post_office", "contact:facebook": "https://www.facebook.com/ruspost", "contact:phone": "+7 381 231-14-52;+7 381 231-26-55;+7 381 231-43-15", "contact:vk": "https://vk.com/russianpost", "contact:website": "https://www.pochta.ru", "name": "\u041e\u043c\u0441\u043a 644024", "opening_hours": "Mo-Fr 08:00-20:00; Sa,Su 09:00-18:00", "operator": "\u041f\u043e\u0447\u0442\u0430 \u0420\u043e\u0441\u0441\u0438\u0438", "operator:wikidata": "Q1502763", "operator:wikipedia": "ru:\u041f\u043e\u0447\u0442\u0430 \u0420\u043e\u0441\u0441\u0438\u0438", "ref": "644024", "wheelchair": "limited"}}, {"type": "node", "id": 3646210601, "lat": 54.9816219, "lon": 73.3811166, "tags": {"level": "1", "name": "\u0426\u0432\u0435\u0442\u044b \u043d\u0430 \u041b\u0435\u0440\u043c\u043e\u043d\u0442\u043e\u0432\u0430", "opening_hours": "Mo-Su 09:00-21:00", "shop": "florist", "wheelchair": "no"}}, {"type": "node", "id": 3646210602, "lat": 54.9816393, "lon": 73.3814282, "tags": {"level": "1", "name": "\u0411\u0443\u043a\u0435\u0442\u043d\u0430\u044f \u043b\u0430\u0432\u043a\u0430", "opening_hours:signed": "no", "shop": "florist", "wheelchair": "no"}}, {"type": "node", "id": 3646210603, "lat": 54.9816462, "lon": 73.3815517, "tags": {"contact:vk": "cherryflowers55", "level": "1", "name": "\u0412\u0438\u0448\u043d\u044f", "opening_hours": "24/7", "shop": "florist", "wheelchair": "no"}}, {"type": "node", "id": 3646210604, "lat": 54.9816852, "lon": 73.3822496, "tags": {"level": "1", "name": "\u0426\u0432\u0435\u0442\u044b 25", "opening_hours": "24/7", "shop": "florist", "wheelchair": "no"}}, {"type": "node", "id": 3646210606, "lat": 54.9817022, "lon": 73.3825367, "tags": {"addr:housenumber": "20", "addr:street": "\u0443\u043b\u0438\u0446\u0430 \u041b\u0435\u0440\u043c\u043e\u043d\u0442\u043e\u0432\u0430", "level": "1", "name": "Vidial", "opening_hours": "09:00-19:00", "phone": "+7 3812 51 14 00", "shop": "optician", "website": "https://www.vidial.ru/", "wheelchair": "no"}}, {"type": "node", "id": 3646210607, "lat": 54.9816941, "lon": 73.3823996, "tags": {"addr:housenumber": "20", "addr:postcode": "644024", "addr:street": "\u0443\u043b\u0438\u0446\u0430 \u041b\u0435\u0440\u043c\u043e\u043d\u0442\u043e\u0432\u0430", "contact:vk": "florist55", "level": "1", "name": "Florist", "name:ru": "\u0424\u043b\u043e\u0440\u0438\u0441\u0442 55", "opening_hours": "Mo-Su 09:00-21:00", "shop": "florist", "website": "https://www.florist55.ru/", "wheelchair": "no"}}, {"type": "node", "id": 3647552368, "lat": 54.9797204, "lon": 73.3813699}, {"type": "node", "id": 3819506706, "lat": 54.9816779, "lon": 73.3826126, "tags": {"amenity": "pharmacy", "level": "1", "name": "\u0410\u043f\u0442\u0435\u0447\u043d\u044b\u0439 \u043f\u0443\u043d\u043a\u0442", "opening_hours": "Mo-Fr 08:00-21:00; Sa-Su 10:00-19:00", "wheelchair": "no"}}, {"type": "node", "id": 3836095460, "lat": 54.9812762, "lon": 73.3806962}, {"type": "node", "id": 3882430986, "lat": 54.9814988, "lon": 73.3826432, "tags": {"clothes": "sports", "level": "1", "name": "FS", "opening_hours": "10:00-19:45", "shop": "clothes", "wheelchair": "no"}}, {"type": "node", "id": 3898668250, "lat": 54.9814337, "lon": 73.3826547, "tags": {"clothes": "women", "level": "1", "name": "Blisstore", "opening_hours": "10:00-20:00", "shop": "clothes", "wheelchair": "yes"}}, {"type": "node", "id": 3898668661, "lat": 54.9813569, "lon": 73.3826684, "tags": {"clothes": "sports", "level": "1", "name": "F.o.r.m.a", "opening_hours": "10:00-20:00", "shop": "clothes", "wheelchair": "no"}}, {"type": "node", "id": 3898668665, "lat": 54.9812044, "lon": 73.3826954, "tags": {"level": "1", "name": "Smokelab", "opening_hours": "Mo-Su 10:00-22:30", "shop": "tobacco", "wheelchair": "limited"}}, {"type": "node", "id": 4010502357, "lat": 54.9797297, "lon": 73.3827514, "tags": {"access": "private", "addr:flats": "61-80", "entrance": "staircase", "ref": "4"}}, {"type": "node", "id": 4010502364, "lat": 54.979882, "lon": 73.3827267, "tags": {"access": "private", "addr:flats": "41-60", "entrance": "staircase", "ref": "3"}}, {"type": "node", "id": 4010502365, "lat": 54.9800343, "lon": 73.382702, "tags": {"access": "private", "addr:flats": "21-40", "entrance": "staircase", "ref": "2"}}, {"type": "node", "id": 4010502366, "lat": 54.9801866, "lon": 73.3826772, "tags": {"access": "private", "addr:flats": "1-20", "entrance": "staircase", "ref": "1"}}, {"type": "node", "id": 4202575245, "lat": 54.9805786, "lon": 73.3827715, "tags": {"name": "\u041a\u0443\u0434\u0438\u043d\u043e\u0432\u0430 \u041b\u0430\u0440\u0438\u0441\u0430 \u0410\u043b\u0435\u043a\u0441\u0430\u043d\u0434\u0440\u043e\u0432\u043d\u0430", "office": "notary"}}, {"type": "node", "id": 4504708572, "lat": 54.9815985, "lon": 73.3806996, "tags": {"contact:email": "info@orteka.ru", "contact:facebook": "https://www.facebook.com/orteka.rus", "contact:instagram": "https://www.instagram.com/orteka_rus/", "contact:phone": "+7 800 333-31-12", "contact:vk": "https://vk.com/orteka_ru", "contact:website": "https://orteka.ru/salon/orteka-na-lermontova.php", "name": "\u041e\u0440\u0442\u0435\u043a\u0430", "opening_hours": "Mo-Su 10:00-20:00", "operator": "\u041d\u0418\u041a\u0410\u041c\u0415\u0414", "payment:credit_cards": "yes", "payment:debit_cards": "yes", "shop": "medical_supply", "wheelchair": "limited"}}, {"type": "node", "id": 5787556380, "lat": 54.9804388, "lon": 73.3827942, "tags": {"name": "\u042d\u043d\u0435\u0440\u0433\u043e\u0433\u0430\u0440\u0430\u043d\u0442", "office": "insurance", "opening_hours": "Mo-Th 09:00-18:00; Fr 09:00-17:00"}}, {"type": "node", "id": 6445837576, "lat": 54.9816142, "lon": 73.3826234, "tags": {"amenity": "cafe", "cuisine": "coffee_shop", "dog": "yes", "level": "1", "name": "Bradbury Coffee", "opening_hours": "Mo-Sa 08:00-20:00; Su off", "wheelchair": "yes"}}, {"type": "node", "id": 6445837577, "lat": 54.9811472, "lon": 73.3827056, "tags": {"contact:phone": "+7 950 338-03-09", "contact:website": "https://dfs.market", "level": "1", "name": "DFS", "opening_hours": "Mo-Su 10:00-21:00", "shop": "nutrition_supplements", "wheelchair": "no"}}, {"type": "node", "id": 8806950004, "lat": 54.9810625, "lon": 73.3807325, "tags": {"contact:phone": "+7 800 250-08-90", "contact:website": "https://omsk.mts.ru/", "level": "1", "name": "\u041c\u0422\u0421", "name:ru": "\u041c\u0422\u0421", "office": "telecommunication", "opening_hours": "Mo-Su 09:00-20:00", "payment:credit_cards": "yes", "payment:debit_cards": "yes", "shop": "mobile_phone", "wheelchair": "no"}}, {"type": "node", "id": 8806950005, "lat": 54.9811718, "lon": 73.3807139, "tags": {"amenity": "pharmacy", "healthcare": "pharmacy", "level": "1", "name": "\u0410\u043f\u0440\u0435\u043b\u044c", "opening_hours": "08:30-20:00", "wheelchair": "limited"}}, {"type": "node", "id": 9880568880, "lat": 54.9798413, "lon": 73.3814714, "tags": {"access": "private", "addr:flats": "46-72", "entrance": "staircase", "ref": "3"}}, {"type": "node", "id": 9880568881, "lat": 54.9798362, "lon": 73.381843, "tags": {"access": "private", "addr:flats": "19-45", "entrance": "staircase", "ref": "2"}}, {"type": "node", "id": 9880568882, "lat": 54.9798366, "lon": 73.3821633, "tags": {"access": "private", "addr:flats": "1-18", "entrance": "staircase", "ref": "1"}}, {"type": "node", "id": 11248207512, "lat": 54.9807272, "lon": 73.3826704, "tags": {"shop": "tattoo"}}, {"type": "node", "id": 11248207533, "lat": 54.9807098, "lon": 73.3823454, "tags": {"name": "Art Nail", "shop": "beauty"}}, {"type": "node", "id": 11378970777, "lat": 54.9816588, "lon": 73.3817776, "tags": {"addr:postcode": "644024", "amenity": "pharmacy", "contact:vk": "aptekaaprel", "name": "\u0424\u0430\u0440\u043c\u0430\u043a\u043e\u043f\u0435\u0439\u043a\u0430", "name:ru": "\u0410\u043f\u0440\u0435\u043b\u044c", "opening_hours": "24/7", "phone": "+7 800 200 90 01", "website": "https://apteka-april.ru/"}}, {"type": "way", "id": 57375632, "nodes": [713244252, 713243770, 2444388973, 2444388975, 713244133, 6445837577, 3898668665, 3898668661, 3898668250, 3882430986, 713243944, 713244252], "tags": {"addr:housenumber": "20", "addr:postcode": "644024", "addr:street": "\u0443\u043b\u0438\u0446\u0430 \u041b\u0435\u0440\u043c\u043e\u043d\u0442\u043e\u0432\u0430", "building": "apartments", "building:levels": "5", "roof:shape": "hipped"}}, {"type": "way", "id": 57375640, "nodes": [713243899, 713244228, 713244007, 713243828, 713244198, 713243955, 713243899], "tags": {"building": "dormitory", "building:levels": "4"}}, {"type": "way", "id": 57375653, "nodes": [713243918, 713244117, 713243877, 713243711, 4010502357, 4010502364, 4010502365, 4010502366, 713243918], "tags": {"addr:housenumber": "6", "addr:street": "\u0421\u0442\u0430\u0447\u0435\u0447\u043d\u0430\u044f \u0443\u043b\u0438\u0446\u0430", "building": "apartments", "building:levels": "5", "roof:shape": "hipped"}}, {"type": "way", "id": 57375670, "nodes": [713243837, 11248207533, 11248207512, 713244036, 4202575245, 5787556380, 713243969, 713243740, 713244110, 713243869, 713243837], "tags": {"addr:housenumber": "4", "addr:street": "\u041f\u043e\u0447\u0442\u043e\u0432\u0430\u044f \u0443\u043b\u0438\u0446\u0430", "building": "apartments", "building:levels": "5", "roof:shape": "flat"}}, {"type": "way", "id": 57375678, "nodes": [713243681, 713243859, 713244225, 3646210063, 3646210079, 713244067, 8806950004, 8806950005, 2489241208, 3836095460, 2010589116, 3613222617, 713243813, 4504708572, 3613222625, 3620537984, 3646210601, 3645490494, 3646210602, 3646210603, 985235313, 2010589115, 11378970777, 3645490500, 3646210060, 3646210604, 3646210607, 3646210606, 713244194, 3819506706, 6445837576, 713243944, 713244252, 713244039, 713243796, 713243681], "tags": {"addr:housenumber": "20", "addr:postcode": "644024", "addr:street": "\u0443\u043b\u0438\u0446\u0430 \u041b\u0435\u0440\u043c\u043e\u043d\u0442\u043e\u0432\u0430", "building": "apartments", "building:levels": "5", "roof:levels": "0", "roof:shape": "hipped"}}, {"type": "way", "id": 95645500, "nodes": [1109019897, 9880568880, 1109019931, 1109019856, 9880568881, 1109019754, 1109019590, 9880568882, 1109019730, 1109019938, 1109019858, 1109019758, 1109019806, 1109019698, 1109019918, 1109019746, 1109019946, 1109019870, 3647552368, 1109019836, 1109019725, 1109019897], "tags": {"addr:housenumber": "5", "addr:street": "\u043f\u0440\u043e\u0441\u043f\u0435\u043a\u0442 \u041a\u0430\u0440\u043b\u0430 \u041c\u0430\u0440\u043a\u0441\u0430", "building": "apartments", "building:levels": "9", "roof:shape": "flat"}}]}