{"version": 0.6, "generator": "Overpass API 0.7.62.1 084b4234", "osm3s": {"timestamp_osm_base": "2024-05-18T01:26:43Z", "copyright": "The data included in this document is from www.openstreetmap.org. The data is made available under ODbL."}, "elements": [{"type": "node", "id": 1789788087, "lat": 46.4470372, "lon": 134.3044302}, {"type": "node", "id": 1789788090, "lat": 46.4470372, "lon": 134.3046042}, {"type": "node", "id": 1789788103, "lat": 46.4476322, "lon": 134.3055652}, {"type": "node", "id": 1789788104, "lat": 46.4476335, "lon": 134.3057468}, {"type": "node", "id": 1789788131, "lat": 46.4479358, "lon": 134.3044308}, {"type": "node", "id": 1789788134, "lat": 46.4479358, "lon": 134.3046049}, {"type": "node", "id": 1789788145, "lat": 46.4481608, "lon": 134.3061134}, {"type": "node", "id": 1789788149, "lat": 46.4481617, "lon": 134.3063016}, {"type": "node", "id": 1789788154, "lat": 46.4485266, "lon": 134.3055526}, {"type": "node", "id": 1789788158, "lat": 46.4485279, "lon": 134.3057342}, {"type": "node", "id": 1789788169, "lat": 46.4487043, "lon": 134.3046946}, {"type": "node", "id": 1789788173, "lat": 46.4487108, "lon": 134.3059306}, {"type": "node", "id": 1789788175, "lat": 46.4487485, "lon": 134.3067704}, {"type": "node", "id": 1789788177, "lat": 46.4487493, "lon": 134.3069557}, {"type": "node", "id": 1789788179, "lat": 46.4488338, "lon": 134.3046932}, {"type": "node", "id": 1789788181, "lat": 46.4488403, "lon": 134.3059292}, {"type": "node", "id": 1789788183, "lat": 46.4490673, "lon": 134.3061046}, {"type": "node", "id": 1789788185, "lat": 46.4490681, "lon": 134.3062928}, {"type": "node", "id": 1789788199, "lat": 46.4496385, "lon": 134.3067628}, {"type": "node", "id": 1789788200, "lat": 46.4496393, "lon": 134.3069481}, {"type": "node", "id": 1876467437, "lat": 46.4449053, "lon": 134.3079699}, {"type": "node", "id": 1876467439, "lat": 46.4449075, "lon": 134.3081748}, {"type": "node", "id": 1876467470, "lat": 46.4454254, "lon": 134.3061197}, {"type": "node", "id": 1876467471, "lat": 46.4454265, "lon": 134.3062975}, {"type": "node", "id": 1876467485, "lat": 46.4455904, "lon": 134.306774}, {"type": "node", "id": 1876467486, "lat": 46.4455919, "lon": 134.3069617}, {"type": "node", "id": 1876467488, "lat": 46.4457497, "lon": 134.3054863}, {"type": "node", "id": 1876467490, "lat": 46.4457521, "lon": 134.3056927}, {"type": "node", "id": 1876467514, "lat": 46.4462322, "lon": 134.3067631}, {"type": "node", "id": 1876467515, "lat": 46.4462337, "lon": 134.3069507}, {"type": "node", "id": 1876467526, "lat": 46.4462656, "lon": 134.3079395}, {"type": "node", "id": 1876467528, "lat": 46.4462678, "lon": 134.3081444}, {"type": "node", "id": 1876467551, "lat": 46.4467869, "lon": 134.3061008}, {"type": "node", "id": 1876467552, "lat": 46.446788, "lon": 134.3062786}, {"type": "node", "id": 1876467571, "lat": 46.4469476, "lon": 134.305457}, {"type": "node", "id": 1876467573, "lat": 46.44695, "lon": 134.3056634}, {"type": "node", "id": 1876467639, "lat": 46.4474726, "lon": 134.3074677}, {"type": "node", "id": 1876467640, "lat": 46.447475, "lon": 134.3072946}, {"type": "node", "id": 1876467708, "lat": 46.4480532, "lon": 134.3080525}, {"type": "node", "id": 1876467709, "lat": 46.448055, "lon": 134.3078831}, {"type": "node", "id": 1876467732, "lat": 46.4483072, "lon": 134.3091355}, {"type": "node", "id": 1876467733, "lat": 46.4483078, "lon": 134.3089516}, {"type": "node", "id": 1876467758, "lat": 46.4486243, "lon": 134.3075012}, {"type": "node", "id": 1876467759, "lat": 46.4486267, "lon": 134.3073281}, {"type": "node", "id": 1876467779, "lat": 46.4489855, "lon": 134.3091397}, {"type": "node", "id": 1876467780, "lat": 46.448986, "lon": 134.3089558}, {"type": "node", "id": 1876467792, "lat": 46.4492164, "lon": 134.3080777}, {"type": "node", "id": 1876467794, "lat": 46.4492181, "lon": 134.3079082}, {"type": "node", "id": 2692194417, "lat": 46.447651, "lon": 134.3055649}, {"type": "way", "id": 167584249, "nodes": [1789788154, 1789788158, 1789788104, 1789788103, 2692194417, 1789788154], "tags": {"addr:city": "\u041b\u0443\u0447\u0435\u0433\u043e\u0440\u0441\u043a", "addr:housenumber": "11", "addr:postcode": "692001", "addr:street": "1 \u043c\u0438\u043a\u0440\u043e\u0440\u0430\u0439\u043e\u043d", "building": "apartments", "building:levels": "5"}}, {"type": "way", "id": 167584250, "nodes": [1789788179, 1789788181, 1789788173, 1789788169, 1789788179], "tags": {"addr:city": "\u041b\u0443\u0447\u0435\u0433\u043e\u0440\u0441\u043a", "addr:housenumber": "16", "addr:postcode": "692001", "addr:street": "1 \u043c\u0438\u043a\u0440\u043e\u0440\u0430\u0439\u043e\u043d", "building": "apartments", "building:levels": "5"}}, {"type": "way", "id": 167584251, "nodes": [1789788131, 1789788134, 1789788090, 1789788087, 1789788131], "tags": {"addr:city": "\u041b\u0443\u0447\u0435\u0433\u043e\u0440\u0441\u043a", "addr:housenumber": "9", "addr:postcode": "692001", "addr:street": "1 \u043c\u0438\u043a\u0440\u043e\u0440\u0430\u0439\u043e\u043d", "building": "apartments", "building:levels": "5"}}, {"type": "way", "id": 167584255, "nodes": [1789788183, 1789788185, 1789788149, 1789788145, 1789788183], "tags": {"addr:city": "\u041b\u0443\u0447\u0435\u0433\u043e\u0440\u0441\u043a", "addr:housenumber": "13", "addr:postcode": "692001", "addr:street": "1 \u043c\u0438\u043a\u0440\u043e\u0440\u0430\u0439\u043e\u043d", "building": "apartments", "building:levels": "5"}}, {"type": "way", "id": 167584256, "nodes": [1789788199, 1789788200, 1789788177, 1789788175, 1789788199], "tags": {"addr:city": "\u041b\u0443\u0447\u0435\u0433\u043e\u0440\u0441\u043a", "addr:housenumber": "14", "addr:postcode": "692001", "addr:street": "1 \u043c\u0438\u043a\u0440\u043e\u0440\u0430\u0439\u043e\u043d", "building": "apartments", "building:levels": "5"}}, {"type": "way", "id": 177190706, "nodes": [1876467514, 1876467515, 1876467486, 1876467485, 1876467514], "tags": {"addr:housenumber": "4", "addr:place": "2-\u0439 \u043c\u0438\u043a\u0440\u043e\u0440\u0430\u0439\u043e\u043d", "building": "apartments", "building:levels": "5", "source": "bing"}}, {"type": "way", "id": 177190719, "nodes": [1876467551, 1876467552, 1876467471, 1876467470, 1876467551], "tags": {"addr:city": "\u041b\u0443\u0447\u0435\u0433\u043e\u0440\u0441\u043a", "addr:housenumber": "2", "addr:place": "2-\u0439 \u043c\u0438\u043a\u0440\u043e\u0440\u0430\u0439\u043e\u043d", "building": "apartments", "building:levels": "5", "source": "bing"}}, {"type": "way", "id": 177190743, "nodes": [1876467794, 1876467792, 1876467708, 1876467709, 1876467794], "tags": {"addr:housenumber": "17", "addr:place": "2-\u0439 \u043c\u0438\u043a\u0440\u043e\u0440\u0430\u0439\u043e\u043d", "building": "apartments", "building:levels": "5", "source": "bing"}}, {"type": "way", "id": 177190751, "nodes": [1876467526, 1876467528, 1876467439, 1876467437, 1876467526], "tags": {"addr:city": "\u041b\u0443\u0447\u0435\u0433\u043e\u0440\u0441\u043a", "addr:housenumber": "6", "addr:place": "2-\u0439 \u043c\u0438\u043a\u0440\u043e\u0440\u0430\u0439\u043e\u043d", "building": "apartments", "building:levels": "5", "source": "bing"}}, {"type": "way", "id": 177190759, "nodes": [1876467759, 1876467758, 1876467639, 1876467640, 1876467759], "tags": {"addr:housenumber": "18", "addr:place": "2-\u0439 \u043c\u0438\u043a\u0440\u043e\u0440\u0430\u0439\u043e\u043d", "building": "apartments", "building:levels": "5", "source": "bing"}}, {"type": "way", "id": 177190760, "nodes": [1876467571, 1876467573, 1876467490, 1876467488, 1876467571], "tags": {"addr:housenumber": "1", "addr:place": "2-\u0439 \u043c\u0438\u043a\u0440\u043e\u0440\u0430\u0439\u043e\u043d", "building": "apartments", "building:levels": "5", "source": "bing"}}, {"type": "way", "id": 177190769, "nodes": [1876467780, 1876467779, 1876467732, 1876467733, 1876467780], "tags": {"addr:housenumber": "14", "addr:place": "2-\u0439 \u043c\u0438\u043a\u0440\u043e\u0440\u0430\u0439\u043e\u043d", "building": "apartments", "building:levels": "5", "source": "bing"}}]}