{"version": 0.6, "generator": "Overpass API 0.7.62.1 084b4234", "osm3s": {"timestamp_osm_base": "2024-05-14T10:54:15Z", "copyright": "The data included in this document is from www.openstreetmap.org. The data is made available under ODbL."}, "elements": [{"type": "node", "id": 5180476418, "lat": 55.7905738, "lon": 37.5318394, "tags": {"addr:city": "\u041c\u043e\u0441\u043a\u0432\u0430", "addr:postcode": "125167", "addr:street": "\u0443\u043b\u0438\u0446\u0430 \u0410\u0432\u0438\u0430\u043a\u043e\u043d\u0441\u0442\u0440\u0443\u043a\u0442\u043e\u0440\u0430 \u041c\u0438\u043a\u043e\u044f\u043d\u0430", "amenity": "restaurant", "cuisine": "georgian", "name": "\u0425\u043c\u0435\u043b\u0438 \u0421\u0443\u043d\u0435\u043b\u0438", "name:en": "Khmeli Suneli", "opening_hours": "Mo-Su 11:00-23:00"}}, {"type": "node", "id": 5643722687, "lat": 55.7909587, "lon": 37.5293827, "tags": {"amenity": "restaurant", "cuisine": "asian", "name": "\u0428\u0438\u043a\u0430\u0440\u0438", "phone": "+7 495 7823652", "website": "https://www.shikary.ru/"}}, {"type": "node", "id": 6777109723, "lat": 55.7900684, "lon": 37.5298227, "tags": {"amenity": "restaurant", "contact:email": "feedback@chaihona1.ru", "contact:facebook": "https://www.facebook.com/chaihona1.ru", "contact:instagram": "https://www.instagram.com/chaihona1/", "contact:phone": "+7 495 7735177", "contact:vk": "https://vk.com/chaihona1ru", "contact:website": "https://chaihona1.ru/", "email": "feedback@chaihona1.ru", "name": "\u0427\u0430\u0439\u0445\u043e\u043d\u0430 \u21161", "opening_hours": "Fr-Sa 10:00-23:00; Mo,Tu,We,Th,Su 10:00-22:00", "operator": "\u0422\u043e\u0440\u0433\u0418\u043d\u0434\u0443\u0441\u0442\u0440\u0438\u044f"}}, {"type": "node", "id": 6817534571, "lat": 55.7908357, "lon": 37.5301928, "tags": {"amenity": "restaurant", "contact:email": "feedback@chaihona1.ru", "contact:phone": "+7 495 7735177", "contact:website": "https://chaihona1.ru/", "name": "\u0427\u0430\u0439\u0445\u043e\u043d\u0430 \u21161", "opening_hours": "Fr-Sa 10:00-23:00;Mo,Tu,We,Th,Su 10:00-22:00", "operator": "\u0422\u043e\u0440\u0433\u0418\u043d\u0434\u0443\u0441\u0442\u0440\u0438\u044f"}}, {"type": "node", "id": 11545796688, "lat": 55.7898825, "lon": 37.528989, "tags": {"amenity": "restaurant", "contact:phone": "+7 495 7272893", "contact:website": "https://edoko.ru", "name": "Edoko", "opening_hours": "Fr-Sa 10:00-23:00; Mo-Th,Su 10:00-22:00"}}, {"type": "node", "id": 11545796696, "lat": 55.7898269, "lon": 37.5306927, "tags": {"amenity": "restaurant", "contact:phone": "+7 495 7272893", "contact:website": "https://fortebellorest.ru", "name": "Forte Bello", "opening_hours": "Fr-Sa 10:00-23:00; Mo-Th,Su 10:00-22:00"}}]}