{"version": 0.6, "generator": "Overpass API 0.7.62.1 084b4234", "osm3s": {"timestamp_osm_base": "2024-05-14T01:32:58Z", "copyright": "The data included in this document is from www.openstreetmap.org. The data is made available under ODbL."}, "elements": [{"type": "node", "id": 9394367234, "lat": 55.7831798, "lon": 37.5983785, "tags": {"amenity": "cafe", "contact:instagram": "https://www.instagram.com/nobo_pastry_cafe/", "contact:website": "https://nobocafe.ru/", "cuisine": "cake", "name": "Nobo", "opening_hours": "Mo-Fr 08:30-22:00; Sa,Su 09:30-22:00"}}, {"type": "node", "id": 9490290266, "lat": 55.7829838, "lon": 37.5981141, "tags": {"amenity": "cafe", "contact:instagram": "https://www.instagram.com/tokpokkimsk/", "contact:website": "https://www.tokpokki.ru/", "cuisine": "korean", "name": "\u0422\u043e\u043a\u043f\u043e\u043a\u043a\u0438"}}, {"type": "node", "id": 10820363339, "lat": 55.7839123, "lon": 37.597254, "tags": {"alt_name": "\u0411\u0440\u0430\u0442\u044c\u044f \u041a\u0430\u0440\u0430\u0432\u0430\u0435\u0432\u044b", "amenity": "cafe", "contact:instagram": "https://www.instagram.com/karavaevi.ru/", "contact:phone": "+7 495 623-71-85", "contact:telegram": "https://t.me/karavaeviru", "contact:vk": "https://vk.com/karavaeviru", "contact:website": "https://www.karavaevi.ru", "diet:vegan": "yes", "diet:vegetarian": "yes", "food": "prepared_meals", "name": "\u041a\u0443\u043b\u0438\u043d\u0430\u0440\u043d\u0430\u044f \u043b\u0430\u0432\u043a\u0430 \u0431\u0440\u0430\u0442\u044c\u0435\u0432 \u041a\u0430\u0440\u0430\u0432\u0430\u0435\u0432\u044b\u0445", "name:en": "Bratya Karavaevy", "name:uk": "\u041a\u0443\u043b\u0456\u043d\u0430\u0440\u043d\u0430 \u043a\u0440\u0430\u043c\u043d\u0438\u0446\u044f \u0431\u0440\u0430\u0442\u0456\u0432 \u041a\u0430\u0440\u0430\u0432\u0430\u0454\u0432\u0438\u0445", "opening_hours": "Mo-Su 08:00-23:00", "shop": "food", "smoking": "no", "takeaway": "yes"}}, {"type": "node", "id": 10877763341, "lat": 55.7830931, "lon": 37.5984154, "tags": {"amenity": "cafe", "contact:instagram": "https://www.instagram.com/piupiu.bistro/", "cuisine": "italian", "name": "Piu-piu", "opening_hours": "Mo-Su 12:00-24:00"}}]}