{"version": 0.6, "generator": "Overpass API 0.7.62.1 084b4234", "osm3s": {"timestamp_osm_base": "2024-05-18T01:11:28Z", "copyright": "The data included in this document is from www.openstreetmap.org. The data is made available under ODbL."}, "elements": [{"type": "node", "id": 567121570, "lat": 54.8399399, "lon": 83.0969653}, {"type": "node", "id": 567121573, "lat": 54.8400506, "lon": 83.0972204}, {"type": "node", "id": 567121574, "lat": 54.8399134, "lon": 83.0974}, {"type": "node", "id": 567121575, "lat": 54.8398027, "lon": 83.0971449}, {"type": "node", "id": 567121579, "lat": 54.840684, "lon": 83.0966302}, {"type": "node", "id": 567121581, "lat": 54.8407485, "lon": 83.0967787}, {"type": "node", "id": 567121583, "lat": 54.8402262, "lon": 83.0974621}, {"type": "node", "id": 567121585, "lat": 54.8401617, "lon": 83.0973136}, {"type": "node", "id": 567123251, "lat": 54.8405689, "lon": 83.0922041}, {"type": "node", "id": 567123257, "lat": 54.8406362, "lon": 83.0923559}, {"type": "node", "id": 567123264, "lat": 54.840252, "lon": 83.0928695}, {"type": "node", "id": 567123272, "lat": 54.8401847, "lon": 83.0927177}, {"type": "node", "id": 567123288, "lat": 54.839724, "lon": 83.0919024}, {"type": "node", "id": 567123294, "lat": 54.8396339, "lon": 83.0920224}, {"type": "node", "id": 567123301, "lat": 54.8400333, "lon": 83.0929261}, {"type": "node", "id": 567123302, "lat": 54.8401234, "lon": 83.0928061}, {"type": "node", "id": 567123314, "lat": 54.8394187, "lon": 83.0923096}, {"type": "node", "id": 567123321, "lat": 54.8398122, "lon": 83.0932178}, {"type": "node", "id": 567123331, "lat": 54.8397242, "lon": 83.0933327}, {"type": "node", "id": 567123339, "lat": 54.8393307, "lon": 83.0924245}, {"type": "node", "id": 567123356, "lat": 54.8396585, "lon": 83.0934185}, {"type": "node", "id": 567123361, "lat": 54.8397282, "lon": 83.0935795}, {"type": "node", "id": 567123368, "lat": 54.8393464, "lon": 83.0940781}, {"type": "node", "id": 567123377, "lat": 54.8392767, "lon": 83.0939171}, {"type": "node", "id": 567123387, "lat": 54.8392233, "lon": 83.0940201}, {"type": "node", "id": 567123392, "lat": 54.8391352, "lon": 83.0941369}, {"type": "node", "id": 567123398, "lat": 54.8387339, "lon": 83.0932236}, {"type": "node", "id": 567123405, "lat": 54.8388221, "lon": 83.0931068}, {"type": "node", "id": 567123419, "lat": 54.8388986, "lon": 83.0943738}, {"type": "node", "id": 567123427, "lat": 54.838812, "lon": 83.0944891}, {"type": "node", "id": 567123435, "lat": 54.8384125, "lon": 83.0935845}, {"type": "node", "id": 567123440, "lat": 54.8384991, "lon": 83.0934691}, {"type": "node", "id": 567123466, "lat": 54.8387392, "lon": 83.0946373}, {"type": "node", "id": 567123467, "lat": 54.8388089, "lon": 83.0947902}, {"type": "node", "id": 567123470, "lat": 54.8384309, "lon": 83.0953103}, {"type": "node", "id": 567123477, "lat": 54.8383611, "lon": 83.0951574}, {"type": "node", "id": 567123540, "lat": 54.8376949, "lon": 83.0960342}, {"type": "node", "id": 567123546, "lat": 54.8377608, "lon": 83.0961808}, {"type": "node", "id": 567123552, "lat": 54.8373831, "lon": 83.0966928}, {"type": "node", "id": 567123553, "lat": 54.8373172, "lon": 83.0965461}, {"type": "node", "id": 567123801, "lat": 54.8383131, "lon": 83.0952209}, {"type": "node", "id": 567123803, "lat": 54.8382175, "lon": 83.0953526}, {"type": "node", "id": 567123808, "lat": 54.8379234, "lon": 83.0946857}, {"type": "node", "id": 567123817, "lat": 54.8380155, "lon": 83.0945646}, {"type": "node", "id": 567123876, "lat": 54.8375966, "lon": 83.0951254}, {"type": "node", "id": 567123885, "lat": 54.8374979, "lon": 83.0952547}, {"type": "node", "id": 567123891, "lat": 54.8377901, "lon": 83.0959269}, {"type": "node", "id": 567123896, "lat": 54.8378888, "lon": 83.0957976}, {"type": "node", "id": 617936381, "lat": 54.8398177, "lon": 83.0978004}, {"type": "node", "id": 617936382, "lat": 54.839045, "lon": 83.0985572}, {"type": "node", "id": 617936383, "lat": 54.8390715, "lon": 83.0981226}, {"type": "node", "id": 617936384, "lat": 54.8391822, "lon": 83.0983777}, {"type": "node", "id": 617936385, "lat": 54.8389343, "lon": 83.0983021}, {"type": "node", "id": 617936386, "lat": 54.8392954, "lon": 83.0984839}, {"type": "node", "id": 617936387, "lat": 54.8393599, "lon": 83.0986324}, {"type": "node", "id": 617936388, "lat": 54.8398822, "lon": 83.0979489}, {"type": "node", "id": 1005080506, "lat": 54.8384556, "lon": 83.0950274, "tags": {"addr:city": "\u041d\u043e\u0432\u043e\u0441\u0438\u0431\u0438\u0440\u0441\u043a", "addr:flats": "33-48", "addr:street": "\u0426\u0432\u0435\u0442\u043d\u043e\u0439 \u043f\u0440\u043e\u0435\u0437\u0434", "entrance": "staircase", "ref": "3"}}, {"type": "node", "id": 1005080519, "lat": 54.8386447, "lon": 83.0947673, "tags": {"addr:city": "\u041d\u043e\u0432\u043e\u0441\u0438\u0431\u0438\u0440\u0441\u043a", "addr:flats": "1-16", "addr:street": "\u0426\u0432\u0435\u0442\u043d\u043e\u0439 \u043f\u0440\u043e\u0435\u0437\u0434", "entrance": "staircase", "ref": "1"}}, {"type": "node", "id": 1005080536, "lat": 54.8385502, "lon": 83.0948974, "tags": {"addr:city": "\u041d\u043e\u0432\u043e\u0441\u0438\u0431\u0438\u0440\u0441\u043a", "addr:flats": "17-32", "addr:street": "\u0426\u0432\u0435\u0442\u043d\u043e\u0439 \u043f\u0440\u043e\u0435\u0437\u0434", "entrance": "staircase", "ref": "2"}}, {"type": "node", "id": 1869680459, "lat": 54.8373688, "lon": 83.0964761, "tags": {"addr:flats": "33-48", "entrance": "staircase", "ref": "3"}}, {"type": "node", "id": 1869680461, "lat": 54.8375153, "lon": 83.0962776, "tags": {"addr:flats": "17-32", "entrance": "staircase", "ref": "2"}}, {"type": "node", "id": 1869680462, "lat": 54.8375386, "lon": 83.0953484, "tags": {"addr:flats": "1-16", "entrance": "staircase", "ref": "1"}}, {"type": "node", "id": 1869680472, "lat": 54.8376427, "lon": 83.0955879, "tags": {"addr:flats": "17-32", "entrance": "staircase", "ref": "2"}}, {"type": "node", "id": 1869680474, "lat": 54.8376572, "lon": 83.0960852, "tags": {"addr:flats": "1-16", "entrance": "staircase", "ref": "1"}}, {"type": "node", "id": 1869680481, "lat": 54.8377524, "lon": 83.09584, "tags": {"addr:flats": "33-48", "entrance": "staircase", "ref": "3"}}, {"type": "node", "id": 1869680486, "lat": 54.8380582, "lon": 83.0946626, "tags": {"addr:flats": "33-48", "entrance": "staircase", "ref": "3"}}, {"type": "node", "id": 1869680488, "lat": 54.8381717, "lon": 83.0949112, "tags": {"addr:flats": "17-32", "entrance": "staircase", "ref": "2"}}, {"type": "node", "id": 1869680491, "lat": 54.8382718, "lon": 83.0951302, "tags": {"addr:flats": "1-16", "entrance": "staircase", "ref": "1"}}, {"type": "node", "id": 1869680520, "lat": 54.8384559, "lon": 83.0936828, "tags": {"addr:flats": "1-16", "entrance": "staircase", "ref": "1"}}, {"type": "node", "id": 1869680528, "lat": 54.8385498, "lon": 83.0938954, "tags": {"addr:flats": "17-32", "entrance": "staircase", "ref": "2"}}, {"type": "node", "id": 1869680531, "lat": 54.8386619, "lon": 83.0941492, "tags": {"addr:flats": "33-48", "entrance": "staircase", "ref": "3"}}, {"type": "node", "id": 1869680544, "lat": 54.8387619, "lon": 83.0943758, "tags": {"addr:flats": "49-64", "entrance": "staircase", "ref": "4"}}, {"type": "node", "id": 1869680551, "lat": 54.8388693, "lon": 83.0932142, "tags": {"addr:flats": "49-64", "entrance": "staircase", "ref": "4"}}, {"type": "node", "id": 1869680557, "lat": 54.8389688, "lon": 83.0934407, "tags": {"addr:flats": "33-48", "entrance": "staircase", "ref": "3"}}, {"type": "node", "id": 1869680559, "lat": 54.8390805, "lon": 83.093695, "tags": {"addr:flats": "17-32", "entrance": "staircase", "ref": "2"}}, {"type": "node", "id": 1869680560, "lat": 54.8391839, "lon": 83.0939303, "tags": {"addr:flats": "1-16", "entrance": "staircase", "ref": "1"}}, {"type": "node", "id": 1869680582, "lat": 54.8393348, "lon": 83.0938414, "tags": {"addr:flats": "33-48", "entrance": "staircase", "ref": "3"}}, {"type": "node", "id": 1869680587, "lat": 54.8393701, "lon": 83.0925152, "tags": {"addr:flats": "1-16", "entrance": "staircase", "ref": "1"}}, {"type": "node", "id": 1869680590, "lat": 54.8394759, "lon": 83.093657, "tags": {"addr:flats": "17-32", "entrance": "staircase", "ref": "2"}}, {"type": "node", "id": 1869680591, "lat": 54.839479, "lon": 83.0927668, "tags": {"addr:flats": "17-32", "entrance": "staircase", "ref": "2"}}, {"type": "node", "id": 1869680596, "lat": 54.8395803, "lon": 83.0930004, "tags": {"addr:flats": "33-48", "entrance": "staircase", "ref": "3"}}, {"type": "node", "id": 1869680597, "lat": 54.8396097, "lon": 83.0934824, "tags": {"addr:flats": "1-16", "entrance": "staircase", "ref": "1"}}, {"type": "node", "id": 1869680599, "lat": 54.8396847, "lon": 83.0932415, "tags": {"addr:flats": "49-64", "entrance": "staircase", "ref": "4"}}, {"type": "node", "id": 1869680621, "lat": 54.8397611, "lon": 83.0919863, "tags": {"addr:flats": "49-64", "entrance": "staircase", "ref": "4"}}, {"type": "node", "id": 1869680630, "lat": 54.8398726, "lon": 83.0922386, "tags": {"addr:flats": "33-48", "entrance": "staircase", "ref": "3"}}, {"type": "node", "id": 1869680636, "lat": 54.839975, "lon": 83.0924703, "tags": {"addr:flats": "17-32", "entrance": "staircase", "ref": "2"}}, {"type": "node", "id": 1869680638, "lat": 54.8400822, "lon": 83.092713, "tags": {"addr:flats": "1-16", "entrance": "staircase", "ref": "1"}}, {"type": "node", "id": 1869680664, "lat": 54.8402424, "lon": 83.0926406, "tags": {"addr:flats": "33-48", "entrance": "staircase", "ref": "3"}}, {"type": "node", "id": 1869680678, "lat": 54.8403724, "lon": 83.092462, "tags": {"addr:flats": "17-32", "entrance": "staircase", "ref": "2"}}, {"type": "node", "id": 1869680689, "lat": 54.8405139, "lon": 83.0922723, "tags": {"addr:flats": "1-16", "entrance": "staircase", "ref": "1"}}, {"type": "node", "id": 2445916882, "lat": 54.8389836, "lon": 83.0982376}, {"type": "node", "id": 2445916883, "lat": 54.8389843, "lon": 83.0982392}, {"type": "node", "id": 2445916884, "lat": 54.8390221, "lon": 83.0981872}, {"type": "node", "id": 2445916885, "lat": 54.8390228, "lon": 83.0981888}, {"type": "node", "id": 2445916886, "lat": 54.8390936, "lon": 83.098491}, {"type": "node", "id": 2445916887, "lat": 54.8390943, "lon": 83.0984927}, {"type": "node", "id": 2445916888, "lat": 54.8391268, "lon": 83.0982501, "tags": {"access": "private", "addr:flats": "1-54", "entrance": "staircase", "ref": "1", "wheelchair": "no"}}, {"type": "node", "id": 2445916889, "lat": 54.8391321, "lon": 83.0984406}, {"type": "node", "id": 2445916890, "lat": 54.8391328, "lon": 83.0984423}, {"type": "node", "id": 2445916891, "lat": 54.839852, "lon": 83.0970803}, {"type": "node", "id": 2445916892, "lat": 54.8398527, "lon": 83.0970819}, {"type": "node", "id": 2445916893, "lat": 54.8398905, "lon": 83.0970299}, {"type": "node", "id": 2445916894, "lat": 54.8398912, "lon": 83.0970315}, {"type": "node", "id": 2445916895, "lat": 54.839962, "lon": 83.0973338}, {"type": "node", "id": 2445916896, "lat": 54.8399627, "lon": 83.0973354}, {"type": "node", "id": 2445916897, "lat": 54.8399952, "lon": 83.0970929, "tags": {"access": "private", "addr:flats": "1-54", "entrance": "staircase", "ref": "1", "wheelchair": "no"}}, {"type": "node", "id": 2445916898, "lat": 54.8400005, "lon": 83.0972834}, {"type": "node", "id": 2445916899, "lat": 54.8400012, "lon": 83.097285}, {"type": "node", "id": 2450167781, "lat": 54.8394123, "lon": 83.0985639, "tags": {"access": "private", "addr:flats": "1-15", "entrance": "staircase", "ref": "1", "wheelchair": "no"}}, {"type": "node", "id": 2450167782, "lat": 54.8395098, "lon": 83.0984362, "tags": {"access": "private", "addr:flats": "16-30", "entrance": "staircase", "ref": "2", "wheelchair": "no"}}, {"type": "node", "id": 2450167783, "lat": 54.8396117, "lon": 83.0983029, "tags": {"access": "private", "addr:flats": "31-45", "entrance": "staircase", "ref": "3", "wheelchair": "no"}}, {"type": "node", "id": 2450167784, "lat": 54.8397136, "lon": 83.0981696, "tags": {"access": "private", "addr:flats": "46-60", "entrance": "staircase", "ref": "4", "wheelchair": "no"}}, {"type": "node", "id": 2450167785, "lat": 54.8398111, "lon": 83.0980419, "tags": {"access": "private", "addr:flats": "61-75", "entrance": "staircase", "ref": "5", "wheelchair": "no"}}, {"type": "node", "id": 2450167786, "lat": 54.8402786, "lon": 83.0973936, "tags": {"access": "private", "addr:flats": "1-15", "entrance": "staircase", "ref": "1", "wheelchair": "no"}}, {"type": "node", "id": 2450167787, "lat": 54.8403761, "lon": 83.0972659, "tags": {"access": "private", "addr:flats": "16-30", "entrance": "staircase", "ref": "2", "wheelchair": "no"}}, {"type": "node", "id": 2450167788, "lat": 54.840478, "lon": 83.0971326, "tags": {"access": "private", "addr:flats": "31-45", "entrance": "staircase", "ref": "3", "wheelchair": "no"}}, {"type": "node", "id": 2450167789, "lat": 54.8405799, "lon": 83.0969993, "tags": {"access": "private", "addr:flats": "46-60", "entrance": "staircase", "ref": "4", "wheelchair": "no"}}, {"type": "node", "id": 2450167790, "lat": 54.8406774, "lon": 83.0968716, "tags": {"access": "private", "addr:flats": "61-75", "entrance": "staircase", "ref": "5", "wheelchair": "no"}}, {"type": "way", "id": 44691654, "nodes": [567121570, 2445916897, 567121573, 2445916899, 2445916898, 2445916895, 2445916896, 567121574, 567121575, 2445916891, 2445916892, 2445916894, 2445916893, 567121570], "tags": {"addr:city": "\u041d\u043e\u0432\u043e\u0441\u0438\u0431\u0438\u0440\u0441\u043a", "addr:country": "RU", "addr:housenumber": "13", "addr:postcode": "630090", "addr:street": "\u0443\u043b\u0438\u0446\u0430 \u0418\u043b\u044c\u0438\u0447\u0430", "building": "apartments", "building:colour": "#D9CFC7", "building:levels": "9", "design": "typical", "design:ref": "I-447\u0421-26", "length": "20.48", "roof:material": "tar_paper", "roof:shape": "flat", "width": "19.13"}}, {"type": "way", "id": 44691655, "nodes": [567121579, 567121581, 2450167790, 2450167789, 2450167788, 2450167787, 2450167786, 567121583, 567121585, 567121579], "tags": {"addr:city": "\u041d\u043e\u0432\u043e\u0441\u0438\u0431\u0438\u0440\u0441\u043a", "addr:country": "RU", "addr:housenumber": "15", "addr:postcode": "630090", "addr:street": "\u0443\u043b\u0438\u0446\u0430 \u0418\u043b\u044c\u0438\u0447\u0430", "building": "apartments", "building:levels": "5", "design": "typical", "design:ref": "I-464\u0410", "height": "15", "length": "72.8", "roof:shape": "flat", "width": "11.92"}}, {"type": "way", "id": 44691758, "nodes": [567123251, 567123257, 567123264, 567123272, 1869680664, 1869680678, 1869680689, 567123251], "tags": {"addr:city": "\u041d\u043e\u0432\u043e\u0441\u0438\u0431\u0438\u0440\u0441\u043a", "addr:housenumber": "29", "addr:postcode": "630090", "addr:street": "\u0426\u0432\u0435\u0442\u043d\u043e\u0439 \u043f\u0440\u043e\u0435\u0437\u0434", "building": "apartments", "building:colour": "#FDE5A8", "building:levels": "4", "roof:material": "metal", "roof:shape": "flat"}}, {"type": "way", "id": 44691759, "nodes": [567123288, 567123294, 567123301, 567123302, 1869680638, 1869680636, 1869680630, 1869680621, 567123288], "tags": {"addr:city": "\u041d\u043e\u0432\u043e\u0441\u0438\u0431\u0438\u0440\u0441\u043a", "addr:housenumber": "27", "addr:postcode": "630090", "addr:street": "\u0426\u0432\u0435\u0442\u043d\u043e\u0439 \u043f\u0440\u043e\u0435\u0437\u0434", "building": "apartments", "building:colour": "#8AB588", "building:levels": "4", "roof:material": "metal", "roof:shape": "flat"}}, {"type": "way", "id": 44691760, "nodes": [567123314, 567123321, 567123331, 1869680599, 1869680596, 1869680591, 1869680587, 567123339, 567123314], "tags": {"addr:city": "\u041d\u043e\u0432\u043e\u0441\u0438\u0431\u0438\u0440\u0441\u043a", "addr:housenumber": "25", "addr:postcode": "630090", "addr:street": "\u0426\u0432\u0435\u0442\u043d\u043e\u0439 \u043f\u0440\u043e\u0435\u0437\u0434", "building": "apartments", "building:colour": "#8AB588", "building:levels": "4", "roof:material": "metal", "roof:shape": "flat"}}, {"type": "way", "id": 44691761, "nodes": [567123356, 567123361, 567123368, 567123377, 1869680582, 1869680590, 1869680597, 567123356], "tags": {"addr:city": "\u041d\u043e\u0432\u043e\u0441\u0438\u0431\u0438\u0440\u0441\u043a", "addr:housenumber": "23", "addr:postcode": "630090", "addr:street": "\u0426\u0432\u0435\u0442\u043d\u043e\u0439 \u043f\u0440\u043e\u0435\u0437\u0434", "building": "apartments", "building:colour": "#FDE5A8", "building:levels": "4", "roof:material": "metal", "roof:shape": "flat"}}, {"type": "way", "id": 44691763, "nodes": [567123387, 567123392, 567123398, 567123405, 1869680551, 1869680557, 1869680559, 1869680560, 567123387], "tags": {"addr:city": "\u041d\u043e\u0432\u043e\u0441\u0438\u0431\u0438\u0440\u0441\u043a", "addr:housenumber": "19", "addr:postcode": "630090", "addr:street": "\u0426\u0432\u0435\u0442\u043d\u043e\u0439 \u043f\u0440\u043e\u0435\u0437\u0434", "building": "apartments", "building:colour": "#FDE5A8", "building:levels": "4", "roof:material": "metal", "roof:shape": "flat"}}, {"type": "way", "id": 44691764, "nodes": [567123419, 567123427, 1869680544, 1869680531, 1869680528, 1869680520, 567123435, 567123440, 567123419], "tags": {"addr:city": "\u041d\u043e\u0432\u043e\u0441\u0438\u0431\u0438\u0440\u0441\u043a", "addr:housenumber": "17", "addr:postcode": "630090", "addr:street": "\u0426\u0432\u0435\u0442\u043d\u043e\u0439 \u043f\u0440\u043e\u0435\u0437\u0434", "building": "apartments", "building:colour": "#8AB588", "building:levels": "4", "roof:material": "metal", "roof:shape": "flat"}}, {"type": "way", "id": 44691766, "nodes": [567123466, 567123467, 567123470, 567123477, 1005080506, 1005080536, 1005080519, 567123466], "tags": {"addr:city": "\u041d\u043e\u0432\u043e\u0441\u0438\u0431\u0438\u0440\u0441\u043a", "addr:housenumber": "15", "addr:postcode": "630090", "addr:street": "\u0426\u0432\u0435\u0442\u043d\u043e\u0439 \u043f\u0440\u043e\u0435\u0437\u0434", "building": "apartments", "building:colour": "#FDE5A8", "building:levels": "4", "roof:material": "metal", "roof:shape": "flat"}}, {"type": "way", "id": 44691768, "nodes": [567123540, 567123546, 567123552, 567123553, 1869680459, 1869680461, 1869680474, 567123540], "tags": {"addr:city": "\u041d\u043e\u0432\u043e\u0441\u0438\u0431\u0438\u0440\u0441\u043a", "addr:housenumber": "7", "addr:postcode": "630090", "addr:street": "\u0426\u0432\u0435\u0442\u043d\u043e\u0439 \u043f\u0440\u043e\u0435\u0437\u0434", "building": "apartments", "building:colour": "#FDE5A8", "building:levels": "4", "roof:material": "metal", "roof:shape": "flat"}}, {"type": "way", "id": 44691770, "nodes": [567123801, 567123803, 567123808, 567123817, 1869680486, 1869680488, 1869680491, 567123801], "tags": {"addr:city": "\u041d\u043e\u0432\u043e\u0441\u0438\u0431\u0438\u0440\u0441\u043a", "addr:housenumber": "11", "addr:postcode": "630090", "addr:street": "\u0426\u0432\u0435\u0442\u043d\u043e\u0439 \u043f\u0440\u043e\u0435\u0437\u0434", "building": "apartments", "building:colour": "#BBBF6D", "building:levels": "4", "roof:material": "metal", "roof:shape": "flat"}}, {"type": "way", "id": 44691773, "nodes": [567123876, 567123885, 1869680462, 1869680472, 1869680481, 567123891, 567123896, 567123876], "tags": {"addr:city": "\u041d\u043e\u0432\u043e\u0441\u0438\u0431\u0438\u0440\u0441\u043a", "addr:housenumber": "9", "addr:postcode": "630090", "addr:street": "\u0426\u0432\u0435\u0442\u043d\u043e\u0439 \u043f\u0440\u043e\u0435\u0437\u0434", "building": "apartments", "building:colour": "#FDE5A8", "building:levels": "4", "roof:material": "metal", "roof:shape": "flat"}}, {"type": "way", "id": 48666606, "nodes": [617936384, 2445916888, 617936383, 2445916884, 2445916885, 2445916883, 2445916882, 617936385, 617936382, 2445916887, 2445916886, 2445916889, 2445916890, 617936384], "tags": {"addr:city": "\u041d\u043e\u0432\u043e\u0441\u0438\u0431\u0438\u0440\u0441\u043a", "addr:country": "RU", "addr:housenumber": "9", "addr:postcode": "630090", "addr:street": "\u0443\u043b\u0438\u0446\u0430 \u0418\u043b\u044c\u0438\u0447\u0430", "building": "apartments", "building:colour": "#D9CFC7", "building:levels": "9", "design": "typical", "design:ref": "I-447\u0421-26", "length": "20.48", "roof:material": "tar_paper", "roof:shape": "flat", "width": "19.13"}}, {"type": "way", "id": 48666607, "nodes": [617936381, 617936388, 2450167785, 2450167784, 2450167783, 2450167782, 2450167781, 617936387, 617936386, 617936381], "tags": {"addr:city": "\u041d\u043e\u0432\u043e\u0441\u0438\u0431\u0438\u0440\u0441\u043a", "addr:country": "RU", "addr:housenumber": "11", "addr:postcode": "630090", "addr:street": "\u0443\u043b\u0438\u0446\u0430 \u0418\u043b\u044c\u0438\u0447\u0430", "building": "apartments", "building:levels": "5", "design": "typical", "design:ref": "I-464\u0410", "height": "15", "length": "72.8", "roof:material": "tar_paper", "roof:shape": "flat", "width": "11.92"}}]}