{"version": 0.6, "generator": "Overpass API 0.7.62.1 084b4234", "osm3s": {"timestamp_osm_base": "2024-05-18T01:04:05Z", "copyright": "The data included in this document is from www.openstreetmap.org. The data is made available under ODbL."}, "elements": [{"type": "node", "id": 679612780, "lat": 55.0272911, "lon": 73.2909667}, {"type": "node", "id": 679612782, "lat": 55.027335, "lon": 73.2907963}, {"type": "node", "id": 679612783, "lat": 55.0274132, "lon": 73.2905757}, {"type": "node", "id": 679612784, "lat": 55.0277497, "lon": 73.2909403}, {"type": "node", "id": 679612786, "lat": 55.0273943, "lon": 73.2910796}, {"type": "node", "id": 679612787, "lat": 55.0274457, "lon": 73.2909171}, {"type": "node", "id": 679612792, "lat": 55.0269617, "lon": 73.2918822}, {"type": "node", "id": 679612793, "lat": 55.0270649, "lon": 73.2919952}, {"type": "node", "id": 679612794, "lat": 55.0274017, "lon": 73.2923429}, {"type": "node", "id": 679612795, "lat": 55.0272989, "lon": 73.292229}, {"type": "node", "id": 679612796, "lat": 55.0274664, "lon": 73.2917689}, {"type": "node", "id": 679612797, "lat": 55.0277916, "lon": 73.2921245}, {"type": "node", "id": 679612798, "lat": 55.0275691, "lon": 73.2918827}, {"type": "node", "id": 679612819, "lat": 55.0264052, "lon": 73.2933921}, {"type": "node", "id": 679612823, "lat": 55.0261504, "lon": 73.2945433}, {"type": "node", "id": 679612824, "lat": 55.0260361, "lon": 73.2944182}, {"type": "node", "id": 679612827, "lat": 55.0265195, "lon": 73.2935172}, {"type": "node", "id": 679612833, "lat": 55.027681, "lon": 73.2930378}, {"type": "node", "id": 679612834, "lat": 55.0276017, "lon": 73.2932582}, {"type": "node", "id": 679612836, "lat": 55.0276241, "lon": 73.2925847}, {"type": "node", "id": 679612837, "lat": 55.0277197, "lon": 73.2926905}, {"type": "node", "id": 679612852, "lat": 55.0283826, "lon": 73.2903704}, {"type": "node", "id": 679612853, "lat": 55.0283052, "lon": 73.2905857}, {"type": "node", "id": 679612858, "lat": 55.0280282, "lon": 73.2913074}, {"type": "node", "id": 679612861, "lat": 55.0278872, "lon": 73.2922304}, {"type": "node", "id": 679612862, "lat": 55.0279669, "lon": 73.2914774}, {"type": "node", "id": 679612882, "lat": 55.0282001, "lon": 73.2939135}, {"type": "node", "id": 679612887, "lat": 55.0282794, "lon": 73.2936931}, {"type": "node", "id": 679703445, "lat": 55.0278028, "lon": 73.2895158}, {"type": "node", "id": 679703518, "lat": 55.02813, "lon": 73.2886227}, {"type": "node", "id": 679703519, "lat": 55.027897, "lon": 73.2896208}, {"type": "node", "id": 679703521, "lat": 55.0282241, "lon": 73.2887278}, {"type": "node", "id": 928325954, "lat": 55.027761, "lon": 73.2910118, "tags": {"check_date:opening_hours": "2022-10-07", "level": "1", "name": "\u041a\u0440\u0430\u0441\u043d\u043e\u0435 & \u0411\u0435\u043b\u043e\u0435", "opening_hours": "09:00-22:05", "payment:cash": "yes", "payment:contactless": "yes", "payment:mastercard": "yes", "payment:mir": "yes", "payment:visa": "yes", "shop": "alcohol", "website": "https://krasnoeibeloe.ru/", "wheelchair": "no"}}, {"type": "node", "id": 928325970, "lat": 55.0279386, "lon": 73.2901821, "tags": {"amenity": "post_office", "contact:facebook": "https://www.facebook.com/ruspost", "contact:phone": "+7 3812 657685; +7 3812 652253", "contact:vk": "https://vk.com/russianpost", "contact:website": "https://www.pochta.ru", "name": "\u041e\u043c\u0441\u043a 644050", "opening_hours": "Mo-Fr 08:00-20:00; Sa 09:00-18:00", "operator": "\u041f\u043e\u0447\u0442\u0430 \u0420\u043e\u0441\u0441\u0438\u0438", "operator:wikidata": "Q1502763", "operator:wikipedia": "ru:\u041f\u043e\u0447\u0442\u0430 \u0420\u043e\u0441\u0441\u0438\u0438", "ref": "644050"}}, {"type": "node", "id": 928325979, "lat": 55.0278304, "lon": 73.2895465, "tags": {"amenity": "dentist", "name": "\u0414\u0435\u043d\u0442\u0438\u0441", "opening_hours": "09:00-20:00"}}, {"type": "node", "id": 928361357, "lat": 55.0273697, "lon": 73.2923075, "tags": {"name": "\u041a\u0440\u0435\u0434\u043e", "shop": "hairdresser"}}, {"type": "node", "id": 928361361, "lat": 55.0269845, "lon": 73.2918188, "tags": {"addr:housenumber": "34", "addr:street": "\u043f\u0440\u043e\u0441\u043f\u0435\u043a\u0442 \u041c\u0438\u0440\u0430", "email": "info@fumiko.ru", "name": "Fumiko", "opening_hours": "09:00-20:00", "payment:credit_cards": "yes", "payment:debit_cards": "yes", "phone": "+7 3812 909 305", "shop": "electronics", "website": "https://fumiko.ru/", "wheelchair": "yes"}}, {"type": "node", "id": 928683057, "lat": 55.0274924, "lon": 73.2906616, "tags": {"clothes": "suits", "name": "\u0421\u0438\u043d\u0430\u0440", "opening_hours": "10:00-20:00; Su 10:00-19:00", "operator": "\u041e\u041e\u041e \u041e\u043c\u0441\u0438\u043d", "was:shop": "clothes"}}, {"type": "node", "id": 928683062, "lat": 55.0270351, "lon": 73.2916782, "tags": {"check_date:opening_hours": "2022-10-07", "name": "Vizavi", "opening_hours": "10:00-20:00", "payment:credit_cards": "yes", "payment:debit_cards": "yes", "shop": "shoes", "wheelchair": "yes"}}, {"type": "node", "id": 930245945, "lat": 55.0277041, "lon": 73.2897731, "tags": {"name": "\u0426\u0435\u043d\u0442\u0440-\u043a\u043d\u0438\u0433\u0430", "opening_hours": "10:00-20:00", "shop": "books", "wheelchair": "no"}}, {"type": "node", "id": 930245958, "lat": 55.0273848, "lon": 73.2908499, "tags": {"level": "-1", "name": "GarderoB", "opening_hours": "10:00-20:00", "shop": "second_hand", "wheelchair": "no"}}, {"type": "node", "id": 930246094, "lat": 55.0276666, "lon": 73.2898773}, {"type": "node", "id": 930246099, "lat": 55.0277458, "lon": 73.28966}, {"type": "node", "id": 930246101, "lat": 55.0278487, "lon": 73.2897772}, {"type": "node", "id": 1000841729, "lat": 55.0277887, "lon": 73.2900112}, {"type": "node", "id": 1000841746, "lat": 55.0278664, "lon": 73.2897977}, {"type": "node", "id": 2202727372, "lat": 55.0277298, "lon": 73.2922942, "tags": {"full_name": "\u0411\u044e\u0440\u043e \u0442\u0435\u0445\u043d\u0438\u0447\u0435\u0441\u043a\u043e\u0439 \u0438\u043d\u0432\u0435\u043d\u0442\u0430\u0440\u0438\u0437\u0430\u0446\u0438\u0438", "name": "\u0411\u0422\u0418", "office": "government"}}, {"type": "node", "id": 2822263923, "lat": 55.0274995, "lon": 73.2909745, "tags": {"addr:flats": "1-16", "entrance": "staircase", "ref": "1"}}, {"type": "node", "id": 2822263934, "lat": 55.0276388, "lon": 73.2911228, "tags": {"addr:flats": "17-32", "entrance": "staircase", "ref": "2"}}, {"type": "node", "id": 2822263936, "lat": 55.0277549, "lon": 73.2912473, "tags": {"addr:flats": "33-48", "entrance": "staircase", "ref": "3"}}, {"type": "node", "id": 2822263937, "lat": 55.0279007, "lon": 73.291405, "tags": {"addr:flats": "49-64", "entrance": "staircase", "ref": "4"}}, {"type": "node", "id": 3161138853, "lat": 55.0270798, "lon": 73.2915539, "tags": {"name": "Kari", "opening_hours": "10:00-21:00", "payment:credit_cards": "yes", "payment:debit_cards": "yes", "was:shop": "shoes", "wheelchair": "yes"}}, {"type": "node", "id": 3161138855, "lat": 55.0271631, "lon": 73.2913221, "tags": {"check_date:opening_hours": "2022-10-07", "clothes": "sports", "name": "Forward", "opening_hours": "09:00-20:00", "payment:credit_cards": "yes", "payment:debit_cards": "yes", "shop": "clothes", "wheelchair": "yes"}}, {"type": "node", "id": 3174829586, "lat": 55.0279874, "lon": 73.2912624, "tags": {"amenity": "language_school", "level": "1", "name": "J and S", "opening_hours": "Mo-Fr 09:30-18:30; Sa,Su off"}}, {"type": "node", "id": 3184804395, "lat": 55.0271051, "lon": 73.2914838, "tags": {"indoor": "no", "opening_hours": "24/7", "operator": "\u0421\u0431\u0435\u0440\u0431\u0430\u043d\u043a", "was:amenity": "atm"}}, {"type": "node", "id": 3214639310, "lat": 55.0273851, "lon": 73.2906545, "tags": {"name": "\u041c\u0430\u0433\u043d\u0438\u0442", "opening_hours": "08:00-22:00", "payment:credit_cards": "yes", "payment:debit_cards": "yes", "shop": "convenience", "wheelchair": "yes"}}, {"type": "node", "id": 3537759161, "lat": 55.0280104, "lon": 73.2902625, "tags": {"name": "\u041a-\u0421", "opening_hours": "10:00-20:00", "shop": "shoes"}}, {"type": "node", "id": 3586652150, "lat": 55.0273553, "lon": 73.2907388, "tags": {"amenity": "pharmacy", "contact:vk": "farmakopeika", "healthcare": "pharmacy", "name": "\u0424\u0430\u0440\u043c\u0430\u043a\u043e\u043f\u0435\u0439\u043a\u0430", "opening_hours": "Mo-Su 08:00-22:00", "phone": "+7 800 200 97 07", "website": "https://farmakopeika.ru/", "wheelchair": "yes"}}, {"type": "node", "id": 3676334061, "lat": 55.0280553, "lon": 73.2888259, "tags": {"amenity": "atm", "contact:phone": "+7 800 7758888", "contact:website": "https://www.atb.su/", "indoor": "no", "opening_hours": "24/7", "operator": "\"\u0410\u0437\u0438\u0430\u0442\u0441\u043a\u043e-\u0422\u0438\u0445\u043e\u043e\u043a\u0435\u0430\u043d\u0441\u043a\u0438\u0439 \u0411\u0430\u043d\u043a\" (\u0410\u041e)"}}, {"type": "node", "id": 3731799808, "lat": 55.0277292, "lon": 73.2897045, "tags": {"level": "-1", "name": "\u0412\u044bGo\u0414\u0430", "shop": "clothes", "wheelchair": "no"}}, {"type": "node", "id": 3819506733, "lat": 55.0277366, "lon": 73.2909851}, {"type": "node", "id": 4068075517, "lat": 55.0262044, "lon": 73.2939503, "tags": {"entrance": "main"}}, {"type": "node", "id": 4079812914, "lat": 55.0270099, "lon": 73.2919351, "tags": {"entrance": "yes"}}, {"type": "node", "id": 4092306659, "lat": 55.027346, "lon": 73.2910268, "tags": {"entrance": "yes", "wheelchair": "no"}}, {"type": "node", "id": 4185113884, "lat": 55.0281479, "lon": 73.2938563, "tags": {"name": "\u041e\u043b\u044c\u0433\u0430", "shop": "hairdresser"}}, {"type": "node", "id": 4355194271, "lat": 55.0279158, "lon": 73.2898526, "tags": {"addr:flats": "49-64", "entrance": "staircase", "ref": "4"}}, {"type": "node", "id": 4355194274, "lat": 55.0280454, "lon": 73.2899969, "tags": {"addr:flats": "33-48", "entrance": "staircase", "ref": "3"}}, {"type": "node", "id": 4355194275, "lat": 55.0281799, "lon": 73.2901465, "tags": {"addr:flats": "17-32", "entrance": "staircase", "ref": "2"}}, {"type": "node", "id": 4355194278, "lat": 55.0283246, "lon": 73.2903069, "tags": {"addr:flats": "1-16", "entrance": "staircase", "ref": "1"}}, {"type": "node", "id": 4582999773, "lat": 55.0275708, "lon": 73.2907471, "tags": {"name": "\u041c\u043e\u0441\u0438\u0433\u0440\u0430", "was:shop": "games"}}, {"type": "node", "id": 4599337391, "lat": 55.0278803, "lon": 73.2911438, "tags": {"name": "\u042d\u043b\u043e\u0434\u0435\u044f", "name:en": "Elody", "name:ru": "\u042d\u043b\u043e\u0434\u0435\u044f", "opening_hours": "Mo-Fr 09:00-19:00; Sa-Su 11:00-17:00", "phone": "607025", "shop": "computer", "website": "http://elody.ru"}}, {"type": "node", "id": 4809061554, "lat": 55.027996, "lon": 73.2913964, "tags": {"shop": "copyshop"}}, {"type": "node", "id": 5044106667, "lat": 55.0275291, "lon": 73.2919928, "tags": {"addr:flats": "21-40", "entrance": "staircase", "ref": "2"}}, {"type": "node", "id": 5044106668, "lat": 55.0274381, "lon": 73.2922427, "tags": {"addr:flats": "1-20", "entrance": "staircase", "ref": "1"}}, {"type": "node", "id": 5044106669, "lat": 55.0278471, "lon": 73.2923405, "tags": {"addr:flats": "21-40", "entrance": "staircase", "ref": "2"}}, {"type": "node", "id": 5044106670, "lat": 55.0277561, "lon": 73.2925904, "tags": {"addr:flats": "1-20", "entrance": "staircase", "ref": "1"}}, {"type": "node", "id": 6354573796, "lat": 55.0280772, "lon": 73.2903361, "tags": {"admin_level": "9", "branch": "\u0421\u043e\u0432\u0435\u0442\u0441\u043a\u0438\u0439 \u0430\u0434\u043c\u0438\u043d\u0438\u0441\u0442\u0440\u0430\u0442\u0438\u0432\u043d\u044b\u0439 \u043e\u043a\u0440\u0443\u0433", "name": "\u0421\u043b\u0435\u0434\u0441\u0442\u0432\u0435\u043d\u043d\u044b\u0439 \u043e\u0442\u0434\u0435\u043b \u043f\u043e \u0421\u043e\u0432\u0435\u0442\u0441\u043a\u043e\u043c\u0443 \u0430\u0434\u043c\u0438\u043d\u0438\u0441\u0442\u0440\u0430\u0442\u0438\u0432\u043d\u043e\u043c\u0443 \u043e\u043a\u0440\u0443\u0433\u0443 \u041e\u043c\u0441\u043a\u0430", "office": "government", "operator": "\u0421\u043b\u0435\u0434\u0441\u0442\u0432\u0435\u043d\u043d\u043e\u0435 \u0443\u043f\u0440\u0430\u0432\u043b\u0435\u043d\u0438\u0435 \u0421\u043b\u0435\u0434\u0441\u0442\u0432\u0435\u043d\u043d\u043e\u0433\u043e \u043a\u043e\u043c\u0438\u0442\u0435\u0442\u0430 \u0420\u043e\u0441\u0441\u0438\u0439\u0441\u043a\u043e\u0439 \u0424\u0435\u0434\u0435\u0440\u0430\u0446\u0438\u0438"}}, {"type": "node", "id": 6383920254, "lat": 55.0278936, "lon": 73.2935778, "tags": {"entrance": "staircase", "ref": "1"}}, {"type": "node", "id": 7298477429, "lat": 55.0279366, "lon": 73.2895126, "tags": {"addr:flats": "1-16", "entrance": "staircase", "ref": "1"}}, {"type": "node", "id": 7298477430, "lat": 55.0280168, "lon": 73.2892938, "tags": {"addr:flats": "17-32", "entrance": "staircase", "ref": "2"}}, {"type": "node", "id": 7298477431, "lat": 55.0280942, "lon": 73.2890823, "tags": {"addr:flats": "36-50", "entrance": "staircase", "ref": "3"}}, {"type": "node", "id": 7298477432, "lat": 55.0281872, "lon": 73.2888285, "tags": {"addr:flats": "51-64", "entrance": "staircase", "ref": "4"}}, {"type": "node", "id": 11417050456, "lat": 55.0263009, "lon": 73.2936819}, {"type": "node", "id": 11417050457, "lat": 55.0263629, "lon": 73.2935095}, {"type": "node", "id": 11417050459, "lat": 55.0276368, "lon": 73.2931607}, {"type": "node", "id": 11417050461, "lat": 55.0279797, "lon": 73.2933649}, {"type": "node", "id": 11417050462, "lat": 55.0279614, "lon": 73.289083}, {"type": "node", "id": 11417050463, "lat": 55.0280284, "lon": 73.2889}, {"type": "node", "id": 11417050464, "lat": 55.028072, "lon": 73.2887809}, {"type": "node", "id": 11417050465, "lat": 55.0281166, "lon": 73.2886592}, {"type": "way", "id": 53830504, "nodes": [679612861, 5044106669, 5044106670, 679612837, 679612836, 2202727372, 679612797, 679612861], "tags": {"addr:housenumber": "34\u0411", "addr:street": "\u043f\u0440\u043e\u0441\u043f\u0435\u043a\u0442 \u041c\u0438\u0440\u0430", "building": "apartments", "building:levels": "5", "roof:colour": "blue", "roof:levels": "0", "roof:shape": "hipped", "start_date": "1963"}}, {"type": "way", "id": 53830506, "nodes": [3819506733, 928325954, 4599337391, 3174829586, 679612858, 4809061554, 679612862, 2822263937, 2822263936, 2822263934, 2822263923, 679612787]}, {"type": "way", "id": 53830507, "nodes": [679612887, 679612882, 4185113884, 6383920254, 679612834, 11417050459, 679612833, 11417050461, 679612887], "tags": {"addr:housenumber": "32\u0411", "addr:street": "\u043f\u0440\u043e\u0441\u043f\u0435\u043a\u0442 \u041c\u0438\u0440\u0430", "building": "apartments", "building:levels": "5", "building:material": "brick", "roof:levels": "0", "roof:shape": "hipped", "start_date": "1962"}}, {"type": "way", "id": 53830510, "nodes": [1000841729, 930246094, 930245945, 3731799808, 930246099, 930246101, 1000841746]}, {"type": "way", "id": 53830516, "nodes": [679612827, 679612823, 679612824, 4068075517, 11417050456, 11417050457, 679612819, 679612827], "tags": {"addr:housenumber": "30", "addr:street": "\u043f\u0440\u043e\u0441\u043f\u0435\u043a\u0442 \u041c\u0438\u0440\u0430", "building": "dormitory", "building:levels": "5", "name": "\u041e\u0431\u0449\u0435\u0436\u0438\u0442\u0438\u0435 \u21161 \u041e\u043c\u0413\u041c\u0410", "roof:levels": "0", "roof:shape": "hipped"}}, {"type": "way", "id": 53830521, "nodes": [679612786, 679612793, 4079812914, 679612792, 928361361, 928683062, 3161138853, 3184804395, 3161138855, 679612780, 4092306659, 679612786], "tags": {"addr:housenumber": "34", "addr:street": "\u043f\u0440\u043e\u0441\u043f\u0435\u043a\u0442 \u041c\u0438\u0440\u0430", "building": "apartments", "building:levels": "5", "building:material": "brick", "roof:shape": "hipped", "start_date": "1963"}}, {"type": "way", "id": 53830522, "nodes": [679612798, 5044106667, 5044106668, 679612794, 928361357, 679612795, 679612796, 679612798], "tags": {"addr:housenumber": "34\u0410", "addr:street": "\u043f\u0440\u043e\u0441\u043f\u0435\u043a\u0442 \u041c\u0438\u0440\u0430", "building": "apartments", "building:levels": "5", "building:material": "brick", "roof:levels": "0", "roof:shape": "hipped", "start_date": "1962"}}, {"type": "way", "id": 53830523, "nodes": [679612787, 930245958, 679612782, 3586652150, 3214639310, 679612783, 928683057, 4582999773, 679612784, 3819506733]}, {"type": "way", "id": 53838294, "nodes": [679703521, 7298477432, 7298477431, 7298477430, 7298477429, 679703519, 928325979, 679703445, 11417050462, 11417050463, 3676334061, 11417050464, 11417050465, 679703518, 679703521], "tags": {"addr:housenumber": "40", "addr:postcode": "644050", "addr:street": "\u043f\u0440\u043e\u0441\u043f\u0435\u043a\u0442 \u041c\u0438\u0440\u0430", "building": "apartments", "building:levels": "5", "building:material": "brick", "roof:shape": "hipped", "start_date": "1966"}}, {"type": "way", "id": 86219707, "nodes": [1000841746, 4355194271, 4355194274, 4355194275, 4355194278, 679612852, 679612853, 6354573796, 3537759161, 928325970, 1000841729]}, {"type": "relation", "id": 6162921, "members": [{"type": "way", "ref": 53830510, "role": "outer"}, {"type": "way", "ref": 86219707, "role": "outer"}], "tags": {"addr:housenumber": "38", "addr:postcode": "644050", "addr:street": "\u043f\u0440\u043e\u0441\u043f\u0435\u043a\u0442 \u041c\u0438\u0440\u0430", "building": "apartments", "building:levels": "5", "building:material": "brick", "building:parts": "horizontal", "start_date": "1964", "type": "multipolygon"}}, {"type": "relation", "id": 6162922, "members": [{"type": "way", "ref": 53830506, "role": "outer"}, {"type": "way", "ref": 53830523, "role": "outer"}], "tags": {"addr:housenumber": "36", "addr:street": "\u043f\u0440\u043e\u0441\u043f\u0435\u043a\u0442 \u041c\u0438\u0440\u0430", "building": "apartments", "building:facade:material": "plaster", "building:levels": "5", "building:material": "brick", "building:parts": "horizontal", "roof:levels": "0", "roof:shape": "gabled", "start_date": "1963", "type": "multipolygon"}}]}