[{"amenity": "fast_food"}, {"amenity": "cafe"}, {"amenity": "bar"}, {"amenity": "pub"}, {"amenity": "restaurant"}, {"amenity": "college"}, {"amenity": "kindergarten"}, {"amenity": "library"}, {"amenity": "training"}, {"amenity": "school"}, {"amenity": "traffic_park"}, {"amenity": "university"}, {"amenity": "bicycle_parking"}, {"amenity": "bus_station"}, {"amenity": "car_sharing"}, {"amenity": "fuel"}, {"amenity": "parking"}, {"amenity": "taxi"}, {"amenity": "atm"}, {"amenity": "payment_terminal"}, {"amenity": "bank"}, {"amenity": "bureau_de_change"}, {"amenity": "money_transfer"}, {"amenity": "payment_centre"}, {"amenity": "clinic"}, {"amenity": "hospital"}, {"amenity": "pharmacy"}, {"amenity": "social_facility"}, {"amenity": "cinema"}, {"amenity": "community_centre"}, {"amenity": "conference_centre"}, {"amenity": "events_venue"}, {"amenity": "exhibition_centre"}, {"amenity": "nightclub"}, {"amenity": "social_centre"}, {"amenity": "theatre"}, {"amenity": "police"}, {"amenity": "post_box"}, {"amenity": "post_office"}, {"amenity": "toilets"}, {"amenity": "internet_cafe"}, {"amenity": "marketplace"}, {"building": "apartments, detached"}, {"building": "detached"}, {"building": "hotel"}, {"building": "residential"}, {"building": "commercial"}, {"building": "industrial"}, {"building": "kiosk"}, {"building": "office"}, {"building": "retail"}, {"building": "supermarket"}, {"building": "warehouse"}, {"building": "religious"}, {"building": "church"}, {"building": "government"}, {"building": "hospital"}, {"railway": "station"}, {"railway": "tram"}, {"public_transport": "platform"}, {"boundary": "administrative"}]