{"version": 0.6, "generator": "Overpass API 0.7.62.1 084b4234", "osm3s": {"timestamp_osm_base": "2024-05-03T00:28:09Z", "copyright": "The data included in this document is from www.openstreetmap.org. The data is made available under ODbL."}, "elements": [{"type": "node", "id": 4429172089, "lat": 54.7189088, "lon": 20.5031528, "tags": {"amenity": "bank", "brand": "\u0421\u0431\u0435\u0440\u0431\u0430\u043d\u043a", "brand:en": "Sberbank", "brand:ru": "\u0421\u0431\u0435\u0440\u0431\u0430\u043d\u043a", "brand:wikidata": "Q205012", "name": "\u0421\u0431\u0435\u0440\u0431\u0430\u043d\u043a", "name:en": "Sberbank", "name:ru": "\u0421\u0431\u0435\u0440\u0431\u0430\u043d\u043a", "opening_hours": "Mo-Fr 09:00-19:00; Sa 09:00-18:00; Su 09:30-15:00", "operator": "\u0421\u0431\u0435\u0440\u0431\u0430\u043d\u043a \u0420\u043e\u0441\u0441\u0438\u0438"}}, {"type": "node", "id": 8635440624, "lat": 54.7192015, "lon": 20.505158, "tags": {"amenity": "bank", "brand": "\u0420\u0413\u0421 \u0411\u0430\u043d\u043a", "brand:en": "RGS Bank", "brand:ru": "\u0420\u0413\u0421 \u0411\u0430\u043d\u043a", "brand:wikidata": "Q4397742", "contact:phone": "+7 800 7004040", "contact:website": "https://www.rgsbank.ru/", "name": "\u0420\u0413\u0421 \u0411\u0430\u043d\u043a", "name:en": "RGS Bank", "name:ru": "\u0420\u0413\u0421 \u0411\u0430\u043d\u043a", "opening_hours": "Mo-Fr 09:00-20:00;Sa 10:00-18:00"}}, {"type": "node", "id": 9648067128, "lat": 54.7189923, "lon": 20.503597, "tags": {"amenity": "bank", "brand": "\u0421\u043e\u0432\u043a\u043e\u043c\u0431\u0430\u043d\u043a", "brand:en": "Sovcom Bank", "brand:ru": "\u0421\u043e\u0432\u043a\u043e\u043c\u0431\u0430\u043d\u043a", "brand:wikidata": "Q4426566", "contact:phone": "+7 800 1000006", "contact:website": "https://sovcombank.ru/", "name": "\u0421\u043e\u0432\u043a\u043e\u043c\u0431\u0430\u043d\u043a", "name:en": "Sovcom Bank", "name:ru": "\u0421\u043e\u0432\u043a\u043e\u043c\u0431\u0430\u043d\u043a", "opening_hours": "Mo-Fr 09:00-19:00;Sa-Su 09:00-17:00"}}, {"type": "node", "id": 10281299704, "lat": 54.7196569, "lon": 20.5047047, "tags": {"amenity": "bank", "contact:email": "info@bankffin.ru", "contact:phone": "+7 401 2920666;+7 800 3029229", "contact:website": "https://bankffin.ru", "opening_hours": "Mo-Fr 09:00-18:00"}}, {"type": "node", "id": 10281299707, "lat": 54.7196724, "lon": 20.5047261, "tags": {"amenity": "bank", "contact:email": "kaliningrad@ffin.ru", "contact:phone": "+7 401 2920878", "contact:website": "https://ffin.ru", "name": "\u0424\u0440\u0438\u0434\u043e\u043c \u0444\u0438\u043d\u0430\u043d\u0441", "opening_hours": "Mo-Fr 09:00-18:00"}}]}