{"version": 0.6, "generator": "Overpass API 0.7.62.1 084b4234", "osm3s": {"timestamp_osm_base": "2024-05-03T02:54:01Z", "copyright": "The data included in this document is from www.openstreetmap.org. The data is made available under ODbL."}, "elements": [{"type": "node", "id": 1127671369, "lat": 59.9450212, "lon": 30.358838, "tags": {"amenity": "fast_food", "brand": "\u0411\u0443\u0440\u0433\u0435\u0440 \u041a\u0438\u043d\u0433", "brand:en": "Burger King", "brand:ru": "\u0411\u0443\u0440\u0433\u0435\u0440 \u041a\u0438\u043d\u0433", "brand:wikidata": "Q177054", "brand:wikipedia": "en:Burger King", "check_date": "2022-06-24", "contact:email": "FeedBack@burgerking.ru", "contact:phone": "+7 495 5445000", "contact:vk": "https://vk.com/burgerking", "contact:website": "https://burgerkingrus.ru/", "cuisine": "burger", "int_name": "Burger King", "name": "\u0411\u0443\u0440\u0433\u0435\u0440 \u041a\u0438\u043d\u0433", "name:en": "Burger King", "name:ru": "\u0411\u0443\u0440\u0433\u0435\u0440 \u041a\u0438\u043d\u0433", "note": "\u043d\u0435\u0442 \u043d\u0430 \u0441\u0430\u0439\u0442\u0435", "opening_hours": "Mo-Su 08:00-22:00", "operator": "\u0411\u0423\u0420\u0413\u0415\u0420 \u0420\u0423\u0421", "outdoor_seating": "yes", "payment:maestro": "yes", "payment:mir": "yes", "payment:visa": "yes", "payment:visa_electron": "yes", "takeaway": "yes", "toilets": "yes"}}, {"type": "node", "id": 3593498221, "lat": 59.9458698, "lon": 30.3589875, "tags": {"amenity": "fast_food", "brand": "\u0422\u0435\u0440\u0435\u043c\u043e\u043a", "brand:en": "Teremok", "brand:ru": "\u0422\u0435\u0440\u0435\u043c\u043e\u043a", "brand:wikidata": "Q4455593", "brand:wikipedia": "ru:\u0422\u0435\u0440\u0435\u043c\u043e\u043a (\u0441\u0435\u0442\u044c \u0431\u044b\u0441\u0442\u0440\u043e\u0433\u043e \u043f\u0438\u0442\u0430\u043d\u0438\u044f)", "contact:email": "spb@teremok.ru", "contact:phone": "+7 812 2446600;+7 812 3632332", "contact:vk": "https://vk.com/teremok", "contact:website": "https://teremok.ru/", "cuisine": "crepe;russian", "level": "0", "name": "\u0422\u0435\u0440\u0435\u043c\u043e\u043a", "name:en": "Teremok", "name:ru": "\u0422\u0435\u0440\u0435\u043c\u043e\u043a", "opening_hours": "Mo-Su 08:00-23:00", "operator": "\u041e\u041e\u041e \u00ab\u0422\u0435\u0440\u0435\u043c\u043e\u043a \u2014 \u0420\u0443\u0441\u0441\u043a\u0438\u0435 \u0411\u043b\u0438\u043d\u044b\u00bb", "payment:mastercard": "yes", "payment:visa": "yes", "takeaway": "yes"}}, {"type": "node", "id": 9866096599, "lat": 59.9462855, "lon": 30.3601867, "tags": {"amenity": "fast_food", "contact:email": "soc@mousetail.ru", "contact:phone": "+7 999 2388525", "contact:website": "https://mousetail.ru", "cuisine": "coffee_shop", "name": "Mouse Tail", "opening_hours": "Mo-Sa 08:00-15:30,16:00-22:00;Su 09:00-15:30,16:00-22:00"}}]}