{"version": 0.6, "generator": "Overpass API 0.7.62.1 084b4234", "osm3s": {"timestamp_osm_base": "2024-05-04T01:32:08Z", "copyright": "The data included in this document is from www.openstreetmap.org. The data is made available under ODbL."}, "elements": [{"type": "node", "id": 457412687, "lat": 54.9764497, "lon": 73.3875972}, {"type": "node", "id": 457412688, "lat": 54.9764968, "lon": 73.3882721}, {"type": "node", "id": 457412689, "lat": 54.9763353, "lon": 73.3883063}, {"type": "node", "id": 457412693, "lat": 54.9762882, "lon": 73.3876314}, {"type": "node", "id": 457412694, "lat": 54.9764201, "lon": 73.3872602}, {"type": "node", "id": 457412695, "lat": 54.9762619, "lon": 73.3872937}, {"type": "node", "id": 457412697, "lat": 54.9762763, "lon": 73.3875004}, {"type": "node", "id": 457412698, "lat": 54.9764345, "lon": 73.3874669}, {"type": "node", "id": 457412733, "lat": 54.9763916, "lon": 73.3866535}, {"type": "node", "id": 457412734, "lat": 54.9764309, "lon": 73.3872191}, {"type": "node", "id": 457412737, "lat": 54.9762711, "lon": 73.3867681}, {"type": "node", "id": 457412738, "lat": 54.9763977, "lon": 73.3867414}, {"type": "node", "id": 457412739, "lat": 54.9762917, "lon": 73.3870646}, {"type": "node", "id": 457412741, "lat": 54.9764183, "lon": 73.3870378}, {"type": "node", "id": 457419963, "lat": 54.9775723, "lon": 73.3863614}, {"type": "node", "id": 457419964, "lat": 54.9776177, "lon": 73.3870141}, {"type": "node", "id": 457419965, "lat": 54.9769812, "lon": 73.3870581}, {"type": "node", "id": 457419971, "lat": 54.9778596, "lon": 73.3869862}, {"type": "node", "id": 457419975, "lat": 54.9780425, "lon": 73.3865083}, {"type": "node", "id": 457419976, "lat": 54.9780723, "lon": 73.3869367}, {"type": "node", "id": 457419977, "lat": 54.9779473, "lon": 73.3869631}, {"type": "node", "id": 457419978, "lat": 54.9779216, "lon": 73.3865339}, {"type": "node", "id": 457420076, "lat": 54.9761783, "lon": 73.3853449}, {"type": "node", "id": 457420078, "lat": 54.9763679, "lon": 73.3856315}, {"type": "node", "id": 1264705802, "lat": 54.9779188, "lon": 73.3869737}, {"type": "node", "id": 1264705806, "lat": 54.9779476, "lon": 73.3869069}, {"type": "node", "id": 1264705811, "lat": 54.9777597, "lon": 73.3868327}, {"type": "node", "id": 1264705818, "lat": 54.9779165, "lon": 73.3869135}, {"type": "node", "id": 1264705839, "lat": 54.9779464, "lon": 73.38695}, {"type": "node", "id": 1264705886, "lat": 54.9777717, "lon": 73.3870048}, {"type": "node", "id": 1264705908, "lat": 54.9779176, "lon": 73.3869561}, {"type": "node", "id": 1264705926, "lat": 54.9779087, "lon": 73.3868013}, {"type": "node", "id": 1901737455, "lat": 54.9771602, "lon": 73.3870203}, {"type": "node", "id": 1901737456, "lat": 54.9771664, "lon": 73.3871095}, {"type": "node", "id": 1919627104, "lat": 54.9771356, "lon": 73.3879615}, {"type": "node", "id": 1919627105, "lat": 54.9771468, "lon": 73.3881215}, {"type": "node", "id": 1919627107, "lat": 54.9773222, "lon": 73.387922}, {"type": "node", "id": 1919627108, "lat": 54.9773334, "lon": 73.3880819}, {"type": "node", "id": 1919627109, "lat": 54.9773877, "lon": 73.3879317}, {"type": "node", "id": 1919627110, "lat": 54.9773972, "lon": 73.3880684}, {"type": "node", "id": 1919627111, "lat": 54.9774026, "lon": 73.3879285}, {"type": "node", "id": 1919627112, "lat": 54.9774036, "lon": 73.3879422}, {"type": "node", "id": 1919627113, "lat": 54.978114, "lon": 73.3877916}, {"type": "node", "id": 1919627114, "lat": 54.9781226, "lon": 73.3879147}, {"type": "node", "id": 1989212674, "lat": 54.9761739, "lon": 73.3858204}, {"type": "node", "id": 1989212676, "lat": 54.9762209, "lon": 73.3858102}, {"type": "node", "id": 1989212677, "lat": 54.9762313, "lon": 73.3859559}, {"type": "node", "id": 2420491394, "lat": 54.976136, "lon": 73.3853545}, {"type": "node", "id": 2427536568, "lat": 54.9761842, "lon": 73.385966}, {"type": "node", "id": 2427536569, "lat": 54.9763446, "lon": 73.3853088}, {"type": "node", "id": 2776584840, "lat": 54.9765616, "lon": 73.3881446}, {"type": "node", "id": 2776584847, "lat": 54.9765686, "lon": 73.388244}, {"type": "node", "id": 2776584852, "lat": 54.9769065, "lon": 73.3871186}, {"type": "node", "id": 2776584856, "lat": 54.9769116, "lon": 73.3871921}, {"type": "node", "id": 2776584861, "lat": 54.9770005, "lon": 73.3880174}, {"type": "node", "id": 2776584863, "lat": 54.9770098, "lon": 73.3881505}, {"type": "node", "id": 2776584865, "lat": 54.9769449, "lon": 73.3865366}, {"type": "node", "id": 2776584867, "lat": 54.9769477, "lon": 73.3865764}, {"type": "node", "id": 2776584869, "lat": 54.9769894, "lon": 73.3871756}, {"type": "node", "id": 2776584873, "lat": 54.9771209, "lon": 73.3864567}, {"type": "node", "id": 2776584875, "lat": 54.9771266, "lon": 73.3865386}, {"type": "node", "id": 4219992651, "lat": 54.9763673, "lon": 73.3882995, "tags": {"name": "\u041a\u0440\u0435\u043f\u0435\u0436", "opening_hours": "Mo-Sa 09:00-18:00", "shop": "hardware"}}, {"type": "node", "id": 4219992654, "lat": 54.976434, "lon": 73.3882854, "tags": {"name": "Marafet", "opening_hours": "10:00-19:00", "shop": "chemist"}}, {"type": "node", "id": 4293130370, "lat": 54.9761487, "lon": 73.3855291, "tags": {"name": "\u0421\u0438\u0431\u0438\u0440\u0441\u043a\u0430\u044f \u043e\u0445\u043e\u0442\u0430", "shop": "outdoor"}}, {"type": "node", "id": 4293130374, "lat": 54.9761612, "lon": 73.3857034}, {"type": "node", "id": 4293130375, "lat": 54.9763698, "lon": 73.3856576}, {"type": "node", "id": 4354425262, "lat": 54.9776596, "lon": 73.3880128, "tags": {"name": "R \u043f\u043b\u044e\u0441", "was:shop": "car_parts"}}, {"type": "node", "id": 4354425263, "lat": 54.9768778, "lon": 73.3881785, "tags": {"name": "\u0410\u0431\u0445\u0430\u0437\u0438\u044f", "was:amenity": "cafe"}}, {"type": "node", "id": 4354425264, "lat": 54.9780439, "lon": 73.3879313, "tags": {"amenity": "fast_food", "cuisine": "kebab", "name": "\u0428\u0430\u0448\u043b\u044b\u043a\u0438", "opening_hours": "Mo-Su 10:00-22:00"}}, {"type": "node", "id": 4354425266, "lat": 54.9769476, "lon": 73.3881637, "tags": {"name": "\u0412\u0438\u043d\u0430 \u041a\u0443\u0431\u0430\u043d\u0438", "was:shop": "alcohol"}}, {"type": "node", "id": 4354425268, "lat": 54.977571, "lon": 73.3880316, "tags": {"name": "\u041c\u044f\u0441\u043d\u0430\u044f \u043b\u0430\u0432\u043a\u0430", "opening_hours": "Mo-Su 09:00-21:00", "operator": "\u0421\u0438\u0431\u0438\u0440\u0441\u043a\u0438\u0435 \u043a\u043e\u043b\u0431\u0430\u0441\u044b", "shop": "butcher"}}, {"type": "node", "id": 4354425269, "lat": 54.976811, "lon": 73.3881927, "tags": {"cuisine": "pizza", "name": "\u041d\u0430\u0448\u0430 \u043f\u0438\u0446\u0446\u0430", "opening_hours": "Mo-Su 00:00-24:00", "was:amenity": "fast_food"}}, {"type": "node", "id": 4354425270, "lat": 54.9772428, "lon": 73.3881011, "tags": {"amenity": "cafe", "cuisine": "coffee_shop", "name": "\u0422\u0438\u043d\u0422\u043e \u043a\u043e\u0444\u0435", "opening_hours": "Mo-Su 09:00-21:00"}}, {"type": "node", "id": 4354425271, "lat": 54.9767301, "lon": 73.3882098, "tags": {"name": "\u0423 \u041f\u0443\u0448\u043a\u0438\u043d\u0430", "was:amenity": "pub"}}, {"type": "node", "id": 4354425273, "lat": 54.9777367, "lon": 73.3879965, "tags": {"name": "\u0422\u044e\u043a\u0430\u043b\u0438\u043d\u043e\u0447\u043a\u0430", "opening_hours": "09:00-21:00", "shop": "convenience"}}, {"type": "node", "id": 4354425275, "lat": 54.9778911, "lon": 73.3879637, "tags": {"name": "\u042d\u043a\u0441\u043f\u0435\u0434\u0438\u0446\u0438\u044f", "opening_hours": "Mo-Su 10:00-20:00", "shop": "outdoor"}}, {"type": "node", "id": 4354425281, "lat": 54.9780821, "lon": 73.3879232, "tags": {"name": "\u0412\u043e\u0434\u044f\u043d\u043e\u0439", "opening_hours": "Mo-Fr 09:00-18:00;Sa-Su 10:00-15:00", "shop": "bathroom_furnishing"}}, {"type": "node", "id": 4931123002, "lat": 54.9765034, "lon": 73.3866299, "tags": {"name": "Cleanelly", "opening_hours": "10:00-20:00", "shop": "bed"}}, {"type": "node", "id": 4931123004, "lat": 54.9773538, "lon": 73.3864075, "tags": {"name": "\u0414\u043e\u043c\u0430\u0448\u043d\u0438\u0439 \u043a\u043b\u0443\u0431", "opening_hours": "10:00-20:00", "shop": "bed"}}, {"type": "node", "id": 4931123005, "lat": 54.9763278, "lon": 73.3867562, "tags": {"alt_name": "\u0414\u041d\u0421", "brand": "DNS", "brand:en": "DNS", "brand:ru": "DNS", "brand:wikidata": "Q4036922", "brand:wikipedia": "DNS (\u0441\u0435\u0442\u044c \u043c\u0430\u0433\u0430\u0437\u0438\u043d\u043e\u0432)", "contact:facebook": "https://www.facebook.com/dnsshop", "contact:twitter": "https://twitter.com/dnsshop", "contact:vk": "https://vk.com/dnsstore", "contact:website": "https://www.dns-shop.ru/", "contact:youtube": "https://www.youtube.com/c/DNSSHOPvideo", "name": "DNS", "name:en": "DNS", "name:ru": "DNS", "operator": "\u0414\u041d\u0421 \u0420\u0438\u0442\u0435\u0439\u043b", "website": "https://www.dns-shop.ru"}}, {"type": "node", "id": 5195482614, "lat": 54.9780496, "lon": 73.3866103, "tags": {"name": "Tikkurila", "opening_hours": "Mo-Sa 10:00-19:00;Su 10:00-17:00", "shop": "paint"}}, {"type": "node", "id": 5195482624, "lat": 54.9779451, "lon": 73.3879523, "tags": {"name": "Total", "shop": "car_parts"}}, {"type": "node", "id": 6192235506, "lat": 54.9779969, "lon": 73.3879413, "tags": {"amenity": "fast_food", "name": "\u0412\u043e\u043a-\u043a\u0430\u0444\u0435", "opening_hours": "10:00-22:00"}}, {"type": "node", "id": 7167484352, "lat": 54.9762981, "lon": 73.3877738, "tags": {"amenity": "cafe", "name": "\u041f\u0430\u043d\u0434\u043e\u043a", "opening_hours": "24/7", "phone": "+7 3812 20 90 92"}}, {"type": "node", "id": 8556212288, "lat": 54.9770822, "lon": 73.3859602}, {"type": "node", "id": 8556212289, "lat": 54.9771304, "lon": 73.3859496}, {"type": "node", "id": 8556212290, "lat": 54.9770738, "lon": 73.385843}, {"type": "node", "id": 8556212291, "lat": 54.9771353, "lon": 73.3860184}, {"type": "node", "id": 8556212292, "lat": 54.977186, "lon": 73.3860073}, {"type": "node", "id": 8556212293, "lat": 54.9771726, "lon": 73.3858213}, {"type": "node", "id": 8556212294, "lat": 54.9762019, "lon": 73.3860865}, {"type": "node", "id": 8556212295, "lat": 54.9762106, "lon": 73.3862096}, {"type": "node", "id": 8556212296, "lat": 54.976306, "lon": 73.386189}, {"type": "node", "id": 8556212297, "lat": 54.9762972, "lon": 73.3860659}, {"type": "node", "id": 8806823032, "lat": 54.9777999, "lon": 73.3879831, "tags": {"name": "\u0426\u0435\u043d\u0442\u0440 \u0444\u0435\u0439\u0435\u0440\u0432\u0435\u0440\u043a\u043e\u0432", "opening_hours": "Tu-Sa 11:00-13:00,14:00-20:00;Mo,Su off", "shop": "pyrotechnics"}}, {"type": "node", "id": 8806823033, "lat": 54.9778491, "lon": 73.3879726, "tags": {"name": "Total \u041c\u043e\u0442\u043e\u0440\u043d\u044b\u0435 \u043c\u0430\u0441\u043b\u0430", "opening_hours": "09:00-20:00", "shop": "car_parts"}}, {"type": "node", "id": 9229526102, "lat": 54.9765841, "lon": 73.3866128, "tags": {"name": "\u041f\u043b\u0430\u043d\u0435\u0442\u0430 \u041e\u0434\u0435\u0436\u0434\u0430 \u041e\u0431\u0443\u0432\u044c", "shop": "clothes"}}, {"type": "node", "id": 9229526103, "lat": 54.9766685, "lon": 73.386595, "tags": {"name": "Estetica", "opening_hours": "10:00-21:00", "shop": "beauty"}}, {"type": "node", "id": 9229526104, "lat": 54.9767706, "lon": 73.3865734, "tags": {"clothes": "denim", "name": "Indigo Jeans", "opening_hours": "10:00-20:00", "shop": "clothes"}}, {"type": "node", "id": 9229526105, "lat": 54.9768874, "lon": 73.3865488, "tags": {"clothes": "denim", "name": "\u0414\u0435\u043d\u0438\u043c", "opening_hours": "10:00-20:00", "shop": "clothes"}}, {"type": "node", "id": 9229526107, "lat": 54.9775064, "lon": 73.3863753, "tags": {"name": "\u0421\u0435\u0440\u0436", "opening_hours": "10:00-20:00", "shop": "clothes"}}, {"type": "node", "id": 9229526109, "lat": 54.9778446, "lon": 73.3868148, "tags": {"shop": "greengrocer"}}, {"type": "node", "id": 9229526110, "lat": 54.9779303, "lon": 73.3866588, "tags": {"addr:postcode": "644024", "contact:vk": "dachnikomsk", "name": "\u0414\u0430\u0447\u043d\u0438\u043a", "opening_hours": "Mo-Su 09:00-19:00", "shop": "garden_centre", "website": "https://dachnik-omsk.ru"}}, {"type": "node", "id": 9233548578, "lat": 54.9775958, "lon": 73.3866991, "tags": {"name": "\u041f\u043e\u0431\u0435\u0434\u0430", "shop": "supermarket"}}, {"type": "node", "id": 11167045739, "lat": 54.9767761, "lon": 73.3880676}, {"type": "node", "id": 11167045740, "lat": 54.9767157, "lon": 73.3880804}, {"type": "node", "id": 11167045741, "lat": 54.9767179, "lon": 73.3881114}, {"type": "node", "id": 11167045742, "lat": 54.9767783, "lon": 73.3880986}, {"type": "node", "id": 11167045743, "lat": 54.9768884, "lon": 73.3880412}, {"type": "node", "id": 11167045744, "lat": 54.9768907, "lon": 73.3880748}, {"type": "node", "id": 11405136714, "lat": 54.9765896, "lon": 73.3882396}, {"type": "way", "id": 38617217, "nodes": [457412687, 457412688, 4219992654, 4219992651, 457412689, 7167484352, 457412693, 457412687], "tags": {"addr:housenumber": "72", "addr:street": "\u0443\u043b\u0438\u0446\u0430 \u041c\u0430\u0440\u0448\u0430\u043b\u0430 \u0416\u0443\u043a\u043e\u0432\u0430", "building": "retail", "building:levels": "1"}}, {"type": "way", "id": 38617218, "nodes": [457412694, 457412698, 457412697, 457412695, 457412694], "tags": {"addr:housenumber": "70\u0410/1", "addr:street": "\u0443\u043b\u0438\u0446\u0430 \u041c\u0430\u0440\u0448\u0430\u043b\u0430 \u0416\u0443\u043a\u043e\u0432\u0430", "building": "retail", "building:levels": "1", "roof:levels": "1"}}, {"type": "way", "id": 38617910, "nodes": [2776584875, 2776584873, 4931123004, 9229526107, 457419963, 9233548578, 457419964, 1901737456, 1901737455, 457419965, 2776584869, 2776584856, 2776584852, 457412734, 457412741, 457412739, 457412737, 4931123005, 457412738, 457412733, 4931123002, 9229526102, 9229526103, 9229526104, 9229526105, 2776584865, 2776584867, 2776584875], "tags": {"addr:housenumber": "59", "addr:postcode": "644050", "addr:street": "\u0443\u043b\u0438\u0446\u0430 \u041f\u0443\u0448\u043a\u0438\u043d\u0430", "building": "retail", "name": "\u041a\u0430\u0437\u0430\u0447\u044c\u044f \u0441\u043b\u043e\u0431\u043e\u0434\u0430", "opening_hours": "10:00-20:00", "shop": "mall"}}, {"type": "way", "id": 38617913, "nodes": [1264705926, 1264705818, 1264705806, 9229526110, 457419978, 457419975, 5195482614, 457419976, 457419977, 1264705839, 1264705908, 1264705802, 457419971, 1264705886, 1264705811, 9229526109, 1264705926], "tags": {"addr:housenumber": "57/1", "addr:street": "\u0443\u043b\u0438\u0446\u0430 \u041f\u0443\u0448\u043a\u0438\u043d\u0430", "building": "retail"}}, {"type": "way", "id": 181548849, "nodes": [1919627107, 1919627108, 4354425270, 1919627105, 1919627104, 1919627107], "tags": {"building": "retail", "building:levels": "1"}}, {"type": "way", "id": 181548850, "nodes": [1919627110, 1919627109, 1919627111, 1919627112, 1919627113, 1919627114, 4354425281, 4354425264, 6192235506, 5195482624, 4354425275, 8806823033, 8806823032, 4354425273, 4354425262, 4354425268, 1919627110], "tags": {"addr:housenumber": "70\u0410/4", "addr:street": "\u0443\u043b\u0438\u0446\u0430 \u041c\u0430\u0440\u0448\u0430\u043b\u0430 \u0416\u0443\u043a\u043e\u0432\u0430", "building": "retail", "building:levels": "1"}}, {"type": "way", "id": 234510259, "nodes": [2427536568, 1989212677, 1989212676, 1989212674, 2427536568], "tags": {"building": "retail", "building:levels": "1"}}, {"type": "way", "id": 272728243, "nodes": [2776584861, 2776584863, 4354425266, 4354425263, 4354425269, 4354425271, 11405136714, 2776584847, 2776584840, 11167045741, 11167045740, 11167045739, 11167045742, 11167045744, 11167045743, 2776584861], "tags": {"addr:housenumber": "70\u0410/8", "addr:street": "\u0443\u043b\u0438\u0446\u0430 \u041c\u0430\u0440\u0448\u0430\u043b\u0430 \u0416\u0443\u043a\u043e\u0432\u0430", "building": "retail", "building:levels": "1", "roof:shape": "skillion"}}, {"type": "way", "id": 430048781, "nodes": [2427536569, 457420076, 2420491394, 4293130370, 4293130374, 4293130375, 457420078, 2427536569], "tags": {"addr:housenumber": "33", "addr:street": "\u0421\u044a\u0435\u0437\u0434\u043e\u0432\u0441\u043a\u0430\u044f \u0443\u043b\u0438\u0446\u0430", "building": "retail", "building:levels": "4"}}, {"type": "way", "id": 921598793, "nodes": [8556212293, 8556212292, 8556212291, 8556212289, 8556212288, 8556212290, 8556212293], "tags": {"building": "retail"}}, {"type": "way", "id": 921598794, "nodes": [8556212297, 8556212296, 8556212295, 8556212294, 8556212297], "tags": {"building": "retail"}}]}