{"version": 0.6, "generator": "Overpass API 0.7.62.1 084b4234", "osm3s": {"timestamp_osm_base": "2024-05-03T09:44:45Z", "copyright": "The data included in this document is from www.openstreetmap.org. The data is made available under ODbL."}, "elements": [{"type": "node", "id": 1025507848, "lat": 56.4597173, "lon": 84.965526, "tags": {"amenity": "atm", "contact:website": "https://www.rosbank.ru/", "operator": "\u041f\u0410\u041e \u0420\u041e\u0421\u0411\u0410\u041d\u041a"}}, {"type": "node", "id": 1267287417, "lat": 56.4597086, "lon": 84.9658828, "tags": {"amenity": "atm", "operator": "\u041f\u0410\u041e \u0421\u0431\u0435\u0440\u0431\u0430\u043d\u043a", "website": "https://www.sberbank.ru/"}}, {"type": "node", "id": 1267287418, "lat": 56.4597187, "lon": 84.965462, "tags": {"amenity": "atm", "operator": "\u0411\u0430\u043d\u043a \u0413\u041f\u0411 (\u0410\u041e)", "website": "https://www.gazprombank.ru/"}}, {"type": "node", "id": 1267287769, "lat": 56.4597174, "lon": 84.9655836, "tags": {"amenity": "atm", "operator": "\u041e\u041e\u041e \"\u0425\u041a\u0424 \u0411\u0430\u043d\u043a\""}}, {"type": "node", "id": 1267294461, "lat": 56.4593801, "lon": 84.9639742, "tags": {"amenity": "atm", "contact:website": "https://www.rosbank.ru/", "operator": "\u041f\u0410\u041e \u0420\u041e\u0421\u0411\u0410\u041d\u041a"}}, {"type": "node", "id": 6777080784, "lat": 56.4595104, "lon": 84.9653515, "tags": {"amenity": "atm", "brand": "\u041f\u0440\u043e\u043c\u0441\u0432\u044f\u0437\u044c\u0431\u0430\u043d\u043a", "brand:en": "Promsvyazbank", "brand:wikidata": "Q649100", "contact:email": "info@psbank.ru", "contact:phone": "+7 495 7873333;+7 800 3330303", "contact:website": "https://psbank.ru/", "name:en": "Promsvyazbank", "opening_hours": "Mo-Su 10:00-22:00", "operator": "\u041f\u0440\u043e\u043c\u0441\u0432\u044f\u0437\u044c\u0431\u0430\u043d\u043a", "operator:wikidata": "Q649100"}}, {"type": "node", "id": 6950330061, "lat": 56.4603316, "lon": 84.9655533, "tags": {"amenity": "atm", "cash_in": "yes", "contact:phone": "+7 800 5557778", "contact:website": "https://www.tinkoff.ru/", "currency:RUB": "yes", "drive_through": "no", "level": "0", "opening_hours": "Mo-Su 10:00-22:00", "operator": "\u0410\u041e \"\u0422\u0438\u043d\u044c\u043a\u043e\u0444\u0444 \u0411\u0430\u043d\u043a\""}}, {"type": "node", "id": 11047049212, "lat": 56.4597193, "lon": 84.9656385, "tags": {"amenity": "atm", "operator": "\u041f\u0410\u041e \"\u0411\u0410\u041d\u041a \u0423\u0420\u0410\u041b\u0421\u0418\u0411\""}}]}