{"version": 0.6, "generator": "Overpass API 0.7.62.1 084b4234", "osm3s": {"timestamp_osm_base": "2024-05-03T03:07:07Z", "copyright": "The data included in this document is from www.openstreetmap.org. The data is made available under ODbL."}, "elements": [{"type": "node", "id": 2612145062, "lat": 55.6584721, "lon": 37.4012004, "tags": {"amenity": "atm", "currency:RUB": "yes", "currency:USD": "yes", "network": "\u041e\u0420\u0421", "note": "1\u0439 \u044d\u0442\u0430\u0436, \u0441\u043f\u0440\u0430\u0432\u0430 \u043e\u0442 \u0432\u0445\u043e\u0434\u0430 \u0432 \u0422\u0426", "opening_hours": "Mo-Su 10:00-22:00", "operator": "\u0410\u041e \"\u041a\u0440\u0435\u0434\u0438\u0442 \u0415\u0432\u0440\u043e\u043f\u0430 \u0411\u0430\u043d\u043a (\u0420\u043e\u0441\u0441\u0438\u044f)\"", "ref": "FM294", "website": "https://www.crediteurope.ru/", "wheelchair": "limited"}}, {"type": "node", "id": 2612145063, "lat": 55.6586553, "lon": 37.4015664, "tags": {"amenity": "atm", "currency:RUB": "yes", "network": "\u041e\u0420\u0421", "note": "2\u0439 \u044d\u0442\u0430\u0436, \u0440\u044f\u0434\u043e\u043c \u0441 \u044d\u0441\u043a\u0430\u043b\u0430\u0442\u043e\u0440\u043e\u043c", "opening_hours": "Mo-Su 10:00-22:00", "operator": "\u041f\u0410\u041e \u00ab\u041c\u0418\u043d\u0411\u0430\u043d\u043a\u00bb", "ref": "A0070010", "wheelchair": "limited"}}, {"type": "node", "id": 2613419443, "lat": 55.6588906, "lon": 37.40198, "tags": {"amenity": "atm", "brand": "\u0410\u043b\u044c\u0444\u0430-\u0411\u0430\u043d\u043a", "brand:en": "Alfa-Bank", "brand:ru": "\u0410\u043b\u044c\u0444\u0430-\u0411\u0430\u043d\u043a", "brand:wikidata": "Q1377835", "cash_in": "yes", "currency:RUB": "yes", "currency:USD": "yes", "name": "\u0410\u043b\u044c\u0444\u0430-\u0411\u0430\u043d\u043a", "name:en": "Alfa-Bank", "note": "1\u0439 \u044d\u0442\u0430\u0436, \u0440\u044f\u0434\u043e\u043c \u0441 \u043f\u0435\u0440\u0435\u043a\u0440\u0435\u0441\u0442\u043a\u043e\u043c", "opening_hours": "Mo-Su 10:00-22:00", "operator": "\u0410\u041e \"\u0410\u043b\u044c\u0444\u0430-\u0411\u0430\u043d\u043a\"", "operator:wikidata": "Q1377835", "wheelchair": "limited"}}, {"type": "node", "id": 5881071385, "lat": 55.6589931, "lon": 37.4018964, "tags": {"amenity": "atm", "brand": "\u0421\u0431\u0435\u0440\u0431\u0430\u043d\u043a", "brand:en": "Sberbank", "brand:ru": "\u0421\u0431\u0435\u0440\u0431\u0430\u043d\u043a", "brand:wikidata": "Q205012", "contact:email": "sberbank@sberbank.ru", "contact:facebook": "https://www.facebook.com/bankdruzey", "contact:instagram": "https://instagram.com/sberbank", "contact:website": "https://www.sberbank.ru", "currency:RUB": "yes", "name": "\u0421\u0431\u0435\u0440\u0431\u0430\u043d\u043a", "name:en": "Sberbank", "operator": "\u041f\u0410\u041e \u0421\u0431\u0435\u0440\u0431\u0430\u043d\u043a", "operator:wikidata": "Q205012", "operator:wikipedia": "ru:\u0421\u0431\u0435\u0440\u0431\u0430\u043d\u043a \u0420\u043e\u0441\u0441\u0438\u0438"}}, {"type": "node", "id": 6777031309, "lat": 55.6587403, "lon": 37.4012322, "tags": {"amenity": "atm", "brand": "\u041f\u0440\u043e\u043c\u0441\u0432\u044f\u0437\u044c\u0431\u0430\u043d\u043a", "brand:en": "Promsvyazbank", "brand:wikidata": "Q649100", "contact:email": "info@psbank.ru", "contact:phone": "+7 495 7873333;+7 800 3330303", "contact:website": "https://psbank.ru/", "name": "\u041f\u0440\u043e\u043c\u0441\u0432\u044f\u0437\u044c\u0431\u0430\u043d\u043a", "name:en": "Promsvyazbank", "opening_hours": "Mo-Su 09:00-22:00", "operator": "\u041f\u0440\u043e\u043c\u0441\u0432\u044f\u0437\u044c\u0431\u0430\u043d\u043a", "operator:wikidata": "Q649100"}}]}