{"version": 0.6, "generator": "Overpass API 0.7.62.1 084b4234", "osm3s": {"timestamp_osm_base": "2024-05-03T19:47:45Z", "copyright": "The data included in this document is from www.openstreetmap.org. The data is made available under ODbL."}, "elements": [{"type": "node", "id": 6347703629, "lat": 55.7389026, "lon": 37.6146904, "tags": {"amenity": "bank", "branch": "\u041c\u043e\u0441\u043a\u043e\u0432\u0441\u043a\u0438\u0439 \u0431\u0430\u043d\u043a", "brand": "\u0421\u0431\u0435\u0440\u0431\u0430\u043d\u043a", "brand:en": "Sberbank", "brand:ru": "\u0421\u0431\u0435\u0440\u0431\u0430\u043d\u043a", "brand:wikidata": "Q205012", "contact:facebook": "https://www.facebook.com/sberbank", "contact:instagram": "https://www.instagram.com/sberbank/", "contact:ok": "https://ok.ru/sberbank", "contact:phone": "+7 800 5555777", "contact:twitter": "https://twitter.com/sberbank/", "contact:vk": "https://vk.com/sberbank", "contact:website": "https://www.sberbank.ru", "contact:youtube": "https://www.youtube.com/sberbank", "name": "\u0421\u0431\u0435\u0440\u0431\u0430\u043d\u043a", "name:en": "Sberbank", "name:ru": "\u0421\u0431\u0435\u0440\u0431\u0430\u043d\u043a", "opening_hours": "Mo-Fr 09:00-18:00", "operator": "\u041f\u0410\u041e \u0421\u0431\u0435\u0440\u0431\u0430\u043d\u043a", "operator:wikidata": "Q205012", "operator:wikipedia": "ru:\u0421\u0431\u0435\u0440\u0431\u0430\u043d\u043a \u0420\u043e\u0441\u0441\u0438\u0438", "ref": "9038/27999", "wheelchair": "no"}}, {"type": "node", "id": 6347703630, "lat": 55.7388626, "lon": 37.6149733, "tags": {"amenity": "bank", "atm": "yes", "branch": "\u041c\u043e\u0441\u043a\u043e\u0432\u0441\u043a\u0438\u0439 \u0431\u0430\u043d\u043a", "brand": "\u0421\u0431\u0435\u0440\u0431\u0430\u043d\u043a", "brand:en": "Sberbank", "brand:ru": "\u0421\u0431\u0435\u0440\u0431\u0430\u043d\u043a", "brand:wikidata": "Q205012", "brand:wikipedia": "en:Sberbank of Russia", "contact:facebook": "https://www.facebook.com/sberbank", "contact:instagram": "https://www.instagram.com/sberbank/", "contact:ok": "https://ok.ru/sberbank", "contact:phone": "+7 800 5555550", "contact:twitter": "https://twitter.com/sberbank/", "contact:vk": "https://vk.com/sberbank", "contact:website": "https://www.sberbank.ru", "contact:youtube": "https://www.youtube.com/sberbank", "name": "\u0421\u0431\u0435\u0440\u0431\u0430\u043d\u043a", "name:en": "Sberbank", "name:ru": "\u0421\u0431\u0435\u0440\u0431\u0430\u043d\u043a", "opening_hours": "Mo-Fr 08:30-20:30; Sa 09:00-18:00; Su 10:00-16:00", "operator": "\u041f\u0410\u041e \u0421\u0431\u0435\u0440\u0431\u0430\u043d\u043a", "operator:wikidata": "Q205012", "operator:wikipedia": "ru:\u0421\u0431\u0435\u0440\u0431\u0430\u043d\u043a \u0420\u043e\u0441\u0441\u0438\u0438", "ref": "9038/01755", "wheelchair": "no"}}, {"type": "node", "id": 9505113415, "lat": 55.7402981, "lon": 37.615955, "tags": {"amenity": "bank", "brand": "\u0412\u0422\u0411", "email": "vipvtb@vtb.ru", "name": "\u0412\u0422\u0411 Private Banking", "name:en": "VTB Private Banking", "name:ru": "\u0412\u0422\u0411 Private Banking", "phone": "+78007000024", "website": "https://private.vtb.ru/"}}]}