{"version": 0.6, "generator": "Overpass API 0.7.62.1 084b4234", "osm3s": {"timestamp_osm_base": "2024-05-03T22:17:03Z", "copyright": "The data included in this document is from www.openstreetmap.org. The data is made available under ODbL."}, "elements": [{"type": "node", "id": 1034004087, "lat": 59.8680168, "lon": 30.259773, "tags": {"amenity": "atm", "brand": "\u0421\u0431\u0435\u0440\u0431\u0430\u043d\u043a", "brand:en": "Sberbank", "brand:ru": "\u0421\u0431\u0435\u0440\u0431\u0430\u043d\u043a", "brand:wikidata": "Q205012", "brand:wikipedia": "en:Sberbank of Russia", "contact:website": "https://www.sberbank.ru/", "name": "\u0421\u0431\u0435\u0440\u0431\u0430\u043d\u043a", "name:en": "Sberbank", "name:ru": "\u0421\u0431\u0435\u0440\u0431\u0430\u043d\u043a", "opening_hours": "24/7", "operator": "\u041f\u0410\u041e \u0421\u0431\u0435\u0440\u0431\u0430\u043d\u043a", "operator:wikidata": "Q205012", "operator:wikipedia": "en:Sberbank of Russia"}}, {"type": "node", "id": 3493599134, "lat": 59.8673625, "lon": 30.2612304, "tags": {"amenity": "atm", "brand": "\u0421\u0431\u0435\u0440\u0431\u0430\u043d\u043a", "brand:en": "Sberbank", "brand:ru": "\u0421\u0431\u0435\u0440\u0431\u0430\u043d\u043a", "brand:wikidata": "Q205012", "brand:wikipedia": "en:Sberbank of Russia", "cash_in": "yes", "name": "\u0421\u0431\u0435\u0440\u0431\u0430\u043d\u043a", "name:en": "Sberbank", "name:ru": "\u0421\u0431\u0435\u0440\u0431\u0430\u043d\u043a", "opening_hours": "Mo-Su,PH 05:30-00:42", "operator": "\u041f\u0410\u041e \u0421\u0431\u0435\u0440\u0431\u0430\u043d\u043a", "operator:wikidata": "Q205012", "operator:wikipedia": "en:Sberbank of Russia"}}, {"type": "node", "id": 3493599146, "lat": 59.8673283, "lon": 30.261199, "tags": {"amenity": "atm", "brand": "\u0411\u0430\u043d\u043a \u0421\u0430\u043d\u043a\u0442-\u041f\u0435\u0442\u0435\u0440\u0431\u0443\u0440\u0433", "brand:en": "Bank of Saint Petersburg", "brand:wikidata": "Q4407652", "brand:wikipedia": "ru:\u0421\u0430\u043d\u043a\u0442-\u041f\u0435\u0442\u0435\u0440\u0431\u0443\u0440\u0433 (\u0431\u0430\u043d\u043a)", "cash_in": "no", "contact:email": "info@bspb.ru", "contact:ok": "https://ok.ru/bspb", "contact:phone": "+7 812 3295050", "contact:twitter": "https://twitter.com/bank_spb", "contact:vk": "https://vk.com/bspb", "contact:website": "https://www.bspb.ru/", "currency:RUB": "yes", "name": "\u0411\u0430\u043d\u043a \u0421\u0430\u043d\u043a\u0442-\u041f\u0435\u0442\u0435\u0440\u0431\u0443\u0440\u0433", "opening_hours": "Mo-Su 05:30-24:00", "operator": "\u041f\u0410\u041e \u0411\u0430\u043d\u043a \u0421\u0430\u043d\u043a\u0442-\u041f\u0435\u0442\u0435\u0440\u0431\u0443\u0440\u0433", "operator:wikidata": "Q4407652", "operator:wikipedia": "ru:\u0421\u0430\u043d\u043a\u0442-\u041f\u0435\u0442\u0435\u0440\u0431\u0443\u0440\u0433 (\u0431\u0430\u043d\u043a)", "telegram": "https://t.me/mybspb"}}, {"type": "node", "id": 3493599148, "lat": 59.867368, "lon": 30.261202, "tags": {"amenity": "atm", "brand": "\u0412\u0422\u0411", "brand:en": "VTB Bank", "brand:wikidata": "Q1549389", "brand:wikipedia": "en:VTB Bank", "name": "\u0412\u0422\u0411", "name:en": "VTB Bank", "operator": "\u0411\u0430\u043d\u043a \u0412\u0422\u0411 (\u041f\u0410\u041e)", "operator:wikidata": "Q1549389", "operator:wikipedia": "en:VTB Bank"}}, {"type": "node", "id": 5475042374, "lat": 59.8672265, "lon": 30.2612298, "tags": {"amenity": "atm", "brand": "\u0421\u0431\u0435\u0440\u0431\u0430\u043d\u043a", "brand:en": "Sberbank", "brand:ru": "\u0421\u0431\u0435\u0440\u0431\u0430\u043d\u043a", "brand:wikidata": "Q205012", "brand:wikipedia": "en:Sberbank of Russia", "cash_in": "yes", "name": "\u0421\u0431\u0435\u0440\u0431\u0430\u043d\u043a", "name:en": "Sberbank", "name:ru": "\u0421\u0431\u0435\u0440\u0431\u0430\u043d\u043a", "operator": "\u041f\u0410\u041e \u0421\u0431\u0435\u0440\u0431\u0430\u043d\u043a", "operator:wikidata": "Q205012", "operator:wikipedia": "en:Sberbank of Russia", "ref": "551368", "wheelchair": "yes"}}, {"type": "node", "id": 6018575167, "lat": 59.867339, "lon": 30.2613337, "tags": {"amenity": "atm", "brand": "\u0412\u0422\u0411", "brand:en": "VTB Bank", "brand:wikidata": "Q1549389", "brand:wikipedia": "en:VTB Bank", "cash_in": "no", "level": "-1", "name": "\u0412\u0422\u0411", "name:en": "VTB Bank", "operator": "\u0411\u0430\u043d\u043a \u0412\u0422\u0411 (\u041f\u0410\u041e)", "operator:wikidata": "Q1549389", "operator:wikipedia": "en:VTB Bank"}}, {"type": "node", "id": 6484527470, "lat": 59.8672354, "lon": 30.2612268, "tags": {"amenity": "atm", "brand": "\u0421\u0431\u0435\u0440\u0431\u0430\u043d\u043a", "brand:en": "Sberbank", "brand:ru": "\u0421\u0431\u0435\u0440\u0431\u0430\u043d\u043a", "brand:wikidata": "Q205012", "brand:wikipedia": "en:Sberbank of Russia", "cash_in": "yes", "name": "\u0421\u0431\u0435\u0440\u0431\u0430\u043d\u043a", "name:en": "Sberbank", "name:ru": "\u0421\u0431\u0435\u0440\u0431\u0430\u043d\u043a", "operator": "\u041f\u0410\u041e \u0421\u0431\u0435\u0440\u0431\u0430\u043d\u043a", "operator:wikidata": "Q205012", "operator:wikipedia": "en:Sberbank of Russia", "wheelchair": "yes"}}]}