{"version": 0.6, "generator": "Overpass API 0.7.62.1 084b4234", "osm3s": {"timestamp_osm_base": "2024-05-03T02:51:39Z", "copyright": "The data included in this document is from www.openstreetmap.org. The data is made available under ODbL."}, "elements": [{"type": "node", "id": 668734086, "lat": 55.8233681, "lon": 37.4969072, "tags": {"amenity": "cafe", "name": "\u041f\u043e\u043b\u044c \u0411\u0435\u0439\u043a\u0435\u0440\u0438", "shop": "bakery", "website": "https://www.paulbakery.ru/"}}, {"type": "node", "id": 4193566889, "lat": 55.8230858, "lon": 37.4969244, "tags": {"amenity": "cafe", "cuisine": "georgian", "name": "\u0412\u0430\u0439 \u041c\u044d!"}}, {"type": "node", "id": 5247146610, "lat": 55.8235957, "lon": 37.497164, "tags": {"amenity": "cafe", "brand": "Cofix", "brand:en": "Cofix", "brand:he": "\u05e7\u05e4\u05d5\u05d9\u05e7\u05e1", "brand:wikidata": "Q16132717", "brand:wikipedia": "he:\u05e7\u05d5\u05e4\u05d9\u05e7\u05e1", "contact:email": "info@cofix.ru", "contact:facebook": "https://www.facebook.com/cofixrussia", "contact:instagram": "https://www.instagram.com/cofixrussia", "contact:phone": "+7 800 3508418", "contact:vk": "https://vk.com/cofixrussia", "contact:website": "https://www.cofix.global", "cuisine": "coffee_shop", "delivery": "no", "level": "3", "name": "Cofix", "name:en": "Cofix", "name:he": "\u05e7\u05d5\u05e4\u05d9\u05e7\u05e1", "opening_hours": "Mo-Su 05:00-18:00", "takeaway": "only"}}, {"type": "node", "id": 6547202914, "lat": 55.8239333, "lon": 37.4966116, "tags": {"amenity": "cafe", "contact:email": "service@hlebnasushny.ru", "contact:facebook": "https://www.facebook.com/hlebnasushny.ru", "contact:instagram": "https://www.instagram.com/hlebnasushny.ru", "contact:phone": "+7 495 4191569", "contact:website": "https://hlebnasushny.ru/", "name": "\u0425\u043b\u0435\u0431 \u041d\u0430\u0441\u0443\u0449\u043d\u044b\u0439", "opening_hours": "Mo-Fr 07:30-20:00;Sa 09:00-18:00", "operator": "\u041b\u041f\u041a", "shop": "bakery"}}, {"type": "node", "id": 8839111693, "lat": 55.8238609, "lon": 37.4975047, "tags": {"amenity": "cafe", "contact:email": "1011metropolis@gagawa.ru", "contact:phone": "+7 968 0913135", "contact:website": "https://www.gagawa.ru/", "name": "Gagawa", "opening_hours": "Mo-Su 10:00-23:00"}}]}