{"version": 0.6, "generator": "Overpass API 0.7.62.1 084b4234", "osm3s": {"timestamp_osm_base": "2024-05-02T22:43:13Z", "copyright": "The data included in this document is from www.openstreetmap.org. The data is made available under ODbL."}, "elements": [{"type": "node", "id": 4715537319, "lat": 51.6672279, "lon": 39.191826, "tags": {"amenity": "restaurant", "name": "Studio 23"}}, {"type": "node", "id": 8839111705, "lat": 51.666953, "lon": 39.19181, "tags": {"amenity": "restaurant", "contact:email": "1007.vr.galereyagagawa@mail.ru", "contact:phone": "+7 950 7540280", "contact:website": "https://www.gagawa.ru/", "name": "Gagawa", "opening_hours": "Mo-Su 10:00-22:00"}}, {"type": "node", "id": 9921223609, "lat": 51.6663982, "lon": 39.192482, "tags": {"amenity": "restaurant", "cuisine": "pizza;pasta;sushi", "name": "\u0422\u043e\u043c\u0430\u0442\u043e", "name:en": "Tomato", "name:ru": "\u0422\u043e\u043c\u0430\u0442\u043e", "phone": "+7 473 2113143", "smoking": "no", "website": "https://www.tomato-pizza.ru/"}}]}