{"version": 0.6, "generator": "Overpass API 0.7.62.1 084b4234", "osm3s": {"timestamp_osm_base": "2024-05-04T01:10:38Z", "copyright": "The data included in this document is from www.openstreetmap.org. The data is made available under ODbL."}, "elements": [{"type": "node", "id": 653125301, "lat": 43.11127, "lon": 131.9348761, "tags": {"amenity": "atm", "contact:website": "https://www.rosbank.ru/", "name:en": "Atm of Rosbank", "operator": "\u041f\u0410\u041e \u0420\u041e\u0421\u0411\u0410\u041d\u041a"}}, {"type": "node", "id": 1822481234, "lat": 43.1120572, "lon": 131.9342785, "tags": {"amenity": "atm", "operator": "\u0411\u0430\u043d\u043a \u0412\u0422\u0411 (\u041f\u0410\u041e)"}}, {"type": "node", "id": 1943943557, "lat": 43.1109649, "lon": 131.9354796, "tags": {"amenity": "atm", "contact:phone": "+7 423 2424242;+7 800 2004575;+7 800 3504202;4202", "contact:website": "https://pskb.com/", "opening_hours": "24/7", "operator": "\u041f\u0440\u0438\u043c\u0421\u043e\u0446\u0411\u0430\u043d\u043a", "source": "notes"}}, {"type": "node", "id": 2494629814, "lat": 43.1110436, "lon": 131.9361339, "tags": {"amenity": "atm", "description": "\u043d\u0435\u0441\u043a\u043e\u043b\u044c\u043a\u043e \u0431\u0430\u043d\u043a\u043e\u043c\u0430\u0442\u043e\u0432 \u0432 \u0437\u0434\u0430\u043d\u0438\u0438", "indoor": "yes", "opening_hours": "24/7", "operator": "\u041f\u0410\u041e \u0421\u0431\u0435\u0440\u0431\u0430\u043d\u043a", "source": "osm bugs"}}]}