{"version": 0.6, "generator": "Overpass API 0.7.62.1 084b4234", "osm3s": {"timestamp_osm_base": "2024-05-03T14:56:46Z", "copyright": "The data included in this document is from www.openstreetmap.org. The data is made available under ODbL."}, "elements": [{"type": "node", "id": 5773235121, "lat": 55.7517158, "lon": 37.5976476, "tags": {"amenity": "fast_food", "contact:telegram": "https://t.me/KRUNCHYDREAM", "cuisine": "donut", "name": "Krunchy Dream", "wheelchair": "yes"}}, {"type": "node", "id": 10557552985, "lat": 55.7515603, "lon": 37.5980915, "tags": {"amenity": "fast_food", "brand": "Cofix", "brand:wikidata": "Q16132717", "brand:wikipedia": "en:Cofix", "contact:email": "info@cofix.ru", "contact:facebook": "https://www.facebook.com/cofixrussia", "contact:instagram": "https://www.instagram.com/cofixrussia", "contact:phone": "+7 800 3508418", "contact:vk": "https://vk.com/cofixrussia", "contact:website": "https://cofix.global", "cuisine": "coffee_shop", "delivery": "no", "name": "Cofix", "name:en": "Cofix", "opening_hours": "Mo-Fr 07:00-23:00; Sa-Su 08:00-23:00", "takeaway": "yes"}}, {"type": "node", "id": 11397537882, "lat": 55.751783, "lon": 37.5989324, "tags": {"amenity": "fast_food", "contact:phone": "+7 915 4742707", "contact:website": "https://eazzypizza.ru", "name": "Eazzy Pizza & Gelato", "opening_hours": "Fr 08:00-00:00, Sa 00:00-00:00; Mo-Th 08:00-23:00; Su 00:00-23:00"}}]}