{"version": 0.6, "generator": "Overpass API 0.7.62.1 084b4234", "osm3s": {"timestamp_osm_base": "2024-05-03T00:41:17Z", "copyright": "The data included in this document is from www.openstreetmap.org. The data is made available under ODbL."}, "elements": [{"type": "node", "id": 934035886, "lat": 43.1116436, "lon": 131.9369895, "tags": {"amenity": "fast_food", "name": "\u0421\u0442\u043e\u043b\u043e\u0432\u0430\u044f \"\u041a\u043e\u043f\u0435\u0439\u043a\u0430\"", "name:en": "Kopeyka"}}, {"type": "node", "id": 1090214703, "lat": 43.1108847, "lon": 131.9382975, "tags": {"amenity": "fast_food", "cuisine": "japanese;sushi", "email": "rimtokyo25@gmail.com", "name": "\u0420\u0438\u043c-\u0422\u043e\u043a\u0438\u043e", "name:en": "Rim-Tokyo", "opening_hours": "Mo-Su 11:00-23:00", "phone": "+74232909772", "shop": "charity", "source": "image", "website": "http://rim-tokyo.ru"}}, {"type": "node", "id": 1096115229, "lat": 43.1114309, "lon": 131.9379225, "tags": {"amenity": "fast_food", "name": "\u041f\u0438\u0440\u043e\u0436\u043a\u0438, \u0442\u043e\u0440\u0442\u044b, \u043a\u043e\u0444\u0435", "name:en": "Pies, cakes, coffee", "source": "image"}}, {"type": "node", "id": 1599627259, "lat": 43.1118105, "lon": 131.9375544}, {"type": "node", "id": 1599627260, "lat": 43.1118132, "lon": 131.9375992}, {"type": "node", "id": 1599627263, "lat": 43.1118339, "lon": 131.9375518}, {"type": "node", "id": 1599627264, "lat": 43.1118366, "lon": 131.9375966}, {"type": "node", "id": 1694139934, "lat": 43.1121376, "lon": 131.9369844, "tags": {"amenity": "fast_food", "cuisine": "pizza", "name": "OKI-DOKI"}}, {"type": "node", "id": 2297770297, "lat": 43.1122634, "lon": 131.937895, "tags": {"amenity": "fast_food", "description": "\u0448\u0432\u0435\u0434\u0441\u043a\u0438\u0439 \u0441\u0442\u043e\u043b", "name": "\u0413\u043e\u043d\u043a\u043e\u043d\u0433", "opening_hours": "Mo-Su 10:30-22:30", "source": "openstreetbugs"}}, {"type": "node", "id": 2618104430, "lat": 43.1113859, "lon": 131.9392341, "tags": {"amenity": "fast_food", "name": "\u0411\u0443\u0440\u0433\u0435\u0440\u043d\u0430\u044f", "source": "notes"}}, {"type": "node", "id": 4405208689, "lat": 43.1106922, "lon": 131.9371641, "tags": {"amenity": "fast_food", "opening_hours": "24/7"}}, {"type": "node", "id": 6326552085, "lat": 43.1106691, "lon": 131.9375982, "tags": {"alt_name": "Kentucky Fried Chicken", "amenity": "fast_food", "brand": "KFC", "brand:wikidata": "Q524757", "cuisine": "chicken", "name": "KFC", "opening_hours": "Mo-Su 08:00-00:00", "takeaway": "yes"}}, {"type": "node", "id": 11399115999, "lat": 43.1119297, "lon": 131.9390459, "tags": {"amenity": "fast_food", "name": "\u0422\u0430\u0432\u0435\u0440\u043d\u0430 \u0423\u0434\u0430\u0447\u0430"}}, {"type": "way", "id": 146702395, "nodes": [1599627263, 1599627264, 1599627260, 1599627259, 1599627263], "tags": {"amenity": "fast_food", "building": "yes", "layer": "1", "name": "COca-Cola", "source": "image"}}]}