{"version": 0.6, "generator": "Overpass API 0.7.62.1 084b4234", "osm3s": {"timestamp_osm_base": "2024-05-02T20:12:27Z", "copyright": "The data included in this document is from www.openstreetmap.org. The data is made available under ODbL."}, "elements": [{"type": "node", "id": 1701609081, "lat": 55.8030886, "lon": 37.618313, "tags": {"addr:country": "RU", "amenity": "fast_food", "contact:email": "info@qsrsystem.ru", "contact:phone": "+7 495 9372648", "contact:website": "https://vkusnoitochka.ru/", "cuisine": "burger", "diet:vegetarian": "no", "name": "\u0412\u043a\u0443\u0441\u043d\u043e \u2014 \u0438 \u0442\u043e\u0447\u043a\u0430", "old_name": "\u041c\u0430\u043a\u0434\u043e\u043d\u0430\u043b\u0434\u0441", "old_name:en": "McDonald\u2019s", "opening_hours": "Mo-Su 09:00-23:00", "smoking": "no", "takeaway": "yes"}}, {"type": "node", "id": 1701701914, "lat": 55.8029173, "lon": 37.6183218, "tags": {"addr:country": "RU", "alt_name": "Kentucky Fried Chicken", "amenity": "fast_food", "brand": "KFC", "brand:wikidata": "Q524757", "brand:wikipedia": "en:KFC", "contact:facebook": "https://www.facebook.com/kfcrussia", "contact:website": "http://www.kfc.ru", "cuisine": "chicken", "diet:vegetarian": "no", "int_name": "KFC", "name": "KFC", "name:de": "KFC", "name:en": "KFC", "old_name": "\u0420\u043e\u0441\u0442\u0438\u043a\u2019\u0441-KFC / \u0420\u043e\u0441\u0442\u0438\u043a\u0441", "takeaway": "yes"}}, {"type": "node", "id": 1701701917, "lat": 55.803183, "lon": 37.6182423, "tags": {"amenity": "fast_food", "brand": "\u0422\u0435\u0440\u0435\u043c\u043e\u043a", "brand:en": "Teremok", "brand:ru": "\u0422\u0435\u0440\u0435\u043c\u043e\u043a", "brand:wikidata": "Q4455593", "brand:wikipedia": "ru:\u0422\u0435\u0440\u0435\u043c\u043e\u043a (\u0441\u0435\u0442\u044c \u0431\u044b\u0441\u0442\u0440\u043e\u0433\u043e \u043f\u0438\u0442\u0430\u043d\u0438\u044f)", "contact:facebook": "https://www.facebook.com/teremok", "contact:phone": "+7 495 956-27-30", "contact:website": "https://teremok.ru/", "cuisine": "crepe;russian", "diet:vegetarian": "yes", "name": "\u0422\u0435\u0440\u0435\u043c\u043e\u043a", "name:en": "Teremok", "operator:wikidata": "Q4455593", "operator:wikipedia": "ru:\u0422\u0435\u0440\u0435\u043c\u043e\u043a (\u0441\u0435\u0442\u044c \u0431\u044b\u0441\u0442\u0440\u043e\u0433\u043e \u043f\u0438\u0442\u0430\u043d\u0438\u044f)", "takeaway": "yes"}}, {"type": "node", "id": 2562816605, "lat": 55.8029918, "lon": 37.6180788, "tags": {"amenity": "fast_food", "contact:email": "help@\u0441\u0443\u0448\u0438-\u043c\u0430\u043a\u0435.\u0440\u0444", "contact:phone": "+7 495 1383838", "contact:website": "https://\u0441\u0443\u0448\u0438-\u043c\u0430\u043a\u0435.\u0440\u0444", "cuisine": "sushi", "internet_access": "wlan", "internet_access:fee": "no", "name": "\u0421\u0443\u0448\u0438 \u043c\u0430\u043a\u0435", "name:en": "Asia Cafe", "opening_hours": "Mo-Su 10:00-22:00"}}, {"type": "node", "id": 4663411900, "lat": 55.802931, "lon": 37.6181005, "tags": {"amenity": "fast_food", "brand": "\u0411\u0443\u0440\u0433\u0435\u0440 \u041a\u0438\u043d\u0433", "brand:en": "Burger King", "brand:ru": "\u0411\u0443\u0440\u0433\u0435\u0440 \u041a\u0438\u043d\u0433", "brand:wikidata": "Q177054", "brand:wikipedia": "en:Burger King", "contact:email": "info@burgerkingrus.ru", "contact:phone": "+7 495 5445000", "contact:website": "https://burgerkingrus.ru/", "cuisine": "burger", "diet:vegetarian": "no", "internet_access": "wlan", "internet_access:fee": "no", "name": "\u0411\u0443\u0440\u0433\u0435\u0440 \u041a\u0438\u043d\u0433", "name:en": "Burger King", "opening_hours": "Mo 09:00-22:50; Tu-Su 09:05-22:50", "operator": "\u0411\u0423\u0420\u0413\u0415\u0420 \u0420\u0423\u0421", "operator:phone": "+7 495 5445000", "ref": "5", "takeaway": "yes"}}, {"type": "node", "id": 4663650705, "lat": 55.8031588, "lon": 37.6183112, "tags": {"amenity": "fast_food", "name": "\u0411\u0430\u0440\u0431\u0435\u043a\u044e"}}, {"type": "node", "id": 4663650895, "lat": 55.8037379, "lon": 37.6182749, "tags": {"amenity": "fast_food", "contact:telegram": "https://t.me/KRUNCHYDREAM", "cuisine": "donut", "name": "Krunchy Dream", "takeaway": "yes"}}, {"type": "node", "id": 4663652423, "lat": 55.8030132, "lon": 37.6183477, "tags": {"amenity": "fast_food", "brand": "\u041a\u0440\u043e\u0448\u043a\u0430 \u041a\u0430\u0440\u0442\u043e\u0448\u043a\u0430", "brand:en": "Kroshka Kartoshka", "brand:ru": "\u041a\u0440\u043e\u0448\u043a\u0430 \u041a\u0430\u0440\u0442\u043e\u0448\u043a\u0430", "brand:wikidata": "Q4241838", "brand:wikipedia": "ru:\u041a\u0440\u043e\u0448\u043a\u0430 \u041a\u0430\u0440\u0442\u043e\u0448\u043a\u0430", "contact:phone": "+7 968 9457681", "contact:website": "http://www.kartoshka.com", "cuisine": "potato", "diet:vegetarian": "no", "name": "\u041a\u0440\u043e\u0448\u043a\u0430 \u041a\u0430\u0440\u0442\u043e\u0448\u043a\u0430", "name:en": "Kroshka Kartoshka", "opening_hours": "Mo-Su 10:00-22:00", "operator:wikidata": "Q4241838", "operator:wikipedia": "ru:\u041a\u0440\u043e\u0448\u043a\u0430-\u043a\u0430\u0440\u0442\u043e\u0448\u043a\u0430", "takeaway": "yes"}}, {"type": "node", "id": 4881972322, "lat": 55.8028879, "lon": 37.6182153, "tags": {"amenity": "fast_food", "cuisine": "asian", "name": "Udon&Soba", "name:en": "Udon&Soba"}}, {"type": "node", "id": 8938923824, "lat": 55.8035242, "lon": 37.6193655, "tags": {"amenity": "fast_food", "brand": "One Price Coffee", "brand:wikidata": "Q108215010", "contact:email": "b2b@onepricecoffee.com", "contact:phone": "+7 495 0153150", "contact:website": "https://onepricecoffee.com/", "cuisine": "coffee_shop", "name": "One Price Coffee", "opening_hours": "Mo-Su 10:00-22:00", "takeaway": "yes"}}]}