{"version": 0.6, "generator": "Overpass API 0.7.62.1 084b4234", "osm3s": {"timestamp_osm_base": "2024-05-03T01:02:31Z", "copyright": "The data included in this document is from www.openstreetmap.org. The data is made available under ODbL."}, "elements": [{"type": "node", "id": 2475040915, "lat": 59.8495273, "lon": 30.1437232, "tags": {"amenity": "fast_food", "brand": "\u0412\u043a\u0443\u0441\u043d\u043e \u2014 \u0438 \u0442\u043e\u0447\u043a\u0430", "brand:ru": "\u0412\u043a\u0443\u0441\u043d\u043e \u2014 \u0438 \u0442\u043e\u0447\u043a\u0430", "brand:wikidata": "Q112406961", "breakfast": "no", "contact:email": "info@qsrsystem.ru", "contact:phone": "+7 812 3835820", "contact:vk": "https://vk.com/vkusno_itochka", "contact:website": "https://vkusnoitochka.ru", "cuisine": "burger", "drive_through": "no", "internet_access": "wlan", "level": "3", "name": "\u0412\u043a\u0443\u0441\u043d\u043e \u2014 \u0438 \u0442\u043e\u0447\u043a\u0430", "name:ru": "\u0412\u043a\u0443\u0441\u043d\u043e \u2014 \u0438 \u0442\u043e\u0447\u043a\u0430", "old_name": "\u041c\u0430\u043a\u0434\u043e\u043d\u0430\u043b\u0434\u0441", "old_name:en": "McDonald\u2019s", "opening_hours": "Mo-Su 10:00-22:30", "smoking": "no", "takeaway": "yes", "toilets:wheelchair": "yes", "wheelchair": "yes"}}, {"type": "node", "id": 8555982968, "lat": 59.8495771, "lon": 30.144648, "tags": {"addr:city": "\u0421\u0430\u043d\u043a\u0442-\u041f\u0435\u0442\u0435\u0440\u0431\u0443\u0440\u0433", "addr:housenumber": "51", "addr:postcode": "198206", "addr:street": "\u041f\u0435\u0442\u0435\u0440\u0433\u043e\u0444\u0441\u043a\u043e\u0435 \u0448\u043e\u0441\u0441\u0435", "amenity": "fast_food", "contact:vk": "https://vk.com/prostovasya24", "cuisine": "kebab", "drive_through": "no", "email": "info@prostovasya.ru", "level": "1", "name": "\u041f\u0440\u043e\u0441\u0442\u043e \u0412\u0430\u0441\u044f", "opening_hours": "Mo-Su 07:00-05:00", "phone": "+7 (964) 349 55 06"}}, {"type": "node", "id": 8938923943, "lat": 59.849296, "lon": 30.1445237, "tags": {"amenity": "fast_food", "brand": "One Price Coffee", "brand:wikidata": "Q108215010", "contact:email": "b2b@onepricecoffee.com", "contact:phone": "+7 495 0153150", "contact:website": "https://onepricecoffee.com/", "cuisine": "coffee_shop", "level": "3", "name": "One Price Coffee", "opening_hours": "Mo-Su 10:00-22:00", "takeaway": "yes"}}, {"type": "node", "id": 9254756187, "lat": 59.8498214, "lon": 30.145605}, {"type": "node", "id": 9254756188, "lat": 59.8497989, "lon": 30.1456051}, {"type": "node", "id": 9254756189, "lat": 59.8497991, "lon": 30.1457616}, {"type": "node", "id": 9254756190, "lat": 59.8498215, "lon": 30.1457616}, {"type": "node", "id": 9254756195, "lat": 59.8498535, "lon": 30.1450026}, {"type": "node", "id": 9254756196, "lat": 59.8498194, "lon": 30.1450022}, {"type": "node", "id": 9254756224, "lat": 59.8498197, "lon": 30.1448961}, {"type": "node", "id": 9254756226, "lat": 59.8498538, "lon": 30.1448965}, {"type": "node", "id": 9889945482, "lat": 59.8498443, "lon": 30.1449099, "tags": {"amenity": "fast_food", "contact:email": "spb@teremok.ru", "contact:phone": "+7 812 2446600;+7 812 3632332", "contact:website": "https://teremok.ru/", "name": "\u0422\u0435\u0440\u0435\u043c\u043e\u043a", "opening_hours": "Mo-Su 10:00-22:00"}}, {"type": "node", "id": 11169351741, "lat": 59.8493202, "lon": 30.1449075, "tags": {"amenity": "fast_food", "contact:phone": "+7 911 7081240", "contact:website": "https://www.vitajuice.ru", "cuisine": "juice", "name": "Vita Juice", "opening_hours": "Mo-Sa 10:00-22:00; Su 10:00-21:30"}}, {"type": "node", "id": 11482389818, "lat": 59.8493054, "lon": 30.1447247, "tags": {"amenity": "fast_food", "contact:email": "info@franklinsburger.ru", "contact:phone": "+7 499 1507080", "contact:website": "https://www.franklins.ru", "cuisine": "burger", "name": "\u0424\u0440\u0430\u043d\u043a\u043b\u0438\u043d\u0441 \u0411\u0443\u0440\u0433\u0435\u0440", "opening_hours": "Mo-Su 10:00-22:00"}}, {"type": "node", "id": 11622322944, "lat": 59.8491166, "lon": 30.1431997, "tags": {"amenity": "fast_food", "contact:phone": "+7 993 9608492", "contact:website": "https://cofix.global", "cuisine": "coffee_shop", "name": "Cofix", "opening_hours": "Mo-Su 10:00-22:00"}}, {"type": "way", "id": 1002818266, "nodes": [9254756187, 9254756188, 9254756189, 9254756190, 9254756187], "tags": {"amenity": "fast_food", "building": "yes", "name": "Forest Camp", "opening_hours": "Mo-Fr 09:00-22:00; Sa,Su 10:00-22:00", "wheelchair": "no"}}, {"type": "way", "id": 1002818268, "nodes": [9254756195, 9254756196, 9254756224, 9254756226, 9254756195], "tags": {"amenity": "fast_food", "building": "yes", "name": "Coffee SOS", "opening_hours": "Mo-Fr 08:00-22:30; Sa,Su 10:00-22:00", "wheelchair": "no"}}]}