{"version": 0.6, "generator": "Overpass API 0.7.62.1 084b4234", "osm3s": {"timestamp_osm_base": "2024-05-03T09:14:06Z", "copyright": "The data included in this document is from www.openstreetmap.org. The data is made available under ODbL."}, "elements": [{"type": "node", "id": 2721654566, "lat": 57.806652, "lon": 28.3462221, "tags": {"amenity": "atm", "brand": "\u0410\u043b\u044c\u0444\u0430-\u0411\u0430\u043d\u043a", "brand:en": "Alfa-Bank", "brand:ru": "\u0410\u043b\u044c\u0444\u0430-\u0411\u0430\u043d\u043a", "brand:wikidata": "Q1377835", "currency:RUB": "yes", "drive_through": "no", "name": "\u0410\u043b\u044c\u0444\u0430-\u0411\u0430\u043d\u043a", "name:en": "Alfa-Bank", "name:ru": "\u0410\u043b\u044c\u0444\u0430-\u0411\u0430\u043d\u043a", "operator": "\u0410\u043b\u044c\u0444\u0430-\u0411\u0430\u043d\u043a", "operator:wikidata": "Q1377835"}}, {"type": "node", "id": 3530657709, "lat": 57.8070948, "lon": 28.3468697, "tags": {"amenity": "atm", "brand": "\u0412\u0422\u0411", "brand:en": "VTB Bank", "brand:wikidata": "Q1549389", "name": "\u0412\u0422\u0411", "name:en": "VTB Bank", "operator": "\u0411\u0430\u043d\u043a \u0412\u0422\u0411 (\u041f\u0410\u041e)", "operator:wikidata": "Q1549389"}}, {"type": "node", "id": 6777082602, "lat": 57.8071736, "lon": 28.3464915, "tags": {"amenity": "atm", "brand": "\u041f\u0440\u043e\u043c\u0441\u0432\u044f\u0437\u044c\u0431\u0430\u043d\u043a", "brand:en": "Promsvyazbank", "brand:wikidata": "Q649100", "contact:email": "info@psbank.ru", "contact:phone": "+7 495 7873333;+7 800 3330303", "contact:website": "https://psbank.ru/", "name": "\u041f\u0440\u043e\u043c\u0441\u0432\u044f\u0437\u044c\u0431\u0430\u043d\u043a", "name:en": "Promsvyazbank", "opening_hours": "Mo-Su 09:00-20:00", "operator": "\u041f\u0440\u043e\u043c\u0441\u0432\u044f\u0437\u044c\u0431\u0430\u043d\u043a", "operator:wikidata": "Q649100"}}]}