{"version": 0.6, "generator": "Overpass API 0.7.62.1 084b4234", "osm3s": {"timestamp_osm_base": "2024-05-03T12:26:20Z", "copyright": "The data included in this document is from www.openstreetmap.org. The data is made available under ODbL."}, "elements": [{"type": "node", "id": 2282045990, "lat": 59.9437683, "lon": 30.3601489, "tags": {"amenity": "cafe", "brand": "Coffeeshop Company", "brand:wikidata": "Q873767", "contact:vk": "https://vk.com/club10239197", "cuisine": "coffee_shop", "internet_access": "wlan", "internet_access:fee": "no", "name": "Coffeeshop Company", "opening_hours": "24/7", "operator": "\u041a\u043e\u0444\u0435 \u0441\u0435\u0442", "smoking": "no", "takeaway": "yes", "website": "http://www.coffeeshopcompany.ru/address/city/18/49701/", "wheelchair": "no"}}, {"type": "node", "id": 2285792069, "lat": 59.9440947, "lon": 30.3595034, "tags": {"amenity": "cafe", "brand": "\u041f\u0438\u0440\u043e\u0433\u043e\u0432\u044b\u0439 \u0434\u0432\u043e\u0440\u0438\u043a", "brand:wikidata": "Q110240743", "contact:email": "info@sf-sm.ru", "contact:facebook": "https://www.facebook.com/sever.metropol.official", "contact:instagram": "https://www.instagram.com/sever_metropol/", "contact:phone": "+7 812 3131061-226;+7 981 7426831", "contact:vk": "https://vk.com/sever.metropol.official", "contact:website": "https://pirogov-dvorik.ru", "cuisine": "coffee_shop;pie;russian", "name": "\u041f\u0438\u0440\u043e\u0433\u043e\u0432\u044b\u0439 \u0434\u0432\u043e\u0440\u0438\u043a", "name:ru": "\u041f\u0438\u0440\u043e\u0433\u043e\u0432\u044b\u0439 \u0434\u0432\u043e\u0440\u0438\u043a", "opening_hours": "Mo-Fr 08:00-21:00; Sa-Su 09:00-21:00", "operator": "\u0421\u043e\u0444\u0438\u0442", "payment:mastercard": "yes", "payment:visa": "yes", "shop": "bakery", "takeaway": "yes", "wheelchair": "no"}}, {"type": "node", "id": 4589104854, "lat": 59.943791, "lon": 30.3585891, "tags": {"amenity": "cafe", "contact:vk": "https://vk.com/cafe_lindfors", "cuisine": "russian", "email": "k17@lindfors.ru", "int_name": "Lindfors", "level": "0", "name": "\u041b\u0438\u043d\u0434\u0444\u043e\u0440\u0441", "opening_hours": "Mo-Su 08:00-21:00", "operator": "\u041e\u041e\u041e \u00ab\u041f\u043e\u043b\u0442\u0430\u0432\u0430\u00bb", "phone": "+7 812 2411547", "website": "https://spb.lindfors.ru/restorany/ul-kirochnaya-d-17", "wheelchair": "no"}}, {"type": "node", "id": 6193869805, "lat": 59.9453622, "lon": 30.3572858, "tags": {"amenity": "cafe", "contact:vk": "https://vk.com/cafeavsteria", "name": "\u0410\u0432\u0441\u0442\u0435\u0440\u0438\u044f", "website": "https://avsteria.ru/"}}]}