{"version": 0.6, "generator": "Overpass API 0.7.62.1 084b4234", "osm3s": {"timestamp_osm_base": "2024-05-03T20:36:45Z", "copyright": "The data included in this document is from www.openstreetmap.org. The data is made available under ODbL."}, "elements": [{"type": "node", "id": 951438816, "lat": 59.9354018, "lon": 30.3170037, "tags": {"amenity": "cafe", "check_date": "2023-09-29", "contact:instagram": "https://www.instagram.com/kingpongspb/", "contact:vk": "https://vk.com/cafekingpong", "cuisine": "asian", "diet:vegetarian": "yes", "name": "\u041a\u0438\u043d\u0433 \u041f\u043e\u043d\u0433", "name:en": "King Pong", "name:ru": "\u041a\u0438\u043d\u0433 \u041f\u043e\u043d\u0433", "opening_hours": "Mo-Su 12:00-24:00", "website": "http://www.kingpong.ru/", "wheelchair": "no"}}, {"type": "node", "id": 3636498749, "lat": 59.9364584, "lon": 30.3161607, "tags": {"amenity": "cafe", "brand": "\u0428\u0442\u043e\u043b\u043b\u0435", "brand:de": "Stolle", "brand:en": "Stolle", "brand:wikidata": "Q62502236", "check_date": "2024-04-28", "contact:vk": "stollerussia", "cuisine": "coffee_shop", "diet:vegetarian": "yes", "indoor_seating": "yes", "int_name": "Stolle", "level": "0", "name": "\u0428\u0442\u043e\u043b\u043b\u0435", "name:de": "Stolle", "name:en": "Stolle", "name:fr": "Stolle", "name:ru": "\u0428\u0442\u043e\u043b\u043b\u0435", "opening_hours": "09:00-22:00; PH 10:00-22:00", "operator": "\u041e\u041e\u041e \u00ab\u0421\u0442\u043e\u043b\u043e\u0432\u0430\u044f \u211664\u00bb", "takeaway": "yes", "website": "https://spb.stolle.ru/", "wheelchair": "yes"}}, {"type": "node", "id": 4558319091, "lat": 59.9351492, "lon": 30.3167737, "tags": {"amenity": "cafe", "check_date": "2023-09-29", "contact:facebook": "https://www.facebook.com/bonchcoffebar", "contact:instagram": "https://www.instagram.com/bonch_cafe/", "cuisine": "breakfast;coffee_shop", "diet:vegetarian": "yes", "internet_access": "wlan", "name": "Bonch", "name:ru": "\u0411\u043e\u043d\u0447", "opening_hours": "Mo-Fr 08:30-23:00; Sa 10:00-23:00; Su 10:00-21:00", "payment:contactless": "yes", "payment:credit_cards": "yes", "payment:debit_cards": "yes", "payment:mastercard": "yes", "payment:mastercard_contactless": "yes", "payment:mir": "yes", "payment:mobile_app": "yes", "payment:visa": "yes", "payment:visa_contactless": "yes", "payment:visa_debit": "yes", "phone": "+7 812 7407083", "website": "http://www.bonchcoffee.ru", "wheelchair": "no"}}, {"type": "node", "id": 4915782459, "lat": 59.9364825, "lon": 30.315955, "tags": {"alt_name": "Any.Pasta.Pizza.Bar", "amenity": "cafe", "check_date": "2024-04-28", "contact:vk": "https://vk.com/anypasta", "level": "1", "name": "\u0421\u0442\u043e\u043b\u043e\u0432\u0430\u044f \u21163", "opening_hours": "24/7", "website": "https://anypasta.ru/", "wheelchair": "no"}}, {"type": "node", "id": 5102307724, "lat": 59.9359936, "lon": 30.316975, "tags": {"amenity": "cafe", "check_date": "2024-01-10", "level": "0", "name": "Uppetit", "opening_hours": "08:00-22:00", "wheelchair": "no"}}, {"type": "node", "id": 5146444276, "lat": 59.9365477, "lon": 30.3178737, "tags": {"amenity": "cafe", "brand": "\u0428\u043e\u043a\u043e\u043b\u0430\u0434\u043d\u0438\u0446\u0430", "brand:en": "Chocolate", "brand:wikidata": "Q30891188", "check_date": "2023-09-19", "contact:phone": "+79291770218", "contact:vk": "https://vk.com/shokospb", "contact:website": "https://regions.shoko.ru", "cuisine": "coffee_shop", "name": "\u0428\u043e\u043a\u043e\u043b\u0430\u0434\u043d\u0438\u0446\u0430", "name:en": "Shokoladnitsa", "opening_hours": "Mo-Su 10:00-22:00", "source": "survey", "takeaway": "yes", "wheelchair": "no"}}, {"type": "node", "id": 5279943334, "lat": 59.9361452, "lon": 30.3187622, "tags": {"amenity": "cafe", "check_date": "2024-04-28", "contact:instagram": "https://www.instagram.com/kofevarim/", "contact:vk": "https://vk.com/clubkofevarim", "name": "\u041a\u043e\u0444\u0435\u0432\u0430\u0440\u0438\u043c", "opening_hours": "Mo-Su 08:00-22:00"}}, {"type": "node", "id": 10101907543, "lat": 59.9362095, "lon": 30.317167, "tags": {"amenity": "cafe", "check_date": "2023-09-19", "level": "0", "name": "City Grill", "opening_hours": "Mo-Th,Su 12:00-22:00; Fr-Sa 12:00-23:00", "payment:maestro": "yes", "payment:mastercard": "yes", "payment:visa": "yes", "payment:visa_electron": "yes", "wheelchair": "no"}}, {"type": "node", "id": 10101907545, "lat": 59.9361416, "lon": 30.3171123, "tags": {"amenity": "cafe", "check_date": "2023-09-19", "contact:phone": "+7 921 9411150", "contact:website": "https://mariospizza.ru/", "level": "0", "name": "Mario's pizza", "opening_hours": "Mo-Su 12:00-22:30"}}, {"type": "node", "id": 10965153806, "lat": 59.9368279, "lon": 30.3158917, "tags": {"amenity": "cafe", "name": "\u00d4petit", "opening_hours": "Mo-Sa 09:30-20:00", "website": "https://o-petit.ru/"}}]}