{"version": 0.6, "generator": "Overpass API 0.7.62.1 084b4234", "osm3s": {"timestamp_osm_base": "2024-05-03T09:40:36Z", "copyright": "The data included in this document is from www.openstreetmap.org. The data is made available under ODbL."}, "elements": [{"type": "node", "id": 428449186, "lat": 55.7440657, "lon": 37.5806457}, {"type": "node", "id": 428449188, "lat": 55.7441033, "lon": 37.5808217}, {"type": "node", "id": 428449190, "lat": 55.7440685, "lon": 37.5808451}, {"type": "node", "id": 428449191, "lat": 55.7440815, "lon": 37.5809058}, {"type": "node", "id": 428449192, "lat": 55.7440082, "lon": 37.5809551}, {"type": "node", "id": 428449194, "lat": 55.744054, "lon": 37.5811694}, {"type": "node", "id": 428449195, "lat": 55.7441202, "lon": 37.5811248}, {"type": "node", "id": 428449196, "lat": 55.7441321, "lon": 37.5811806}, {"type": "node", "id": 428449197, "lat": 55.7441704, "lon": 37.5811548}, {"type": "node", "id": 428449198, "lat": 55.7442083, "lon": 37.5813323}, {"type": "node", "id": 428449199, "lat": 55.7439882, "lon": 37.5814806}, {"type": "node", "id": 428449200, "lat": 55.7438421, "lon": 37.5807964}, {"type": "node", "id": 605287868, "lat": 55.7446584, "lon": 37.5795872}, {"type": "node", "id": 605287869, "lat": 55.7445134, "lon": 37.5796515}, {"type": "node", "id": 605287870, "lat": 55.7445617, "lon": 37.5800378}, {"type": "node", "id": 605287871, "lat": 55.7444893, "lon": 37.5800699}, {"type": "node", "id": 605287872, "lat": 55.7445013, "lon": 37.5801558}, {"type": "node", "id": 605287873, "lat": 55.7444228, "lon": 37.5801987}, {"type": "node", "id": 605287874, "lat": 55.744441, "lon": 37.5803167}, {"type": "node", "id": 605287876, "lat": 55.7447369, "lon": 37.5801665}, {"type": "node", "id": 605288290, "lat": 55.7446496, "lon": 37.5813548}, {"type": "node", "id": 605288291, "lat": 55.7447143, "lon": 37.5818383}, {"type": "node", "id": 605288292, "lat": 55.7445899, "lon": 37.5818909}, {"type": "node", "id": 605288293, "lat": 55.7445252, "lon": 37.5814073}, {"type": "node", "id": 605288501, "lat": 55.7444973, "lon": 37.5819104}, {"type": "node", "id": 605288502, "lat": 55.7443851, "lon": 37.5819533}, {"type": "node", "id": 605288503, "lat": 55.7444395, "lon": 37.5824034}, {"type": "node", "id": 605288504, "lat": 55.7445517, "lon": 37.5823606}, {"type": "node", "id": 605288740, "lat": 55.744474, "lon": 37.5814946}, {"type": "node", "id": 605288741, "lat": 55.7445066, "lon": 37.5817485}, {"type": "node", "id": 605288742, "lat": 55.7443019, "lon": 37.5818314}, {"type": "node", "id": 605288743, "lat": 55.7443454, "lon": 37.5821699}, {"type": "node", "id": 605288744, "lat": 55.7441894, "lon": 37.5822331}, {"type": "node", "id": 605288745, "lat": 55.7441134, "lon": 37.5816407}, {"type": "way", "id": 36852892, "nodes": [428449186, 428449188, 428449190, 428449191, 428449192, 428449194, 428449195, 428449196, 428449197, 428449198, 428449199, 428449200, 428449186], "tags": {"addr:city": "\u041c\u043e\u0441\u043a\u0432\u0430", "addr:country": "RU", "addr:housenumber": "6", "addr:postcode": "119121", "addr:street": "\u0420\u0443\u0436\u0435\u0439\u043d\u044b\u0439 \u043f\u0435\u0440\u0435\u0443\u043b\u043e\u043a", "building": "office", "building:colour": "lightyellow", "building:levels": "4", "building:material": "plaster", "roof:angle": "20", "roof:colour": "lightgrey", "roof:material": "metal", "roof:shape": "hipped"}}, {"type": "way", "id": 47575424, "nodes": [605287868, 605287869, 605287870, 605287871, 605287872, 605287873, 605287874, 605287876, 605287868], "tags": {"addr:city": "\u041c\u043e\u0441\u043a\u0432\u0430", "addr:country": "RU", "addr:housenumber": "11\u0410", "addr:postcode": "119121", "addr:street": "\u0443\u043b\u0438\u0446\u0430 \u041f\u043b\u044e\u0449\u0438\u0445\u0430", "building": "office", "building:colour": "beige", "building:levels": "1", "building:material": "metal_plates", "roof:angle": "20", "roof:colour": "lightgrey", "roof:material": "metal", "roof:shape": "hipped"}}, {"type": "way", "id": 47575466, "nodes": [605288290, 605288291, 605288292, 605288293, 605288290], "tags": {"addr:city": "\u041c\u043e\u0441\u043a\u0432\u0430", "addr:country": "RU", "addr:housenumber": "27/29 \u043a1 \u04416", "addr:postcode": "119121", "addr:street": "\u0421\u043c\u043e\u043b\u0435\u043d\u0441\u043a\u0430\u044f-\u0421\u0435\u043d\u043d\u0430\u044f \u043f\u043b\u043e\u0449\u0430\u0434\u044c", "building": "office", "building:colour": "lightgreen", "building:levels": "2.5", "building:material": "plaster", "roof:angle": "20", "roof:colour": "grey", "roof:material": "metal", "roof:shape": "gabled"}}, {"type": "way", "id": 47575483, "nodes": [605288501, 605288502, 605288503, 605288504, 605288501], "tags": {"addr:city": "\u041c\u043e\u0441\u043a\u0432\u0430", "addr:country": "RU", "addr:housenumber": "27 \u043a2", "addr:postcode": "119121", "addr:street": "\u0421\u043c\u043e\u043b\u0435\u043d\u0441\u043a\u0430\u044f-\u0421\u0435\u043d\u043d\u0430\u044f \u043f\u043b\u043e\u0449\u0430\u0434\u044c", "building": "office", "building:architecture": "neoclassicism", "building:colour": "beige", "building:levels": "4", "building:material": "plaster", "roof:angle": "20", "roof:colour": "green", "roof:material": "metal", "roof:shape": "hipped"}}, {"type": "way", "id": 47575510, "nodes": [605288740, 605288741, 605288742, 605288743, 605288744, 605288745, 605288740], "tags": {"addr:city": "\u041c\u043e\u0441\u043a\u0432\u0430", "addr:country": "RU", "addr:housenumber": "9 \u04412", "addr:postcode": "119121", "addr:street": "\u0443\u043b\u0438\u0446\u0430 \u041f\u043b\u044e\u0449\u0438\u0445\u0430", "building": "office", "building:colour": "beige", "building:levels": "5", "building:material": "plaster", "roof:angle": "20", "roof:colour": "green", "roof:material": "metal", "roof:shape": "hipped"}}]}