{"version": 0.6, "generator": "Overpass API 0.7.62.1 084b4234", "osm3s": {"timestamp_osm_base": "2024-05-03T03:16:13Z", "copyright": "The data included in this document is from www.openstreetmap.org. The data is made available under ODbL."}, "elements": [{"type": "node", "id": 2672634108, "lat": 51.5182167, "lon": 81.2120131, "tags": {"amenity": "cafe", "name": "\u0425\u0430\u043c\u0431\u0430", "phone": "+7 38557 29743"}}, {"type": "node", "id": 6200017492, "lat": 51.5172727, "lon": 81.2118532}, {"type": "node", "id": 6200017493, "lat": 51.5172404, "lon": 81.2119883}, {"type": "node", "id": 6200017494, "lat": 51.5172936, "lon": 81.2120212}, {"type": "node", "id": 6200017495, "lat": 51.517326, "lon": 81.2118862}, {"type": "node", "id": 6200017621, "lat": 51.5172796, "lon": 81.2119652, "tags": {"addr:street": "\u0421\u0430\u0434\u043e\u0432\u044b\u0439 \u043f\u0435\u0440\u0435\u0443\u043b\u043e\u043a", "amenity": "cafe", "cuisine": "greek", "name": "Giros Master", "opening_hours": "Mo-Su 08:00-23:00", "website": "https://vk.com/girosrubtsovsk"}}, {"type": "way", "id": 662253814, "nodes": [6200017492, 6200017493, 6200017494, 6200017495, 6200017492], "tags": {"amenity": "cafe", "building": "yes", "building:levels": "1"}}]}