{"version": 0.6, "generator": "Overpass API 0.7.62.1 084b4234", "osm3s": {"timestamp_osm_base": "2024-05-04T01:39:28Z", "copyright": "The data included in this document is from www.openstreetmap.org. The data is made available under ODbL."}, "elements": [{"type": "node", "id": 3861629717, "lat": 55.0585896, "lon": 82.9132916, "tags": {"amenity": "cafe", "check_date": "2022-08-06", "contact:email": "kddudnik@mail.ru", "contact:phone": "+7 383 3829266;+7 913 9005798", "contact:website": "http://www.kddudnik.ru/", "name": "\u0414\u0443\u0434\u043d\u0438\u043a", "opening_hours": "Mo-Su 08:00-22:00", "shop": "confectionery"}}, {"type": "node", "id": 6460975470, "lat": 55.0590843, "lon": 82.9141429, "tags": {"amenity": "cafe", "check_date": "2022-07-25", "level": "1", "name": "\u0411\u041a", "opening_hours": "08:00-21:00", "wheelchair": "no"}}, {"type": "node", "id": 6729645679, "lat": 55.0580572, "lon": 82.9124099, "tags": {"amenity": "cafe", "check_date": "2022-08-06", "contact:email": "reklama@kuzina.ru", "contact:phone": "+7 383 2091416", "contact:website": "https://kuzina.ru/", "cuisine": "cake", "name": "Kuzina", "opening_hours": "Mo-Su 07:30-22:00", "operator": "\u041a\u0443\u0437\u0438\u043d\u0430", "wheelchair": "limited"}}, {"type": "node", "id": 6729645680, "lat": 55.058678, "lon": 82.913575, "tags": {"amenity": "cafe", "contact:email": "reklama@kuzina.ru", "contact:phone": "+7 983 1426440", "contact:website": "https://kuzina.ru/", "cuisine": "cake", "name": "Kuzina", "opening_hours": "Mo-Su 06:40-20:40", "operator": "\u0411\u043e\u0434\u0440\u043e\u0432\u0430 \u041e.\u0410."}}, {"type": "node", "id": 9908963709, "lat": 55.0594365, "lon": 82.9141102, "tags": {"amenity": "cafe", "check_date": "2022-07-25", "name": "Kuzina", "opening_hours": "07:30-22:00", "wheelchair": "no"}}, {"type": "node", "id": 9935214894, "lat": 55.0582721, "lon": 82.9133174, "tags": {"amenity": "cafe", "check_date": "2022-08-06", "name": "\u0421\u043a\u043e\u043c\u043e\u0440\u043e\u0445\u0438", "opening_hours": "09:00-21:00", "wheelchair": "no"}}]}