{"version": 0.6, "generator": "Overpass API 0.7.62.1 084b4234", "osm3s": {"timestamp_osm_base": "2024-05-03T20:09:00Z", "copyright": "The data included in this document is from www.openstreetmap.org. The data is made available under ODbL."}, "elements": [{"type": "node", "id": 1179865603, "lat": 55.7472356, "lon": 37.7071618, "tags": {"amenity": "fast_food", "contact:phone": "+7 925 2056595", "contact:website": "https://www.stardogs.ru/", "cuisine": "sausage", "level": "3", "name": "Stardogs", "name:en": "Stardogs", "opening_hours": "Mo-Su 10:00-22:00"}}, {"type": "node", "id": 5255960121, "lat": 55.7468715, "lon": 37.706692, "tags": {"amenity": "fast_food", "brand": "\u0422\u0435\u0440\u0435\u043c\u043e\u043a", "brand:en": "Teremok", "brand:ru": "\u0422\u0435\u0440\u0435\u043c\u043e\u043a", "brand:wikidata": "Q4455593", "brand:wikipedia": "ru:\u0422\u0435\u0440\u0435\u043c\u043e\u043a (\u0441\u0435\u0442\u044c \u0431\u044b\u0441\u0442\u0440\u043e\u0433\u043e \u043f\u0438\u0442\u0430\u043d\u0438\u044f)", "contact:email": "office@teremok.ru", "contact:facebook": "https://www.facebook.com/teremok", "contact:instagram": "https://www.instagram.com/teremok_ru", "contact:line": "http://line.me/ti/p/%40teremok", "contact:twitter": "https://twitter.com/teremok_ru", "contact:vk": "https://vk.com/teremok", "contact:website": "http://www.teremok.ru", "cuisine": "crepe;russian", "diet:vegetarian": "yes", "name": "\u0422\u0435\u0440\u0435\u043c\u043e\u043a", "name:en": "Teremok", "takeaway": "yes"}}, {"type": "node", "id": 5255971123, "lat": 55.7468918, "lon": 37.7069071, "tags": {"amenity": "fast_food", "brand": "\u041a\u0440\u043e\u0448\u043a\u0430 \u041a\u0430\u0440\u0442\u043e\u0448\u043a\u0430", "brand:en": "Kroshka Kartoshka", "brand:ru": "\u041a\u0440\u043e\u0448\u043a\u0430 \u041a\u0430\u0440\u0442\u043e\u0448\u043a\u0430", "brand:wikidata": "Q4241838", "brand:wikipedia": "ru:\u041a\u0440\u043e\u0448\u043a\u0430 \u041a\u0430\u0440\u0442\u043e\u0448\u043a\u0430", "contact:email": "kroshka@kartoshka.com", "contact:ok": "https://ok.ru/group/52818779832389", "contact:phone": "+7 916 6610371", "contact:vk": "https://vk.com/kartoshka_moscow", "contact:website": "https://www.kartoshka.com", "cuisine": "potato", "diet:vegetarian": "yes", "name": "\u041a\u0440\u043e\u0448\u043a\u0430 \u041a\u0430\u0440\u0442\u043e\u0448\u043a\u0430", "name:en": "Kroshka Kartoshka", "opening_hours": "Mo-Su 10:00-22:00", "takeaway": "yes"}}, {"type": "node", "id": 7505868607, "lat": 55.7477134, "lon": 37.7074277, "tags": {"amenity": "fast_food", "contact:email": "FeedBack@burgerking.ru", "contact:phone": "+7 495 5445000", "contact:vk": "https://vk.com/burgerking", "contact:website": "https://burgerkingrus.ru/", "cuisine": "burger", "name": "\u0411\u0443\u0440\u0433\u0435\u0440 \u041a\u0438\u043d\u0433", "opening_hours": "Mo-Su 09:00-22:00", "operator": "\u0411\u0423\u0420\u0413\u0415\u0420 \u0420\u0423\u0421"}}, {"type": "node", "id": 11007711144, "lat": 55.7473886, "lon": 37.7068162, "tags": {"amenity": "fast_food", "contact:email": "lefortovo@franklinsburger.ru", "contact:phone": "+7 499 1507080", "contact:website": "https://www.franklins.ru/", "cuisine": "burger", "name": "\u0424\u0440\u0430\u043d\u043a\u043b\u0438\u043d\u0441 \u0411\u0443\u0440\u0433\u0435\u0440", "opening_hours": "Mo-Su 10:00-22:30"}}, {"type": "node", "id": 11185621630, "lat": 55.7477675, "lon": 37.7073637, "tags": {"amenity": "fast_food", "contact:phone": "+7 800 3508418", "contact:website": "https://cofix.global", "cuisine": "coffee_shop", "name": "Cofix", "opening_hours": "Mo-Fr 07:00-22:00; Sa-Su 08:00-22:00"}}]}