{"version": 0.6, "generator": "Overpass API 0.7.62.1 084b4234", "osm3s": {"timestamp_osm_base": "2024-05-03T22:17:03Z", "copyright": "The data included in this document is from www.openstreetmap.org. The data is made available under ODbL."}, "elements": [{"type": "node", "id": 4634877533, "lat": 59.8764746, "lon": 30.4423513, "tags": {"amenity": "fast_food", "cuisine": "kebab", "name": "\u041a\u0435\u0431\u0430\u0431 \u0441\u0438\u0442\u0438", "opening_hours": "24/7"}}, {"type": "node", "id": 5104140921, "lat": 59.8766918, "lon": 30.4426619, "tags": {"amenity": "fast_food", "cuisine": "kebab", "level": "0", "name": "\u0421\u0444\u0438\u043d\u043a\u0441", "wheelchair": "no"}}, {"type": "node", "id": 8938923821, "lat": 59.8774247, "lon": 30.4418037, "tags": {"amenity": "fast_food", "brand": "One Price Coffee", "brand:wikidata": "Q108215010", "contact:email": "b2b@onepricecoffee.com", "contact:phone": "+7 495 0153150", "contact:website": "https://onepricecoffee.com/", "cuisine": "coffee_shop", "name": "One Price Coffee", "opening_hours": "Mo-Fr 07:00-22:00; Sa-Su 08:00-22:00", "takeaway": "yes"}}, {"type": "node", "id": 8938923932, "lat": 59.8770868, "lon": 30.4426056, "tags": {"amenity": "fast_food", "brand": "One Price Coffee", "brand:wikidata": "Q108215010", "contact:email": "b2b@onepricecoffee.com", "contact:phone": "+7 495 0153150", "contact:website": "https://www.onepricecoffee.com/", "cuisine": "coffee_shop", "name": "One Price Coffee", "opening_hours": "Mo-Su 08:00-22:00", "takeaway": "yes"}}, {"type": "node", "id": 9456088683, "lat": 59.877576, "lon": 30.4429861, "tags": {"alt_name": "Kentucky Fried Chicken", "amenity": "fast_food", "brand": "KFC", "brand:wikidata": "Q524757", "brand:wikipedia": "en:KFC", "cuisine": "chicken", "level": "2", "name": "Rostic`s", "takeaway": "yes"}}]}