{"version": 0.6, "generator": "Overpass API 0.7.62.1 084b4234", "osm3s": {"timestamp_osm_base": "2024-05-02T21:19:13Z", "copyright": "The data included in this document is from www.openstreetmap.org. The data is made available under ODbL."}, "elements": [{"type": "node", "id": 3614187010, "lat": 59.9221744, "lon": 30.3369424, "tags": {"amenity": "cafe", "check_date": "2022-12-24", "name": "\u041a\u0438\u043e \u043a\u0443\u0445\u043d\u044f", "opening_hours": "Mo-Fr 08:00-22:00; Sa-Su 09:00-22:00"}}, {"type": "node", "id": 4554586791, "lat": 59.9226754, "lon": 30.3352255, "tags": {"amenity": "cafe", "name": "\u0425\u043e\u0447\u0443 \u0445\u0438\u043d\u043a\u0430\u043b\u0438", "opening_hours": "24/7"}}, {"type": "node", "id": 4976685246, "lat": 59.9222125, "lon": 30.3368928, "tags": {"amenity": "cafe", "check_date": "2022-11-29", "contact:vk": "https://vk.com/korjov_bakeries", "name": "\u041a\u043e\u0440\u0436\u043e\u0432", "opening_hours": "Mo-Fr 08:00-22:00; Sa-Su 09:00-22:00", "shop": "pastry", "website": "https://www.korjov.com/"}}]}