{"version": 0.6, "generator": "Overpass API 0.7.62.1 084b4234", "osm3s": {"timestamp_osm_base": "2024-05-03T22:10:59Z", "copyright": "The data included in this document is from www.openstreetmap.org. The data is made available under ODbL."}, "elements": [{"type": "node", "id": 3740153634, "lat": 55.7100018, "lon": 37.6556223, "tags": {"amenity": "restaurant", "name": "Friends & Family", "opening_hours": "Mo-Su 11:00-00:30"}}, {"type": "node", "id": 3740153639, "lat": 55.7098486, "lon": 37.655188, "tags": {"air_conditioning": "yes", "amenity": "restaurant", "cuisine": "barbecue;grill;kebab", "description": "\u041f\u0438\u0432\u043d\u043e\u0439 \u0440\u0435\u0441\u0442\u043e\u0440\u0430\u043d", "diet:vegetarian": "no", "indoor_seating": "yes", "internet_access": "wlan", "name": "\u0414\u0440\u0443\u0437\u044c\u044f", "opening_hours": "Mo-Th 11:00-01:00; Fr 11:00-02:00; Sa-Su 12:00-00:00", "outdoor_seating": "no", "payment:credit_cards": "yes", "payment:debit_cards": "yes", "smoking": "no", "wheelchair": "no"}}, {"type": "node", "id": 6783505824, "lat": 55.709606, "lon": 37.6544612, "tags": {"amenity": "restaurant", "name": "Aura", "opening_hours": "12:00-00:00", "wheelchair": "no"}}]}