{"version": 0.6, "generator": "Overpass API 0.7.62.1 084b4234", "osm3s": {"timestamp_osm_base": "2024-05-03T07:38:15Z", "copyright": "The data included in this document is from www.openstreetmap.org. The data is made available under ODbL."}, "elements": [{"type": "node", "id": 3215792145, "lat": 43.9031333, "lon": 42.7152259, "tags": {"amenity": "cafe", "name": "\u041a\u043e\u0444\u0435\u0439\u043d\u044f \"Comilfo\""}}, {"type": "node", "id": 4345987092, "lat": 43.9034309, "lon": 42.7151838, "tags": {"amenity": "cafe", "name": "\u0412\u0438\u043a\u0438\u043d\u0433"}}, {"type": "node", "id": 4856376800, "lat": 43.9042285, "lon": 42.7170458, "tags": {"amenity": "cafe", "name": "\u0428\u0430\u0448\u043b\u044b\u0447\u043e\u043a"}}, {"type": "node", "id": 6125407236, "lat": 43.9048388, "lon": 42.716049, "tags": {"amenity": "cafe", "name": "WonderLand", "opening_hours": "Mo-Su 09:00-22:00"}}, {"type": "node", "id": 6125407242, "lat": 43.904516, "lon": 42.7162103, "tags": {"amenity": "cafe", "name": "Has Hus"}}, {"type": "node", "id": 6125407244, "lat": 43.9047428, "lon": 42.716395, "tags": {"amenity": "cafe", "name": "Artcafe"}}]}