{"version": 0.6, "generator": "Overpass API 0.7.62.1 084b4234", "osm3s": {"timestamp_osm_base": "2024-05-03T21:42:57Z", "copyright": "The data included in this document is from www.openstreetmap.org. The data is made available under ODbL."}, "elements": [{"type": "node", "id": 3211452778, "lat": 55.7734168, "lon": 37.6551385, "tags": {"amenity": "fast_food", "brand": "Subway", "brand:wikidata": "Q244457", "brand:wikipedia": "en:Subway (restaurant)", "contact:email": "subway@subway.ru", "contact:vk": "https://vk.com/subwayrussia", "contact:website": "http://subway.ru", "cuisine": "sandwich", "diet:vegetarian": "no", "level": "0", "name": "Subway", "name:en": "Subway", "operator": "Subway", "takeaway": "yes"}}, {"type": "node", "id": 5042602321, "lat": 55.7730284, "lon": 37.6562366, "tags": {"alt_name": "\u0421\u0442\u0430\u0440\u0434\u043e\u0433\u0441", "amenity": "fast_food", "brand": "\u0421\u0442\u0430\u0440\u0434\u043e\u0433!s", "brand:en": "Stardog!s", "brand:ru": "\u0421\u0442\u0430\u0440\u0434\u043e\u0433!s", "brand:wikidata": "Q4439856", "brand:wikipedia": "ru:\u0421\u0442\u0430\u0440\u0434\u043e\u0433\u0441", "contact:facebook": "https://www.facebook.com/pages/%D0%A1%D1%82%D0%B0%D1%80%D0%B4%D0%BE%D0%B3s/274934226027212?fref=ts", "contact:instagram": "https://instagram.com/stardogsrussia/", "contact:ok": "https://ok.ru/group/54434706620420", "contact:phone": "+7 985 2634187", "contact:vk": "https://vk.com/club16270501", "contact:website": "http://www.stardogs.ru", "contact:youtube": "https://www.youtube.com/channel/UCLdQnDS5HTzowfvz-Uhc24A", "cuisine": "hot_dog", "diet:vegetarian": "no", "level": "-1", "name": "Stardogs", "name:en": "Stardogs", "note": "\u0418\u0441\u043a\u0430\u0442\u044c \u0432 \u0437\u0430\u043b\u0435 \u043f\u0440\u0438\u0433\u043e\u0440\u043e\u0434\u043d\u044b\u0445 \u043a\u0430\u0441\u0441", "opening_hours": "24/7", "operator:wikidata": "Q4439856", "operator:wikipedia": "ru:\u0421\u0442\u0430\u0440\u0434\u043e\u0433\u0441", "takeaway": "yes"}}, {"type": "node", "id": 5209001442, "lat": 55.7737382, "lon": 37.6555245, "tags": {"amenity": "fast_food", "name": "\u0422\u0430\u043a\u043e\u043c \u0434\u043e\u043d\u0435\u0440"}}, {"type": "node", "id": 5209036323, "lat": 55.7731308, "lon": 37.6566862, "tags": {"alt_name": "Kentucky Fried Chicken", "amenity": "fast_food", "brand": "KFC", "brand:wikidata": "Q524757", "brand:wikipedia": "en:KFC", "cuisine": "chicken", "level": "2", "name": "KFC", "opening_hours": "Mo-Su 09:00-23:00", "operator": "\u041e\u041e\u041e \"\u0421\u0438\u0442\u0438 \u0440\u0435\u0441\u0442\u043e\u0440\u0430\u043d\u0442\u0441\"", "takeaway": "yes"}}, {"type": "node", "id": 5209046285, "lat": 55.7736767, "lon": 37.6557112, "tags": {"amenity": "fast_food", "name": "\u0421 \u0431\u0443\u043b\u043e\u0447\u043a\u043e\u0439"}}, {"type": "node", "id": 5209077452, "lat": 55.7737228, "lon": 37.6557576, "tags": {"amenity": "fast_food", "name": "\u041c\u0438\u0441\u0442\u0435\u0440 \u043a\u0430\u0440\u0442\u043e\u0448\u043a\u0430"}}, {"type": "node", "id": 5209087721, "lat": 55.7732734, "lon": 37.6569457, "tags": {"amenity": "fast_food", "name": "\u041c\u044f\u0441\u043e \u0432 \u043b\u0430\u0432\u0430\u0448\u0435"}}, {"type": "node", "id": 7131586143, "lat": 55.7738364, "lon": 37.6557657, "tags": {"amenity": "fast_food", "name": "Fix story"}}, {"type": "node", "id": 7131586144, "lat": 55.7734578, "lon": 37.6562002, "tags": {"amenity": "fast_food", "name": "\u0428\u0430\u0443\u0440\u043c\u0430\u043d\u0438\u044f"}}, {"type": "node", "id": 9397686745, "lat": 55.7740747, "lon": 37.6545191, "tags": {"amenity": "fast_food", "contact:facebook": "cafemumu", "contact:instagram": "cafemumu", "contact:ok": "cafemumu", "contact:twitter": "cafemumu", "contact:vk": "cafemumu", "contact:youtube": "cafemumu", "cuisine": "regional", "fast_food": "cafeteria", "name": "\u041c\u0443-\u041c\u0443", "opening_hours": "24/7", "phone": "+7 977 8247252", "website": "https://www.cafemumu.ru/"}}, {"type": "node", "id": 11493984518, "lat": 55.7729894, "lon": 37.6551933, "tags": {"amenity": "fast_food", "check_date": "2024-01-05", "fast_food": "cafeteria", "level": "0", "name": "\u0421\u0442\u043e\u043b\u043e\u0432\u0430\u044f \u043f\u043e-\u0434\u043e\u043c\u0430\u0448\u043d\u0435\u043c\u0443"}}]}