{"version": 0.6, "generator": "Overpass API 0.7.62.1 084b4234", "osm3s": {"timestamp_osm_base": "2024-05-04T00:16:36Z", "copyright": "The data included in this document is from www.openstreetmap.org. The data is made available under ODbL."}, "elements": [{"type": "node", "id": 1760616319, "lat": 43.589907, "lon": 39.724697, "tags": {"amenity": "cafe", "name": "\u0428\u0435\u043b\u043a\u043e\u0432\u044b\u0439 \u041f\u0443\u0442\u044c"}}, {"type": "node", "id": 6536736686, "lat": 43.5899423, "lon": 39.724819, "tags": {"amenity": "cafe", "contact:email": "hotline@coffee-like.com", "contact:phone": "+7 341 2908292;+7 800 3334130", "contact:website": "https://coffee-like.com/", "name": "Coffee Like", "opening_hours": "Mo-Su 08:00-22:00", "operator": "\u0427\u0438\u0441\u0442\u044f\u043a\u043e\u0432\u0430 \u0415\u043b\u0435\u043d\u0430 \u042e\u0440\u044c\u0435\u0432\u043d\u0430"}}, {"type": "node", "id": 8763508496, "lat": 43.5898933, "lon": 39.7247705, "tags": {"addr:city": "\u0421\u043e\u0447\u0438", "addr:housenumber": "11", "addr:street": "\u041d\u0430\u0432\u0430\u0433\u0438\u043d\u0441\u043a\u0430\u044f \u0443\u043b\u0438\u0446\u0430", "amenity": "cafe", "email": "cafe.grill@yandex.ru", "name": "\u041b\u0435\u0447\u043e \u0413\u0440\u0438\u043b\u044c", "opening_hours": "Mo-Su 09:00-23:59", "phone": "+7 966 7777072, +7 938 4578787", "website": "http://lecho-cafe.ru/"}}, {"type": "node", "id": 8933491322, "lat": 43.5897827, "lon": 39.7252846, "tags": {"addr:housenumber": "11", "addr:street": "\u041d\u0430\u0432\u0430\u0433\u0438\u043d\u0441\u043a\u0430\u044f \u0443\u043b\u0438\u0446\u0430", "amenity": "cafe", "name": "Pho Vietnam"}}, {"type": "node", "id": 10691337242, "lat": 43.5900967, "lon": 39.7250645, "tags": {"amenity": "cafe", "name": "RozMary bistro", "opening_hours": "Mo-Su 08:00-21:00"}}, {"type": "node", "id": 11505560491, "lat": 43.5897571, "lon": 39.7245862, "tags": {"amenity": "cafe", "contact:phone": "+7 800 7772407;+7 928 8535983", "contact:website": "https://surfcoffee.ru", "cuisine": "coffee_shop", "name": "Surf Coffee", "opening_hours": "Mo-Su 08:00-22:00"}}]}