{"version": 0.6, "generator": "Overpass API 0.7.62.1 084b4234", "osm3s": {"timestamp_osm_base": "2024-05-03T22:19:08Z", "copyright": "The data included in this document is from www.openstreetmap.org. The data is made available under ODbL."}, "elements": [{"type": "node", "id": 344885730, "lat": 59.9316739, "lon": 30.3618411}, {"type": "node", "id": 344885731, "lat": 59.9311656, "lon": 30.3632311}, {"type": "node", "id": 344885732, "lat": 59.9311963, "lon": 30.363488}, {"type": "node", "id": 1416244124, "lat": 59.9314132, "lon": 30.3625542, "tags": {"entrance": "yes"}}, {"type": "node", "id": 2980074713, "lat": 59.9311719, "lon": 30.3632836, "tags": {"entrance": "yes"}}, {"type": "node", "id": 2996733447, "lat": 59.9316129, "lon": 30.3620081, "tags": {"entrance": "yes"}}, {"type": "node", "id": 4676444889, "lat": 59.9322737, "lon": 30.3602746, "tags": {"amenity": "fast_food", "contact:vk": "https://vk.com/citygrillexpress", "cuisine": "burger", "email": "boldova@citygrillexpress.ru", "indoor_seating": "yes", "internet_access": "wlan", "level": "1", "name": "City grill", "opening_hours": "10:00-23:00", "operator": "\u041e\u041e\u041e \u00ab\u0421\u0438\u0442\u0438 \u0413\u0440\u0438\u043b\u044c \u042d\u043a\u0441\u043f\u0440\u0435\u0441\u0441\u00bb", "outdoor_seating": "no", "payment:credit_cards": "yes", "payment:debit_cards": "yes", "phone": "+7 812 9408445;+7 812 9067727", "website": "https://citygrillexpress.ru/", "wheelchair": "no"}}, {"type": "node", "id": 6164796885, "lat": 59.9315992, "lon": 30.3623862}, {"type": "node", "id": 6164796886, "lat": 59.9317349, "lon": 30.3620151}, {"type": "node", "id": 6164796887, "lat": 59.9315179, "lon": 30.3622677}, {"type": "node", "id": 6164796888, "lat": 59.9317003, "lon": 30.3618359, "tags": {"entrance": "yes"}}, {"type": "node", "id": 6164796889, "lat": 59.9317257, "lon": 30.3618309}, {"type": "node", "id": 6582797893, "lat": 59.9323978, "lon": 30.3591219, "tags": {"amenity": "fast_food", "brand": "Cinnabon", "brand:wikidata": "Q1092539", "brand:wikipedia": "en:Cinnabon", "check_date": "2022-04-14", "contact:facebook": "https://www.facebook.com/cinnabon.russia", "contact:instagram": "https://instagram.com/cinnabon_russia", "contact:phone": "+7 812 4548738", "contact:vk": "https://vk.com/cinnabon_rus", "contact:website": "https://cinnabonrussia.com/", "cuisine": "dessert", "level": "4", "name": "Cinnabon", "opening_hours": "Mo-Su 10:00-23:00", "operator": "\u0413\u043b\u0430\u0437\u0443\u0440\u044c", "payment:cash": "yes", "payment:maestro": "yes", "payment:mastercard": "yes", "payment:visa": "yes", "payment:visa_electron": "yes", "takeaway": "yes", "wheelchair": "yes"}}, {"type": "node", "id": 9866096595, "lat": 59.9319643, "lon": 30.3605783, "tags": {"amenity": "fast_food", "contact:email": "soc@mousetail.ru", "contact:phone": "+7 999 2388525", "contact:website": "https://mousetail.ru", "cuisine": "coffee_shop", "name": "Mouse Tail", "opening_hours": "Mo-Su 07:00-23:00"}}, {"type": "way", "id": 658305456, "nodes": [6164796885, 344885732, 2980074713, 344885731, 1416244124, 6164796887, 6164796885], "tags": {"amenity": "fast_food", "contact:vk": "https://vk.com/schelkunchikspb", "name": "\u0429\u0435\u043b\u043a\u0443\u043d\u0447\u0438\u043a", "opening_hours": "Mo-Su 08:00-23:00", "toilets": "yes", "website": "http://www.schelkunchik.spb.ru/", "wheelchair": "no"}}, {"type": "way", "id": 658305458, "nodes": [6164796889, 6164796886, 6164796885, 6164796887, 2996733447, 344885730, 6164796888, 6164796889], "tags": {"amenity": "fast_food", "contact:vk": "https://vk.com/club12879930", "fast_food": "cafeteria", "internet_access": "wlan", "name": "\u0421\u0442\u043e\u043b\u043e\u0432\u0430\u044f \u21161", "opening_hours": "24/7", "operator": "\u041e\u041e\u041e \u00ab\u0410\u043b\u0433\u043e\u0441-\u0424\u0443\u0434\u0441 \u00ab\u041e\u043a\u0442\u044f\u0431\u0440\u044c\u0441\u043a\u0438\u0439\u00bb", "website": "https://st1.one/"}}]}