{"version": 0.6, "generator": "Overpass API 0.7.62.1 084b4234", "osm3s": {"timestamp_osm_base": "2024-05-03T19:37:33Z", "copyright": "The data included in this document is from www.openstreetmap.org. The data is made available under ODbL."}, "elements": [{"type": "node", "id": 2666411529, "lat": 62.0335219, "lon": 129.7444079}, {"type": "node", "id": 2666411530, "lat": 62.033541, "lon": 129.7446979}, {"type": "node", "id": 2666411531, "lat": 62.0330427, "lon": 129.7448461}, {"type": "node", "id": 2666411532, "lat": 62.0330825, "lon": 129.7454937}, {"type": "node", "id": 2666411533, "lat": 62.0329315, "lon": 129.7455504}, {"type": "node", "id": 2666411534, "lat": 62.0328651, "lon": 129.7445912}, {"type": "node", "id": 2790115108, "lat": 62.0335314, "lon": 129.7445511}, {"type": "node", "id": 4981010006, "lat": 62.0330231, "lon": 129.7445471}, {"type": "way", "id": 261037913, "nodes": [2666411531, 4981010006, 2666411529, 2790115108, 2666411530, 2666411531], "tags": {"addr:city": "\u042f\u043a\u0443\u0442\u0441\u043a", "addr:housenumber": "2", "addr:postcode": "677000", "addr:street": "\u0443\u043b\u0438\u0446\u0430 \u0414\u0437\u0435\u0440\u0436\u0438\u043d\u0441\u043a\u043e\u0433\u043e", "building": "commercial", "height": "10", "name:en": "Lena United Shipping Coimpany"}}, {"type": "way", "id": 508830758, "nodes": [2666411531, 2666411532, 2666411533, 2666411534, 4981010006, 2666411531], "tags": {"addr:city": "\u042f\u043a\u0443\u0442\u0441\u043a", "addr:housenumber": "2", "addr:postcode": "677000", "addr:street": "\u0443\u043b\u0438\u0446\u0430 \u0414\u0437\u0435\u0440\u0436\u0438\u043d\u0441\u043a\u043e\u0433\u043e", "building": "commercial", "height": "16", "name:en": "Lena United Shipping Coimpany"}}]}