{"version": 0.6, "generator": "Overpass API 0.7.62.1 084b4234", "osm3s": {"timestamp_osm_base": "2024-05-03T07:25:45Z", "copyright": "The data included in this document is from www.openstreetmap.org. The data is made available under ODbL."}, "elements": [{"type": "node", "id": 1759425528, "lat": 51.7587932, "lon": 36.188143, "tags": {"amenity": "pharmacy", "dispensing": "no", "name": "\u0417\u0434\u0440\u0430\u0432\u043d\u0438\u0446\u0430", "wheelchair": "limited"}}, {"type": "node", "id": 2109196820, "lat": 51.758123, "lon": 36.1869804, "tags": {"addr:postcode": "305029", "amenity": "pharmacy", "dispensing": "no", "email": "ipvaskova@gmail.com", "name": "\u0411\u043e\u0433\u0430\u0442\u044b\u0440\u044c", "name:en": "Bogatyr", "opening_hours": "Mo-Su 08:00-21:00", "operator": "\u0418\u041f \u0412\u0430\u0441\u044c\u043a\u043e\u0432\u0430 \u0421.\u0418.", "phone": "+7(4712)584438", "wheelchair": "no"}}, {"type": "node", "id": 3231024544, "lat": 51.7589071, "lon": 36.1876515, "tags": {"amenity": "pharmacy", "name": "\u0410\u043f\u0442\u0435\u043a\u0430"}}]}