{"version": 0.6, "generator": "Overpass API 0.7.62.1 084b4234", "osm3s": {"timestamp_osm_base": "2024-05-03T16:21:34Z", "copyright": "The data included in this document is from www.openstreetmap.org. The data is made available under ODbL."}, "elements": [{"type": "node", "id": 5238461827, "lat": 43.3964279, "lon": 132.1655535, "tags": {"amenity": "toilets", "fee": "no", "level": "2"}}, {"type": "node", "id": 5238461828, "lat": 43.3965371, "lon": 132.1662549, "tags": {"amenity": "toilets", "fee": "no", "level": "2"}}, {"type": "node", "id": 5238461831, "lat": 43.3958667, "lon": 132.1647911, "tags": {"amenity": "toilets", "fee": "no", "level": "0"}}, {"type": "node", "id": 11088443771, "lat": 43.3968146, "lon": 132.165628, "tags": {"addr:floor": "2", "amenity": "toilets", "changing_table": "yes", "check_date": "2023-08-04", "fee": "no", "level": "1", "source": "survey", "toilets:disposal": "flush", "toilets:handwashing": "yes", "toilets:position": "seated;urinal", "wheelchair": "yes"}}]}