{"version": 0.6, "generator": "Overpass API 0.7.62.1 084b4234", "osm3s": {"timestamp_osm_base": "2024-05-03T11:10:04Z", "copyright": "The data included in this document is from www.openstreetmap.org. The data is made available under ODbL."}, "elements": [{"type": "node", "id": 3259820668, "lat": 55.8399982, "lon": 37.491461, "tags": {"amenity": "cafe", "brand": "\u0428\u043e\u043a\u043e\u043b\u0430\u0434\u043d\u0438\u0446\u0430", "brand:en": "Chocolate", "brand:wikidata": "Q30891188", "brand:wikipedia": "ru:\u0428\u043e\u043a\u043e\u043b\u0430\u0434\u043d\u0438\u0446\u0430 (\u0441\u0435\u0442\u044c \u043a\u043e\u0444\u0435\u0435\u043d)", "contact:facebook": "https://www.facebook.com/shoko.ru", "contact:instagram": "https://www.instagram.com/shoko.ru", "contact:ok": "https://ok.ru/shokoru", "contact:phone": "+7 985 3104839", "contact:twitter": "https://twitter.com/wwwShokoRu", "contact:vk": "https://vk.com/shokoru", "contact:website": "http://shoko.ru", "cuisine": "coffee_shop", "diet:vegetarian": "no", "level": "2", "name": "\u0428\u043e\u043a\u043e\u043b\u0430\u0434\u043d\u0438\u0446\u0430", "name:en": "Shokoladnitsa", "opening_hours": "Mo-Fr 09:00-22:00; Sa-Su 10:00-22:00", "takeaway": "yes"}}, {"type": "node", "id": 4500262920, "lat": 55.8406022, "lon": 37.4919246, "tags": {"amenity": "cafe", "brand": "Cofix", "brand:en": "Cofix", "brand:he": "\u05e7\u05e4\u05d5\u05d9\u05e7\u05e1", "brand:wikidata": "Q16132717", "brand:wikipedia": "he:\u05e7\u05d5\u05e4\u05d9\u05e7\u05e1", "contact:email": "info@cofix.ru", "contact:facebook": "https://www.facebook.com/cofixrussia", "contact:instagram": "https://www.instagram.com/cofixrussia", "contact:phone": "+7 800 3508418", "contact:vk": "https://vk.com/cofixrussia", "contact:website": "https://www.cofix.global", "cuisine": "coffee_shop", "delivery": "no", "level": "1", "name": "Cofix", "name:en": "Cofix", "name:he": "\u05e7\u05d5\u05e4\u05d9\u05e7\u05e1", "opening_hours": "Mo-Fr 08:00-22:00; Sa-Su 10:00-22:00", "takeaway": "only"}}, {"type": "node", "id": 5089019195, "lat": 55.8404725, "lon": 37.4934988, "tags": {"amenity": "cafe", "contact:phone": "+7 999 8595467", "contact:website": "http://vietpho.ru", "cuisine": "vietnamese", "name": "\u0412\u044c\u0435\u0442\u0444\u043e", "opening_hours": "Mo-Su 11:00-23:00"}}, {"type": "node", "id": 6415850522, "lat": 55.8409296, "lon": 37.493602, "tags": {"amenity": "cafe", "cuisine": "georgian", "name": "\u041d\u0443\u0433\u0431\u0430\u0440\u0438", "wheelchair": "yes"}}, {"type": "node", "id": 6428968974, "lat": 55.84024, "lon": 37.492024, "tags": {"amenity": "cafe", "contact:email": "info@takeandwake.ru", "contact:phone": "+7 800 7073549", "contact:website": "http://www.mrcroissant.ru/", "name": "Mr. Croissant", "opening_hours": "Mo-Fr 08:00-22:00;Sa-Su 09:00-22:00", "operator": "\u0418\u043c\u043f\u0435\u0440\u0438\u044f \u043a\u043e\u0444\u0435"}}, {"type": "node", "id": 6817599234, "lat": 55.8402851, "lon": 37.4917755, "tags": {"amenity": "cafe", "contact:email": "info@takeandwake.ru", "contact:phone": "+7 800 7073549", "contact:website": "http://www.mrcroissant.ru/", "name": "\u041c\u0438\u0441\u0442\u0435\u0440 \u041a\u0440\u0443\u0430\u0441\u0441\u0430\u043d", "opening_hours": "Mo-Fr 08:00-22:00;Sa-Su 09:00-22:00", "operator": "\u0418\u043c\u043f\u0435\u0440\u0438\u044f \u043a\u043e\u0444\u0435"}}]}