{"version": 0.6, "generator": "Overpass API 0.7.62.1 084b4234", "osm3s": {"timestamp_osm_base": "2024-05-03T22:10:59Z", "copyright": "The data included in this document is from www.openstreetmap.org. The data is made available under ODbL."}, "elements": [{"type": "node", "id": 5410538683, "lat": 55.7095677, "lon": 37.6543449, "tags": {"amenity": "cafe", "brand": "\u0428\u043e\u043a\u043e\u043b\u0430\u0434\u043d\u0438\u0446\u0430", "brand:en": "Chocolate", "brand:wikidata": "Q30891188", "contact:facebook": "https://www.facebook.com/shoko.ru", "contact:instagram": "https://www.instagram.com/shoko.ru", "contact:ok": "https://ok.ru/shokoru", "contact:twitter": "https://twitter.com/wwwShokoRu", "contact:vk": "https://vk.com/shokoru", "contact:website": "http://shoko.ru", "cuisine": "coffee_shop", "diet:vegetarian": "no", "name": "\u0428\u043e\u043a\u043e\u043b\u0430\u0434\u043d\u0438\u0446\u0430", "name:en": "Shokoladnitsa", "opening_hours": "Mo-Fr 08:00-22:00; Sa-Su 10:00-22:00", "phone": "+7 917 5174420", "takeaway": "yes"}}, {"type": "node", "id": 6783481707, "lat": 55.7093158, "lon": 37.6535555, "tags": {"air_conditioning": "yes", "amenity": "cafe", "cuisine": "coffee_shop", "diet:halal": "no", "diet:vegetarian": "yes", "indoor_seating": "yes", "name": "Stars coffee", "opening_hours": "Mo-Fr 08:00-22:00; Sa,Su 09:00-22:00", "outdoor_seating": "no", "smoking": "no", "wheelchair": "limited"}}, {"type": "node", "id": 7942443086, "lat": 55.7096473, "lon": 37.6546264, "tags": {"amenity": "cafe", "contact:email": "service@hlebnasushny.ru", "contact:facebook": "https://www.facebook.com/hlebnasushny.ru/", "contact:instagram": "https://www.instagram.com/hlebnasushny.ru/", "contact:phone": "+7 495 4112533", "contact:website": "https://hlebnasushny.ru/", "name": "\u0425\u043b\u0435\u0431 \u041d\u0430\u0441\u0443\u0449\u043d\u044b\u0439", "opening_hours": "Mo-Fr 08:00-17:00", "operator": "\u0412\u0430\u0448 \u0445\u043b\u0435\u0431"}}, {"type": "node", "id": 11668826635, "lat": 55.709943, "lon": 37.6553972, "tags": {"amenity": "cafe", "contact:email": "lilo@surfteam.ru", "contact:phone": "+7 800 7772407;+7 993 8923044", "contact:website": "https://www.surfcoffee.ru", "cuisine": "coffee_shop", "name": "Surf Coffee", "opening_hours": "Mo-Fr 08:00-22:00; Sa-Su 10:00-22:00"}}]}