{"version": 0.6, "generator": "Overpass API 0.7.62.1 084b4234", "osm3s": {"timestamp_osm_base": "2024-05-03T19:30:21Z", "copyright": "The data included in this document is from www.openstreetmap.org. The data is made available under ODbL."}, "elements": [{"type": "node", "id": 798702040, "lat": 59.9132814, "lon": 30.3178693}, {"type": "node", "id": 798702062, "lat": 59.913334, "lon": 30.3175874}, {"type": "node", "id": 798702138, "lat": 59.9133475, "lon": 30.3178651}, {"type": "node", "id": 798702176, "lat": 59.9132864, "lon": 30.3175904}, {"type": "node", "id": 1554518181, "lat": 59.9117979, "lon": 30.3174928, "tags": {"amenity": "cafe", "check_date": "2024-03-30", "contact:vk": "https://vk.com/21versta", "name": "21 \u0432\u0435\u0440\u0441\u0442\u0430", "opening_hours": "Mo-Fr 09:00-23:00; Sa-Su 10:00-23:00", "website": "http://cafe21versta.ru/"}}, {"type": "node", "id": 1555661821, "lat": 59.9125434, "lon": 30.3173303, "tags": {"amenity": "cafe", "check_date": "2023-03-07", "level": "0", "name": "Studio 212"}}, {"type": "node", "id": 4547477983, "lat": 59.9126425, "lon": 30.3179945, "tags": {"addr:city": "\u0421\u0430\u043d\u043a\u0442-\u041f\u0435\u0442\u0435\u0440\u0431\u0443\u0440\u0433", "addr:housenumber": "41", "addr:postcode": "190005", "addr:street": "\u041c\u043e\u0441\u043a\u043e\u0432\u0441\u043a\u0438\u0439 \u043f\u0440\u043e\u0441\u043f\u0435\u043a\u0442", "amenity": "cafe", "check_date": "2024-03-28", "contact:vk": "https://vk.com/vencikafe", "cuisine": "russian;bulgarian", "delivery": "yes", "internet_access": "wlan", "internet_access:fee": "no", "level": "0", "name": "Venci \u043a\u0430\u0444\u0435", "opening_hours": "09:00-21:00", "outdoor_seating": "no", "phone": "+7 981 913-68-85", "takeaway": "no", "wheelchair": "no"}}, {"type": "node", "id": 4768661281, "lat": 59.9123505, "lon": 30.3179985, "tags": {"amenity": "cafe", "brand": "\u041b\u044e\u0434\u0438 \u043b\u044e\u0431\u044f\u0442", "brand:wikidata": "Q110254113", "breakfast": "10:00-12:00", "check_date": "2024-03-28", "contact:instagram": "ludi_love_bakery", "contact:vk": "ludilovebakery", "contact:website": "https://\u043b\u044e\u0434\u0438\u043b\u044e\u0431\u044f\u0442.\u0440\u0444", "craft": "bakery", "cuisine": "bread;coffee_shop;cake;pie", "lunch": "12:00-15:00", "name": "\u041b\u044e\u0434\u0438 \u043b\u044e\u0431\u044f\u0442", "name:ru": "\u041b\u044e\u0434\u0438\u041b\u044e\u0431\u044f\u0442", "opening_hours": "08:00-22:00", "outdoor_seating": "no", "shop": "bakery", "takeaway": "yes", "toilets": "no", "wheelchair": "limited"}}, {"type": "node", "id": 5599463692, "lat": 59.913336, "lon": 30.3177132}, {"type": "node", "id": 5599463693, "lat": 59.913345, "lon": 30.3177126}, {"type": "node", "id": 5599463694, "lat": 59.913279, "lon": 30.3177216}, {"type": "node", "id": 5599463695, "lat": 59.9132885, "lon": 30.3177209}, {"type": "node", "id": 11768712524, "lat": 59.9127266, "lon": 30.3179945, "tags": {"amenity": "cafe", "brand": "Coffee Like", "brand:wikidata": "Q55662627", "check_date": "2024-03-28", "cuisine": "coffee_shop", "name": "Coffee Like", "takeaway": "yes"}}, {"type": "way", "id": 65395881, "nodes": [798702138, 5599463693, 5599463692, 798702062, 798702176, 5599463695, 5599463694, 798702040, 798702138], "tags": {"addr:housenumber": "37\u0410", "addr:postcode": "190005", "addr:street": "\u041c\u043e\u0441\u043a\u043e\u0432\u0441\u043a\u0438\u0439 \u043f\u0440\u043e\u0441\u043f\u0435\u043a\u0442", "amenity": "cafe", "building": "yes", "building:levels": "1", "check_date": "2024-03-28", "name": "\u0422\u0438\u043b\u0438-\u0442\u0435\u0441\u0442\u043e", "opening_hours": "07:00-22:00"}}]}