{"version": 0.6, "generator": "Overpass API 0.7.62.1 084b4234", "osm3s": {"timestamp_osm_base": "2024-05-03T23:39:28Z", "copyright": "The data included in this document is from www.openstreetmap.org. The data is made available under ODbL."}, "elements": [{"type": "node", "id": 3659806226, "lat": 53.2061144, "lon": 50.1230893, "tags": {"addr:city": "\u0421\u0430\u043c\u0430\u0440\u0430", "addr:street": "\u041f\u043e\u043b\u0435\u0432\u0430\u044f \u0443\u043b\u0438\u0446\u0430 68", "amenity": "bar", "brewery": "craft_beer;gellert", "name": "\u0414\u0438\u043a\u0430\u044f \u041a\u043e\u0437\u0430", "opening_hours": "13:00 - 01-00", "opening_hours:covid19": "14:00 - 02:00", "outdoor_seating": "yes", "phone": "+79018023470", "website": "https://vk.com/dikaya_koza63"}}, {"type": "node", "id": 8154400420, "lat": 53.2060036, "lon": 50.1231828, "tags": {"amenity": "bar", "contact:email": "steamcraft163@mail.ru", "contact:instagram": "https://instagram.com/steam.craft.smr", "contact:phone": "+7 846 2525775", "contact:vk": "https://vk.com/steamcraftsmr", "contact:website": "https://untappd.com/", "name": "Steam Craft Bar", "opening_hours": "Fr-Sa 12:00-03:00; Mo-Th,Su 12:00-00:00", "operator": "Steam Craft Bar"}}]}