{"version": 0.6, "generator": "Overpass API 0.7.62.1 084b4234", "osm3s": {"timestamp_osm_base": "2024-05-03T22:55:58Z", "copyright": "The data included in this document is from www.openstreetmap.org. The data is made available under ODbL."}, "elements": [{"type": "node", "id": 1444604204, "lat": 59.7290572, "lon": 30.082353, "tags": {"amenity": "pharmacy", "brand": "\u041f\u0435\u0442\u0435\u0440\u0431\u0443\u0440\u0433\u0441\u043a\u0438\u0435 \u0430\u043f\u0442\u0435\u043a\u0438", "brand:wikidata": "Q109732886", "healthcare": "pharmacy", "name": "\u041f\u0435\u0442\u0435\u0440\u0431\u0443\u0440\u0433\u0441\u043a\u0438\u0435 \u0430\u043f\u0442\u0435\u043a\u0438", "opening_hours": "Mo-Su 08:00-22:00"}}, {"type": "node", "id": 4119221666, "lat": 59.7293434, "lon": 30.0837278, "tags": {"amenity": "pharmacy", "brand": "\u041e\u0437\u0435\u0440\u043a\u0438", "brand:wikidata": "Q109712399", "healthcare": "pharmacy", "name": "\u041e\u0437\u0435\u0440\u043a\u0438"}}, {"type": "node", "id": 11052759438, "lat": 59.7292701, "lon": 30.0836804, "tags": {"amenity": "pharmacy", "brand": "\u0410\u043b\u043e\u044d", "brand:wikidata": "Q110253348", "contact:phone": "+7 812 7791179-5828", "contact:website": "https://aloeapteka.ru/", "healthcare": "pharmacy", "name": "\u0410\u043b\u043e\u044d", "opening_hours": "Mo-Su 09:00-21:00"}}]}