{"version": 0.6, "generator": "Overpass API 0.7.62.1 084b4234", "osm3s": {"timestamp_osm_base": "2024-05-03T22:19:08Z", "copyright": "The data included in this document is from www.openstreetmap.org. The data is made available under ODbL."}, "elements": [{"type": "node", "id": 4972122526, "lat": 59.9242647, "lon": 30.3844467, "tags": {"amenity": "cafe", "brand": "\u041f\u0438\u0440\u043e\u0433\u043e\u0432\u044b\u0439 \u0434\u0432\u043e\u0440\u0438\u043a", "brand:wikidata": "Q110240743", "brand:wikipedia": "en:MegaFon", "contact:phone": "+7 812 3131061-223;+7 911 7511989", "contact:website": "https://pirogov-dvorik.ru", "cuisine": "coffee_shop;pie;russian", "level": "0", "name": "\u041f\u0438\u0440\u043e\u0433\u043e\u0432\u044b\u0439 \u0434\u0432\u043e\u0440\u0438\u043a", "name:ru": "\u041f\u0438\u0440\u043e\u0433\u043e\u0432\u044b\u0439 \u0434\u0432\u043e\u0440\u0438\u043a", "opening_hours": "Mo-Fr 07:30-21:00; Sa-Su 09:00-21:00", "shop": "bakery", "takeaway": "yes"}}, {"type": "node", "id": 7079729466, "lat": 59.924189, "lon": 30.38305, "tags": {"amenity": "cafe", "brand": "Baggins Coffee", "brand:wikidata": "Q100272631", "contact:email": "info@bagginscoffee.ru", "contact:phone": "+7 800 6007015", "contact:website": "http://bagginscoffee.com/", "cuisine": "coffee_shop", "name": "Baggins Coffee", "opening_hours": "Mo-Fr 07:30-21:01;Sa-Su 09:00-21:01", "operator": "\u0418\u041f \u0411\u0440\u0430\u0433\u0438\u043d\u0430 \u041c\u0430\u0440\u0433\u0430\u0440\u0438\u0442\u0430 \u042d\u0434\u0443\u0430\u0440\u0434\u043e\u0432\u043d\u0430", "takeaway": "yes"}}, {"type": "node", "id": 9913213013, "lat": 59.9242434, "lon": 30.3849238, "tags": {"amenity": "cafe", "brand": "\u041b\u044e\u0434\u0438 \u043b\u044e\u0431\u044f\u0442", "brand:wikidata": "Q110254113", "breakfast": "10:00-12:00", "contact:instagram": "ludi_love_bakery", "contact:vk": "ludilovebakery", "contact:website": "https://\u043b\u044e\u0434\u0438\u043b\u044e\u0431\u044f\u0442.\u0440\u0444", "craft": "bakery", "cuisine": "bread;coffee_shop;cake;pie", "lunch": "12:00-15:00", "name": "\u041b\u044e\u0434\u0438 \u043b\u044e\u0431\u044f\u0442", "name:ru": "\u041b\u044e\u0434\u0438\u041b\u044e\u0431\u044f\u0442", "opening_hours": "08:00-22:00", "outdoor_seating": "no", "shop": "bakery", "takeaway": "yes", "toilets": "no"}}]}